name,longitude,latitude,postcode,suburb
RESERVOIR VIEWS PRIMARY SCHOOL,145.020560000479,-37.7058199987087,3073,Reservoir
DIMBOOLA PRIMARY SCHOOL,142.030409999602,-36.4533499994983,3414,Dimboola
WINCHELSEA PRIMARY SCHOOL,143.984290000126,-38.2444799992932,3241,Winchelsea
KIALLA CENTRAL PRIMARY SCHOOL,145.431160000441,-36.452689999515,3631,Kialla
LAURIMAR PRIMARY SCHOOL,145.126879999592,-37.5858099994553,3754,Doreen
EPPING VIEWS PRIMARY SCHOOL,145.024020000103,-37.6284299990073,3076,Epping
SPENSLEY STREET PRIMARY SCHOOL,145.00389000025,-37.7867799987148,3068,Clifton Hill
ALAMEIN PRIMARY SCHOOL,145.080419999547,-37.8670699993919,3147,Ashburton
MOUNT PROSPECT PRIMARY SCHOOL,144.018480000288,-37.3781799990235,3364,Newlyn North
TOONGABBIE PRIMARY SCHOOL,146.625189999454,-38.056949999342,3856,Toongabbie
HIAWATHA PRIMARY SCHOOL,146.465419999873,-38.5215099992212,3971,Hiawatha
QUEENSCLIFF PRIMARY SCHOOL,144.656219999505,-38.2672099994614,3225,Queenscliff
MONT ALBERT PRIMARY SCHOOL,145.102729999838,-37.8130699992736,3127,Mont Albert
MONTAGUE PRIMARY SCHOOL,144.950140000453,-37.830679998869,3006,Southbank
BERWICK PRIMARY SCHOOL,145.354420000348,-38.0440799991787,3806,Berwick
WINDSOR PRIMARY SCHOOL,144.995689999695,-37.8572799988257,3181,Windsor
WINTERS FLAT PRIMARY SCHOOL,144.207499999869,-37.0701499995094,3450,Castlemaine
BEVERLEY HILLS PRIMARY SCHOOL,145.159850000055,-37.7962299989599,3109,Doncaster East
ARDEER SOUTH PRIMARY SCHOOL,144.799000000434,-37.7883799988094,3020,Sunshine West
ARDMONA PRIMARY SCHOOL,145.313070000484,-36.3854399991833,3629,Ardmona
BUCKRABANYULE PRIMARY SCHOOL,143.510669999852,-36.2484299992396,3525,Buckrabanyule
BRIMPAEN PRIMARY SCHOOL,142.2134799995,-37.0348499994629,3401,Brimpaen
BULN BULN PRIMARY SCHOOL,145.938180000169,-38.0993399989102,3821,Buln Buln
BUNBARTHA PRIMARY SCHOOL,145.343200000471,-36.218179998837,3634,Bunbartha
BUNDALAGUAH PRIMARY SCHOOL,147.012109999745,-38.0234899993897,3851,Bundalaguah
BUNDOORA PRIMARY SCHOOL,145.068760000026,-37.6859599987196,3083,Bundoora
CARISBROOK PRIMARY SCHOOL,143.812660000556,-37.0520499992688,3464,Carisbrook
CARLISLE RIVER PRIMARY SCHOOL,143.395029999988,-38.5639199994893,3239,Carlisle River
LINTON PRIMARY SCHOOL,143.561319999646,-37.6840599993774,3360,Linton
LISMORE PRIMARY SCHOOL,143.339299999778,-37.9545799988063,3324,Lismore
LITTLE BENDIGO PRIMARY SCHOOL,143.895059999981,-37.5428899990364,3350,Nerrina
CURRAWA PRIMARY SCHOOL,145.703789999591,-36.3847399993587,3647,Dookie College
ALBERTON PRIMARY SCHOOL,146.66661000021,-38.6176999986378,3971,Alberton
WARRANDYTE PRIMARY SCHOOL,145.213989999647,-37.7426599989995,3113,Warrandyte
WARRAWONG PRIMARY SCHOOL,145.136259999503,-37.8445699987878,3130,Blackburn South
ALPHINGTON PRIMARY SCHOOL,145.032009999614,-37.7835099994332,3078,Alphington
NEW GISBORNE PRIMARY SCHOOL,144.596589999709,-37.4628699989111,3438,New Gisborne
WHITTLESEA PRIMARY SCHOOL,145.114049999951,-37.5142499987078,3757,Whittlesea
WHOROULY EAST PRIMARY SCHOOL,146.615979999511,-36.5345699989061,3735,Whorouly East
WHOROULY PRIMARY SCHOOL,146.586660000035,-36.5054299988658,3735,Whorouly
WHOROULY SOUTH PRIMARY SCHOOL,146.592369999797,-36.5598499994036,3735,Whorouly
RIDDELLS CREEK PRIMARY SCHOOL,144.679779999471,-37.4612099991162,3431,Riddells Creek
BETHAL PRIMARY SCHOOL,144.917830000208,-37.6591799987269,3048,Meadow Heights
BETHANGA PRIMARY SCHOOL,147.095770000378,-36.1206299993405,3691,Bethanga
Beveridge Primary School,144.977759999695,-37.472049999116,3753,Beveridge
CANADIAN LEAD PRIMARY SCHOOL,143.875919999579,-37.5729499993234,3350,Canadian
MINYIP PRIMARY SCHOOL,142.584109999879,-36.4626999991164,3392,Minyip
MELVILLE FOREST PRIMARY SCHOOL,141.852090000488,-37.5056799993755,3315,Melville Forest
MEPUNGA EAST PRIMARY SCHOOL,142.699310000474,-38.4401299994101,3277,Mepunga East
CLEAR LAKE PRIMARY SCHOOL,141.860149999938,-36.9242899990511,3409,Clear Lake
BIG HILL PRIMARY SCHOOL,144.244030000336,-36.7962399993288,3555,Kangaroo Flat
BLACK HILL PRIMARY SCHOOL,143.869789999921,-37.5498299991961,3350,Black Hill
TRAFALGAR EAST PRIMARY SCHOOL,146.192370000469,-38.1801299992549,3824,Trafalgar East
BULLEEN PRIMARY SCHOOL,145.093759999599,-37.7653999989851,3105,Bulleen
GLEN WAVERLEY PRIMARY SCHOOL,145.167590000115,-37.8746999986706,3150,Glen Waverley
GILLIESTON PRIMARY SCHOOL,145.218759999651,-36.3190099995434,3616,Gillieston
CLUNES PRIMARY SCHOOL,143.792120000376,-37.2907399994347,3370,Clunes
COBDEN PRIMARY SCHOOL,143.078130000274,-38.3271099989409,3266,Cobden
SYNDAL NORTH PRIMARY SCHOOL,145.141260000554,-37.8673499993812,3149,Mount Waverley
SYNDAL PRIMARY SCHOOL,145.151529999777,-37.870959998639,3150,Glen Waverley
SUNBURY HEIGHTS PRIMARY SCHOOL,144.70695999955,-37.5811299993077,3429,Sunbury
SUNBURY WEST PRIMARY SCHOOL,144.712930000482,-37.5747899990298,3429,Sunbury
TONGALA CONSOLIDATED SCHOOL,144.955420000445,-36.2498499988413,3621,Tongala
TOOLAMBA WEST PRIMARY SCHOOL,145.25986999951,-36.4837399991233,3614,Toolamba West
TOOLANGI PRIMARY SCHOOL,145.472509999823,-37.5353599989097,3777,Toolangi
BEEAC PRIMARY SCHOOL,143.644290000019,-38.1939599993121,3251,Beeac
BEECH FOREST PRIMARY SCHOOL,143.566530000127,-38.6315099991232,3237,Beech Forest
POWELLTOWN PRIMARY SCHOOL,145.752919999854,-37.8653999987828,3797,Powelltown
DALYSTON PRIMARY SCHOOL,145.546200000039,-38.5603399990804,3992,Dalyston
POWLETT RIVER PRIMARY SCHOOL,145.546200000039,-38.5603399990804,3992,Dalyston
PRAHRAN PRIMARY SCHOOL,144.988199999517,-37.8503999994246,3181,Prahran
COBRICO PRIMARY SCHOOL,143.015149999527,-38.2981799987446,3266,Cobrico
SANDRINGHAM EAST PRIMARY SCHOOL,145.022230000096,-37.9566599991325,3191,Sandringham
JUNG PRIMARY SCHOOL,142.357649999542,-36.60678999873,3401,Jung
TOORA PRIMARY SCHOOL,146.327999999746,-38.6634999990911,3962,Toora
TOORADIN PRIMARY SCHOOL,145.378500000099,-38.2076199992018,3980,Tooradin
PORT MELBOURNE PRIMARY SCHOOL,144.932919999695,-37.8348499995009,3207,Port Melbourne
PORTARLINGTON PRIMARY SCHOOL,144.654990000324,-38.1155099994453,3223,Portarlington
BALWYN NORTH PRIMARY SCHOOL,145.077050000523,-37.7966899995066,3104,Balwyn North
BALWYN PRIMARY SCHOOL,145.081379999563,-37.8139199988752,3103,Balwyn
BADGER CREEK PRIMARY SCHOOL,145.533319999805,-37.6811399993167,3777,Badger Creek
BAILIESTON PRIMARY SCHOOL,145.115979999555,-36.7417899991115,3608,Bailieston
KALKEE PRIMARY SCHOOL,142.211259999641,-36.5370699992473,3401,Kalkee
IRREWARRA PRIMARY SCHOOL,143.637369999758,-38.3003999987697,3249,Irrewarra
IRYMPLE PRIMARY SCHOOL,142.15908999983,-34.2265899988509,3498,Irymple
IRYMPLE SOUTH PRIMARY SCHOOL,142.190629999607,-34.2524799994538,3498,Irymple
SILVERTON PRIMARY SCHOOL,145.192890000093,-37.9492199989205,3174,Noble Park North
HAWTHORN WEST PRIMARY SCHOOL,145.018380000214,-37.8200999988087,3122,Hawthorn
HAZELWOOD ESTATE PRIMARY SCHOOL,146.377919999758,-38.3128999988034,3840,Hazelwood
HAZELWOOD NORTH PRIMARY SCHOOL,146.447690000198,-38.2681799993227,3840,Hazelwood North
HAZELWOOD PRIMARY SCHOOL,146.443480000536,-38.2412399995129,3840,Morwell
BUXTON PRIMARY SCHOOL,145.709059999607,-37.4213899987097,3711,Buxton
BYLANDS PRIMARY SCHOOL,144.960979999767,-37.3515099986656,3762,Bylands
BYRNESIDE PRIMARY SCHOOL,145.16126000031,-36.3992899989262,3617,Byrneside
BUNGAREE PRIMARY SCHOOL,144.007099999569,-37.5575799993537,3352,Bungaree
BAIRNSDALE PRIMARY SCHOOL,147.623229999775,-37.8274099988668,3875,Bairnsdale
BAIRNSDALE WEST PRIMARY SCHOOL,147.608099999546,-37.8245299987581,3875,Bairnsdale
JANCOURT PRIMARY SCHOOL,143.095980000101,-38.3687399992501,3266,Jancourt
HEALESVILLE PRIMARY SCHOOL,145.516050000375,-37.6571199991176,3777,Healesville
HEATHCOTE PRIMARY SCHOOL,144.706859999601,-36.9239999993038,3523,Heathcote
HEATHERDALE PRIMARY SCHOOL,145.209590000099,-37.8215099992552,3132,Mitcham
HEATHERHILL PRIMARY SCHOOL,145.158150000282,-37.9626299987954,3171,Springvale
HEATHERTON PRIMARY SCHOOL,145.102639999603,-37.9584599991409,3202,Heatherton
HEATHMONT EAST PRIMARY SCHOOL,145.257689999471,-37.830329998768,3135,Heathmont
HEDLEY PRIMARY SCHOOL,146.501260000096,-38.6478999987065,3967,Hedley
QUANTONG PRIMARY SCHOOL,142.025149999761,-36.7542899991946,3401,Quantong
RAGLAN PRIMARY SCHOOL,143.347650000012,-37.363459999343,3373,Raglan
RAINBOW PRIMARY SCHOOL,141.995150000089,-35.896239998755,3424,Rainbow
WODONGA PRIMARY SCHOOL,146.889819999654,-36.1291999991014,3690,Wodonga
WODONGA SOUTH PRIMARY SCHOOL,146.894000000531,-36.1396099988533,3690,Wodonga
WODONGA WEST PRIMARY SCHOOL,146.87670999993,-36.1223999988215,3690,Wodonga
WOLLERT PRIMARY SCHOOL,145.027110000312,-37.6113199990449,3750,Wollert
HARKAWAY PRIMARY SCHOOL,145.345179999908,-38.0008399989813,3806,Harkaway
HARRIETVILLE PRIMARY SCHOOL,147.06493999999,-36.8876999993876,3741,Harrietville
HARRISFIELD PRIMARY SCHOOL,145.179900000433,-37.9544299990284,3174,Noble Park
HARSTON PRIMARY SCHOOL,145.141760000161,-36.4698399991744,3616,Harston
HARTWELL PRIMARY SCHOOL,145.084469999789,-37.8480399991014,3124,Camberwell
PRESTON EAST PRIMARY SCHOOL,145.018479999914,-37.7381799994164,3072,Preston
POINT COOK PRIMARY SCHOOL,144.748479999772,-37.9206799992312,3030,Point Cook
RED HILL CONSOLIDATED SCHOOL,144.995270000261,-38.366669999461,3937,Red Hill
SYDENHAM WEST PRIMARY SCHOOL,144.660419999504,-37.6828999988871,3335,Plumpton
DEDERANG PRIMARY SCHOOL,147.015319999978,-36.4692399994604,3691,Dederang
NEERIM DISTRICT RURAL PRIMARY SCHOOL,145.949839999576,-37.9215099989581,3832,Nayook
NEERIM EAST PRIMARY SCHOOL,145.949839999576,-37.9215099989581,3832,Nayook
NEERIM SOUTH PRIMARY SCHOOL,145.955359999989,-38.0152999987581,3831,Neerim South
MALDON PRIMARY SCHOOL,144.065819999804,-36.9950299989414,3463,Maldon
MALLACOOTA PRIMARY SCHOOL,149.756809999614,-37.5576299992543,3892,Mallacoota
BURNLEY PRIMARY SCHOOL,145.010420000029,-37.8281799991924,3121,Burnley
WHITESIDE PRIMARY SCHOOL,145.14848000005,-37.9384599993526,3171,Springvale
WHITTINGTON PRIMARY SCHOOL,144.395010000176,-38.1781399993826,3219,Whittington
QUARRY HILL PRIMARY SCHOOL,144.279979999461,-36.7750999995347,3550,Quarry Hill
STRATHLEA PRIMARY SCHOOL,143.969029999749,-37.1476299993995,3364,Strathlea
STREATHAM PRIMARY SCHOOL,143.061810000142,-37.6803999987202,3351,Streatham
STREATHAM & DISTRICT PRIMARY SCHOOL,143.061810000142,-37.6803999987202,3351,Streatham
AVONDALE PRIMARY SCHOOL,144.860860000109,-37.7678299988271,3034,Avondale Heights
MALMSBURY PRIMARY SCHOOL,144.386950000401,-37.1872999992434,3446,Malmsbury
MORDIALLOC PRIMARY SCHOOL,145.088819999547,-38.0055699992753,3195,Mordialloc
MORELAND PRIMARY SCHOOL,144.966480000279,-37.7550499986664,3058,Coburg
MEADOWBANK PRIMARY SCHOOL,144.929030000111,-37.6878999989515,3047,Broadmeadows
SPEED PRIMARY SCHOOL,142.442649999505,-35.4012399991515,3488,Speed
SKYE PRIMARY SCHOOL,145.201250000083,-38.1176899986987,3977,Skye
WON WRON PRIMARY SCHOOL,146.717090000233,-38.4753999992973,3971,Won Wron
WILLOWMAVIN PRIMARY SCHOOL,144.888239999937,-37.2594099988755,3764,Willowmavin
Willung Primary School,146.820140000172,-38.2528999993859,3847,Willung
NILMA NORTH PRIMARY SCHOOL,145.985700000112,-38.1390099993972,3821,Nilma North
NOBLE PARK NORTH PRIMARY SCHOOL,145.18958999971,-37.9417899993912,3174,Noble Park North
GLENTHOMPSON PRIMARY SCHOOL,142.550039999743,-37.6375199990638,3293,Glenthompson
LALOR PARK PRIMARY SCHOOL,145.001350000543,-37.6636799988216,3075,Lalor
LALOR PRIMARY SCHOOL,145.025399999882,-37.6700599995056,3075,Lalor
MURRAYVILLE PRIMARY SCHOOL,141.18153000011,-35.2628999994877,3512,Murrayville
MURTOA PRIMARY SCHOOL,142.468759999793,-36.6165099993597,3390,Murtoa
KINGSTON PRIMARY SCHOOL,143.954309999471,-37.3795699992219,3364,Kingston
PANTON HILL PRIMARY SCHOOL,145.239559999436,-37.6415899990384,3759,Panton Hill
MURRABIT GROUP SCHOOL,143.950749999894,-35.5288199989693,3579,Murrabit
MURRAYDALE CENTRAL PRIMARY SCHOOL,143.559310000096,-35.280399999118,3586,Murraydale
MURRAY ROAD PRIMARY SCHOOL,146.292090000059,-38.1890099989022,3825,Newborough
LAKES ENTRANCE PRIMARY SCHOOL,147.994240000506,-37.8759599989091,3909,Lakes Entrance
LAKESIDE PRIMARY SCHOOL,144.979590000197,-37.7095699986492,3073,Reservoir
MONTMORENCY SOUTH PRIMARY SCHOOL,145.129670000188,-37.7249099992997,3094,Montmorency
WINTON SWAMP,145.129670000188,-37.7249099992997,3094,Montmorency
LOCH PRIMARY SCHOOL,145.702960000291,-38.3686099988264,3945,Loch
NOORAT PRIMARY SCHOOL,142.928740000379,-38.1907399993177,3265,Noorat
DONVALE PRIMARY SCHOOL,145.173779999791,-37.8003999991385,3111,Donvale
HORSHAM NORTH PRIMARY SCHOOL,142.204539999989,-36.6973599989893,3400,Horsham
LANCASTER PRIMARY SCHOOL,145.123480000223,-36.6751299986878,3612,Whroo
LANCEFIELD PRIMARY SCHOOL,144.726429999925,-37.274939999041,3435,Lancefield
LANGLEY PRIMARY SCHOOL,144.489659999997,-37.1711699995246,3444,Langley
KUNYUNG PRIMARY SCHOOL,145.076240000375,-38.1876599991816,3930,Mount Eliza
KYABRAM PRIMARY SCHOOL,145.039029999966,-36.309289999351,3620,Kyabram
BOBINAWARRA EAST PRIMARY SCHOOL,146.497920000019,-36.5281799986652,3678,Bobinawarrah
BALD HILLS PRIMARY SCHOOL,143.844590000044,-37.4509599991007,3364,Bald Hills
JACANA PRIMARY SCHOOL,144.913340000134,-37.6885999990527,3047,Jacana
SANDRINGHAM PRIMARY SCHOOL,145.009470000484,-37.9470299990493,3191,Sandringham
SALE PRIMARY SCHOOL,147.072889999811,-38.107749999108,3850,Sale
BOGONG PRIMARY SCHOOL,147.22542000026,-36.8037399990002,3699,Bogong
EDDINGTON PRIMARY SCHOOL,143.859309999672,-36.8826299990128,3472,Eddington
MARCUS HILL PRIMARY SCHOOL,144.571529999919,-38.2420699992574,3222,Marcus Hill
MARDAN SOUTH PRIMARY SCHOOL,146.091529999447,-38.47984999905,3953,Mardan
MARIBYRNONG PRIMARY SCHOOL,144.891529999692,-37.7712399992037,3032,Maribyrnong
MARKWOOD PRIMARY SCHOOL,146.497919999845,-36.4592899991955,3678,Markwood
MARLBOROUGH PRIMARY SCHOOL,145.232949999575,-37.8363999995343,3135,Heathmont
WEST WARRNAMBOOL PRIMARY SCHOOL,142.465979999783,-38.3659599990133,3280,Warrnambool
CALLAWADDA PRIMARY SCHOOL,142.785699999433,-36.8178999994984,3387,Callawadda
MAPLE STREET PRIMARY SCHOOL,144.265149999598,-36.771239998703,3555,Golden Square
WONGA PARK PRIMARY SCHOOL,145.273999999551,-37.7306299987875,3115,Wonga Park
MARYSVILLE PRIMARY SCHOOL,145.748940000451,-37.51196999902,3779,Marysville
CAMPBELLTOWN PRIMARY SCHOOL,143.944309999468,-37.2026299991375,3364,Campbelltown
BURRUM PRIMARY SCHOOL,142.733199999982,-36.5506799993383,3388,Banyena
GLENORCHY PRIMARY SCHOOL,142.659869999994,-36.9020699988983,3385,Glenorchy
GLENORMISTON PRIMARY SCHOOL,142.988479999912,-38.1562399987414,3265,Glenormiston North
SUTTON GRANGE PRIMARY SCHOOL,144.358200000254,-36.9873499991082,3448,Sutton Grange
Stradbroke West Primary School,146.961260000203,-38.2703999988259,3851,Stradbroke
ELINGAMITE NORTH PRIMARY SCHOOL,143.002919999567,-38.3353999991703,3266,Elingamite North
ELINGAMITE PRIMARY SCHOOL,143.02153000008,-38.365679999277,3266,Elingamite
ELLERSLIE PRIMARY SCHOOL,142.685980000368,-38.1517899987737,3265,Ellerslie
ELLIMINYT PRIMARY SCHOOL,143.583700000063,-38.3613399994283,3250,Elliminyt
ELMHURST PRIMARY SCHOOL,143.250209999834,-37.1779999992494,3469,Elmhurst
BUNDARRA PRIMARY SCHOOL,141.59244999953,-38.3622299989127,3305,Portland
BUNINYONG PRIMARY SCHOOL,143.886259999577,-37.6542199987136,3357,Buninyong
GOLDEN POINT PRIMARY SCHOOL,143.863760000099,-37.5678999990678,3350,Golden Point
TRAFALGAR PRIMARY SCHOOL,146.088759999876,-38.2115099992947,3823,Yarragon
TOORAK CENTRAL SCHOOL,145.009869999709,-37.8451299988708,3142,Toorak
TOORAK PRIMARY SCHOOL,145.009910000509,-37.8450599992713,3142,Toorak
TOORLOO ARM PRIMARY SCHOOL,148.050980000266,-37.8525299987672,3909,Toorloo Arm
ALTONA MEADOWS PRIMARY SCHOOL,144.779739999774,-37.8686699989221,3028,Altona Meadows
ALTONA NORTH PRIMARY SCHOOL,144.849179999758,-37.8369599991767,3025,Altona North
ALTONA PRIMARY SCHOOL,144.822749999693,-37.8676899994871,3018,Altona
ALTONA WEST PRIMARY SCHOOL,144.817369999481,-37.8606799989963,3018,Altona
QUAMBATOOK GROUP SCHOOL,143.518760000136,-35.8551299988995,3540,Quambatook
ORMOND PRIMARY SCHOOL,145.033670000009,-37.9069899991674,3204,Ormond
WOODSIDE PRIMARY SCHOOL,146.876740000342,-38.5263199993127,3874,Woodside
WOODVILLE PRIMARY SCHOOL,144.691240000168,-37.8837599990996,3029,Hoppers Crossing
SUSSEX HEIGHTS PRIMARY SCHOOL,145.111280000159,-37.8889099988119,3149,Mount Waverley
SUTHERLAND CREEK PRIMARY SCHOOL,144.227640000049,-38.0137399991084,3331,Sutherlands Creek
TOOTGAROOK PRIMARY SCHOOL,144.85733000017,-38.3694599991153,3941,Tootgarook
AIRLY PRIMARY SCHOOL,147.113899999818,-38.025699999173,3851,Airly
ALBERT PARK PRIMARY SCHOOL,144.952769999588,-37.8418699990909,3206,Albert Park
ALBION NORTH PRIMARY SCHOOL,144.823050000202,-37.7621099992731,3020,Sunshine North
ALDERCOURT PRIMARY SCHOOL,145.161619999613,-38.1166099995251,3200,Frankston North
STRATHMERTON PRIMARY SCHOOL,145.478850000215,-35.9240099990766,3641,Strathmerton
STRATHMORE NORTH PRIMARY SCHOOL,144.915980000213,-37.7248499986448,3041,Strathmore
STRATHMORE PRIMARY SCHOOL,144.91701000036,-37.7354999995075,3041,Strathmore
CHESHUNT SOUTH PRIMARY SCHOOL,146.395699999913,-36.8267899995,3678,Cheshunt
TOTTENHAM NORTH PRIMARY SCHOOL,144.855980000482,-37.7903999992256,3019,Braybrook
TOTTENHAM PRIMARY SCHOOL,144.86014000029,-37.8003999988532,3012,West Footscray
KERGUNYAH SOUTH PRIMARY SCHOOL,147.042919999876,-36.3753999989924,3691,Kergunyah
KERRIMUIR PRIMARY SCHOOL,145.135249999892,-37.8036699991921,3129,Box Hill North
THE LAKE PRIMARY SCHOOL,142.093149999696,-34.2058999993745,3505,Cabarita
SYNDAL SOUTH PRIMARY SCHOOL,145.143310000374,-37.8790699987333,3149,Mount Waverley
WILKUR SOUTH PRIMARY SCHOOL,142.679590000445,-36.097899999403,3393,Wilkur
KENSINGTON PRIMARY SCHOOL,144.92761999999,-37.7926599988282,3031,Kensington
KENT PARK PRIMARY SCHOOL,145.26274000008,-37.8834799986952,3156,Ferntree Gully
KANGAROO FLAT PRIMARY SCHOOL,144.234090000003,-36.7876699992248,3555,Kangaroo Flat
KANGAROO GROUND PRIMARY SCHOOL,145.214660000517,-37.6917199986395,3097,Kangaroo Ground
WILLAURA PRIMARY SCHOOL,142.739470000001,-37.5446799995364,3379,Willaura
WILLENABRINA PRIMARY SCHOOL,142.21486999964,-36.0665099992462,3393,Willenabrina
TANJIL SOUTH PRIMARY SCHOOL,146.252399999666,-38.1188499991468,3825,Tanjil South
SUNSHINE PRIMARY SCHOOL,144.831020000393,-37.7907799988465,3020,Sunshine
SURFSIDE PRIMARY SCHOOL,144.541669999797,-38.2614399989444,3226,Ocean Grove
SURREY HILLS PRIMARY SCHOOL,145.100909999909,-37.8255199995323,3127,Surrey Hills
WAREEK PRIMARY SCHOOL,143.611530000279,-36.9912399990631,3465,Wareek
KARINGAL HEIGHTS PRIMARY SCHOOL,145.166819999899,-38.1414599994886,3199,Frankston
KARINGAL PRIMARY SCHOOL,145.152280000536,-38.1379099989011,3199,Frankston
TANTI PARK PRIMARY SCHOOL,145.057919999462,-38.2262399991809,3931,Mornington
KATAMATITE PRIMARY SCHOOL,145.685299999798,-36.0773399992465,3649,Katamatite
KATAMATITE EAST PRIMARY SCHOOL,145.759589999968,-36.024849999092,3649,Katamatite East
CARRARAGARMUNGEE PRIMARY SCHOOL,146.460869999781,-36.3288799991029,3678,Londrigan
CARRINGTON PRIMARY SCHOOL,145.246500000176,-37.8914599989548,3180,Knoxfield
CARRUM DOWNS PRIMARY SCHOOL,145.187910000308,-38.0945799987959,3201,Carrum Downs
BIRCHIP PRIMARY SCHOOL,142.920149999673,-35.9815099992785,3483,Birchip
BIRREGURRA PRIMARY SCHOOL,143.786519999915,-38.3404399986683,3242,Birregurra
KATANDRA WEST PRIMARY SCHOOL,145.560719999889,-36.2254499993221,3634,Katandra West
KATUNGA SOUTH PRIMARY SCHOOL,145.458939999964,-36.0183799987578,3640,Katunga
JUMBUNNA PRIMARY SCHOOL,145.770139999775,-38.4684599989199,3951,Jumbunna
Carrajung Primary School,146.698200000191,-38.3692899987424,3844,Carrajung
KALIMNA WEST PRIMARY SCHOOL,147.95625999974,-37.8609599990176,3909,Kalimna West
KALLISTA PRIMARY SCHOOL,145.370010000546,-37.8850699987532,3789,Sherbrooke
NATTE YALLOCK PRIMARY SCHOOL,143.468009999855,-36.9421199987846,3465,Natte Yallock
NAVARRE PRIMARY SCHOOL,143.111340000378,-36.9007199987467,3384,Navarre
MYRTLE CREEK PRIMARY SCHOOL,144.429590000515,-36.9456799991418,3551,Myrtle Creek
RESERVOIR PRIMARY SCHOOL,145.006779999526,-37.7114099991556,3073,Reservoir
MORTLAKE PRIMARY SCHOOL,142.804310000519,-38.0815099990067,3272,Mortlake
MOUNT BLOWHARD PRIMARY SCHOOL,143.786449999486,-37.429229999287,3352,Blowhard
MOUNT CLEAR PRIMARY SCHOOL,143.868380000013,-37.6047299986384,3350,Mount Clear
LEMNOS PRIMARY SCHOOL,145.462459999909,-36.3580399994613,3631,Lemnos
LARA LAKE PRIMARY SCHOOL,144.395650000107,-38.0303899994211,3212,Lara
LARDNER PRIMARY SCHOOL,145.87986999952,-38.20456999935,3821,Lardner
LARDNER & DISTRICT PRIMARY SCHOOL,145.87986999952,-38.20456999935,3821,Lardner
UPWEY SOUTH PRIMARY SCHOOL,145.326840000303,-37.9131299987534,3158,Upwey
DINGEE PRIMARY SCHOOL,144.234869999701,-36.3615099988757,3571,Dingee
DINGLEY PRIMARY SCHOOL,145.132499999869,-37.9825899992536,3172,Dingley Village
ARARAT NORTH PRIMARY SCHOOL,142.940060000405,-37.2746299995174,3377,Ararat
ARARAT PRIMARY SCHOOL,142.937309999792,-37.2859299989069,3377,Ararat
ARARAT WEST PRIMARY SCHOOL,142.92101000011,-37.2773499989941,3377,Ararat
ARDONACHIE PRIMARY SCHOOL,141.95876000008,-38.0617899991902,3286,Macarthur
AREEGRA PRIMARY SCHOOL,142.632089999628,-36.2670699989657,3480,Areegra
SOMERS PRIMARY SCHOOL,145.164609999786,-38.3920999992315,3927,Somers
SOMERVILLE PRIMARY SCHOOL,145.179150000354,-38.2239999986722,3912,Somerville
SORRENTO PRIMARY SCHOOL,144.740690000307,-38.3414699993292,3943,Sorrento
MOONEE PONDS WEST PRIMARY SCHOOL,144.909339999455,-37.7689299993111,3039,Moonee Ponds
KISMET PARK PRIMARY SCHOOL,144.728679999576,-37.5652299986934,3429,Sunbury
VERMONT PRIMARY SCHOOL,145.194300000501,-37.8373499992247,3133,Vermont
POOWONG CONSOLIDATED SCHOOL,145.769710000377,-38.3424699994548,3988,Poowong
LALLAT PLAINS PRIMARY SCHOOL,142.702369999643,-36.6398499994957,3388,Rupanyup
PYALONG PRIMARY SCHOOL,144.857100000054,-37.1172199992306,3521,Pyalong
POINT LONSDALE PRIMARY SCHOOL,144.621129999972,-38.2744099988607,3225,Point Lonsdale
NICHOLSON PRIMARY SCHOOL,147.747919999724,-37.8157599987147,3882,Nicholson
NIDDRIE PRIMARY SCHOOL,144.878439999989,-37.730829999132,3042,Airport West
NILMA PRIMARY SCHOOL,145.974299999644,-38.165719998821,3821,Nilma
NOBLE PARK PRIMARY SCHOOL,145.173910000335,-37.9706099993779,3174,Noble Park
LEARMONTH PRIMARY SCHOOL,143.713760000018,-37.4281799987286,3352,Learmonth
LEXTON PRIMARY SCHOOL,143.516259999876,-37.2701299990271,3352,Lexton
SUNSHINE HEIGHTS PRIMARY SCHOOL,144.818170000317,-37.7922099988046,3020,Sunshine West
CARAMUT PRIMARY SCHOOL,142.516809999556,-37.9573499987128,3274,Caramut
BROADMEADOWS WEST PRIMARY SCHOOL,144.914099999576,-37.6813899989163,3047,Broadmeadows
DINGWELL PRIMARY SCHOOL,143.845149999833,-35.8045699994063,3579,Dingwall
RINGWOOD NORTH PRIMARY SCHOOL,145.230739999647,-37.7931199991838,3134,Ringwood North
SAINT ARNAUD PRIMARY SCHOOL,143.257549999971,-36.6101899993729,3478,Saint Arnaud
LETHBRIDGE PRIMARY SCHOOL,144.134570000242,-37.9690499991728,3332,Lethbridge
LANGKOOP PRIMARY SCHOOL,141.035420000437,-37.1070699991865,3318,Langkoop
MAUDE PRIMARY SCHOOL,144.167920000274,-37.9495699989823,3331,Maude
EDI UPPER PRIMARY SCHOOL,146.448820000289,-36.7064599990938,3678,Edi Upper
EDITHVALE PRIMARY SCHOOL,145.112980000443,-38.037479999065,3196,Edithvale
TEMPLESTOWE PRIMARY SCHOOL,145.128199999897,-37.7590099995002,3106,Templestowe
SHADY CREEK PRIMARY SCHOOL,146.057090000096,-38.1201299987772,3821,Shady Creek
WESTMERE PRIMARY SCHOOL,142.971809999547,-37.6867899990376,3351,Westmere
WARRNAMBOOL SOUTH PRIMARY SCHOOL,142.470419999897,-38.3931799992406,3280,Warrnambool
WARRONG PRIMARY SCHOOL,142.314870000276,-38.2053999987331,3283,Warrong
HAMPTON PRIMARY SCHOOL,145.003480000384,-37.9333799990845,3188,Hampton
GRUYERE PRIMARY SCHOOL,145.450390000147,-37.7340899988221,3770,Gruyere
MELTON WEST PRIMARY SCHOOL,144.567500000012,-37.6774699988289,3337,Melton West
MEERLIEU PRIMARY SCHOOL,147.388200000012,-38.0012399989896,3862,Meerlieu
WONTHAGGI NORTH PRIMARY SCHOOL,145.600240000496,-38.5988099988205,3995,Wonthaggi
WEDDERBURN PRIMARY SCHOOL,143.611050000247,-36.4188699989438,3518,Wedderburn
BROOKLYN PRIMARY SCHOOL,144.850420000034,-37.819849998849,3012,Brooklyn
TYABB RAILWAY STATION PRIMARY SCHOOL,145.192510000419,-38.2619299992936,3913,Tyabb
TYERS PRIMARY SCHOOL,146.47754999994,-38.1490999988128,3844,Tyers
SEVILLE PRIMARY SCHOOL,145.464410000348,-37.7738799994337,3139,Seville
DONALD PRIMARY SCHOOL,142.984630000354,-36.3671899988441,3480,Donald
GUILDFORD PRIMARY SCHOOL,144.164590000358,-37.1517899991094,3451,Guildford
WARRNAMBOOL EAST PRIMARY SCHOOL,142.499579999576,-38.3895799986401,3280,Warrnambool
WANGOOM PRIMARY SCHOOL,142.560150000402,-38.3453999992945,3279,Wangoom
BUANGOR PRIMARY SCHOOL,143.175019999994,-37.3640299986575,3375,Buangor
OLD SAINT ARNAUD EAST SCHOOL,143.304869999596,-36.6181799986945,3477,Saint Arnaud East
DOOEN PRIMARY SCHOOL,142.257920000466,-36.6390099986666,3401,Dooen
MOOROODUC PRIMARY SCHOOL,145.105169999532,-38.2480699989424,3933,Moorooduc
MOOROOLBARK PRIMARY SCHOOL,145.309029999602,-37.7887399991412,3138,Mooroolbark
MOOROOPNA NORTH WEST PRIMARY SCHOOL,145.24042000015,-36.3553999988925,3616,Mooroopna North West
MONASH PRIMARY SCHOOL,145.144870000193,-37.9059599993961,3168,Notting Hill
ULTIMA PRIMARY SCHOOL,143.266179999661,-35.476219999415,3544,Ultima
DOUTTA GALLA PRIMARY SCHOOL,144.887290000106,-37.7442499990775,3042,Niddrie
DOVETON WEST PRIMARY SCHOOL,145.233759999524,-37.9928999986876,3177,Doveton
DONCASTER PRIMARY SCHOOL,145.129679999931,-37.7867899993463,3108,Doncaster
DERINYA PRIMARY SCHOOL,145.120949999949,-38.1744199987701,3199,Frankston South
UNDERBOOL PRIMARY SCHOOL,141.814060000007,-35.1705599992127,3509,Underbool
INVERGORDON PRIMARY SCHOOL,145.611099999563,-36.1456799989508,3636,Invergordon
INVERLEIGH PRIMARY SCHOOL,144.054689999917,-38.1009299990024,3321,Inverleigh
INVERLOCH PRIMARY SCHOOL,145.728619999431,-38.6311899995071,3996,Inverloch
IONA PRIMARY SCHOOL,145.684590000421,-38.123179999235,3814,Garfield
IRAMOO PRIMARY SCHOOL,144.628569999929,-37.8958599989946,3024,Wyndham Vale
WEST CREEK PRIMARY SCHOOL,145.577920000218,-38.5637399994037,3992,West Creek
DADSWELLS BRIDGE PRIMARY SCHOOL,142.511260000119,-36.9178999987159,3385,Dadswells Bridge
DEVON MEADOWS PRIMARY SCHOOL,145.301389999511,-38.1620099986529,3977,Devon Meadows
DEVON NORTH PRIMARY SCHOOL,146.647920000365,-38.5190099986938,3971,Devon North
BOOLARRA PRIMARY SCHOOL,146.26887000014,-38.3828599990661,3870,Boolarra
HEPBURN PRIMARY SCHOOL,144.13276999994,-37.3096999990031,3461,Hepburn
HERNE HILL PRIMARY SCHOOL,144.332459999853,-38.1293499987813,3215,Hamlyn Heights
HESKET PRIMARY SCHOOL,144.619780000164,-37.3477999992503,3442,Hesket
HEYFIELD PRIMARY SCHOOL,146.78494000006,-37.9820999988906,3858,Heyfield
WESTBREEN PRIMARY SCHOOL,144.935480000483,-37.7162799987074,3044,Pascoe Vale
STEELS CREEK PRIMARY SCHOOL,145.373480000348,-37.5912399995012,3775,Steels Creek
MITRE PRIMARY SCHOOL,141.780699999922,-36.7262399989185,3409,Mitre
DEANS MARSH PRIMARY SCHOOL,143.885759999864,-38.3998599992461,3235,Deans Marsh
EILDON PRIMARY SCHOOL,145.906770000509,-37.2339499992741,3713,Eildon
BULLIOH PRIMARY SCHOOL,147.331529999865,-36.1940099991978,3700,Bullioh
NEWBOROUGH EAST PRIMARY SCHOOL,146.293760000042,-38.1789899992301,3825,Newborough
LEONGATHA PRIMARY SCHOOL,145.958990000191,-38.4789099988899,3953,Leongatha
LEOPOLD PRIMARY SCHOOL,144.464369999627,-38.1872499989594,3224,Leopold
CARDIGAN PRIMARY SCHOOL,143.741260000334,-37.5228999988714,3352,Windermere
CARDROSS PRIMARY SCHOOL,142.144870000478,-34.252899999126,3498,Irymple
DIGGERS REST PRIMARY SCHOOL,144.709240000108,-37.6226199993725,3427,Diggers Rest
HEXHAM PRIMARY SCHOOL,142.686809999566,-37.9967899995214,3273,Hexham
DEEP LEAD PRIMARY SCHOOL,142.717920000182,-37.0131799993734,3385,Deep Lead
DELACOMBE PRIMARY SCHOOL,143.818530000409,-37.5847599989033,3356,Delacombe
CROWLANDS PRIMARY SCHOOL,143.107089999726,-37.1520699994806,3377,Crowlands
CUDGEE PRIMARY SCHOOL,142.650849999438,-38.3479299990263,3265,Cudgee
CULGOA PRIMARY SCHOOL,143.102649999563,-35.7178999994891,3530,Culgoa
BIRRALEE PRIMARY SCHOOL,145.113350000372,-37.7933999988951,3108,Doncaster
BITTERN PRIMARY SCHOOL,145.171679999521,-38.3398399993635,3918,Bittern
BENDIGO PRIMARY SCHOOL,144.265249999494,-36.756999998789,3550,Ironbark
BOLINDA PRIMARY SCHOOL,144.745410000037,-37.4337199991351,3432,Bolinda
LORQUON PRIMARY SCHOOL,141.757369999606,-36.1587399992759,3418,Nhill
LUBECK PRIMARY SCHOOL,142.550420000256,-36.7487399987047,3385,Lubeck
NEWSTEAD PRIMARY SCHOOL,144.067199999853,-37.105899999485,3462,Newstead
SWAN REACH PRIMARY SCHOOL,147.86478999992,-37.8210599990991,3903,Swan Reach
DIXIE PRIMARY SCHOOL,142.927650000287,-38.2992899992079,3265,Dixie
LOCKWOOD SOUTH PRIMARY SCHOOL,144.156749999462,-36.8415899993122,3551,Lockwood South
MACARTHUR STREET PRIMARY SCHOOL,143.85749000019,-37.551129999443,3350,Soldiers Hill
CARWARP PRIMARY SCHOOL,142.196259999728,-34.4590099990872,3494,Carwarp
CASTERTON PRIMARY SCHOOL,141.405200000288,-37.5865399988035,3311,Casterton
CASTLE DONNINGTON PRIMARY SCHOOL,143.598760000229,-35.4206799995214,3585,Castle Donnington
Alvie Consolidated School,143.503329999461,-38.241889998655,3249,Alvie
COLLINS STREET PRIMARY SCHOOL,146.396530000277,-38.2334599994915,3840,Morwell
MORWELL PRIMARY SCHOOL COLLINS STREET,146.396530000277,-38.2334599994915,3840,Morwell
MOUNT BEAUTY PRIMARY SCHOOL,147.171590000119,-36.7394899989874,3699,Mount Beauty
NUMURKAH PRIMARY SCHOOL,145.44499999965,-36.0902299993762,3636,Numurkah
DARTMOOR PRIMARY SCHOOL,141.276740000073,-37.9229999990487,3304,Dartmoor
CONNEWIRRECOO PRIMARY SCHOOL,141.461529999871,-37.200399999144,3318,Connewirricoo
CLARENDON PRIMARY SCHOOL,143.973760000399,-37.6987399994178,3352,Clarendon
ALFREDTON PRIMARY SCHOOL,143.802110000143,-37.5547799991048,3350,Alfredton
AMPHITHEATRE PRIMARY SCHOOL,143.399240000322,-37.1841199987856,3468,Amphitheatre
FRAMLINGHAM PRIMARY SCHOOL,142.699030000192,-38.2428999986935,3265,Framlingham
IVANHOE PRIMARY SCHOOL,145.042989999627,-37.7665599994157,3079,Ivanhoe
EASTBOURNE PRIMARY SCHOOL,144.883510000056,-38.3737499992058,3940,Capel Sound
RYE PRIMARY SCHOOL,144.823829999608,-38.3730999992466,3941,Rye
ROWVILLE PRIMARY SCHOOL,145.237110000131,-37.9229099994591,3178,Rowville
COLAC WEST PRIMARY SCHOOL,143.579760000317,-38.3363999990892,3250,Colac
COLERAINE PRIMARY SCHOOL,141.684049999482,-37.6018299990566,3315,Coleraine
WENDOUREE PRIMARY SCHOOL,143.828160000092,-37.5392599993269,3355,Wendouree
WENDOUREE WEST PRIMARY SCHOOL,143.815699999929,-37.5301299991537,3355,Wendouree
MAFFRA PRIMARY SCHOOL,146.97676999966,-37.963989999162,3860,Maffra
MAIDSTONE PRIMARY SCHOOL,144.869590000508,-37.7878999991892,3012,Maidstone
BOORHAMAN PRIMARY SCHOOL,146.287089999676,-36.2095699992838,3678,Boorhaman
BORONIA HEIGHTS PRIMARY SCHOOL,145.296489999595,-37.8445599993893,3155,Boronia
NICHOLS POINT PRIMARY SCHOOL,142.204639999967,-34.2087899990804,3501,Nichols Point
NIRRANDA EAST PRIMARY SCHOOL,142.841259999524,-38.4803999990198,3268,Nullawarre
BRIGHTON PRIMARY SCHOOL,145.001079999844,-37.9121999986579,3008,Docklands
BOX HILL PRIMARY SCHOOL,145.123200000455,-37.8145699986777,3128,Box Hill
STEWART PRIMARY SCHOOL,142.213760000512,-34.3323499990304,3496,Red Cliffs
STRATHDOWNIE PRIMARY SCHOOL,141.137370000262,-37.7276299991263,3312,Strathdownie
SUNNY CLIFFS PRIMARY SCHOOL,142.193059999549,-34.2797099990161,3496,Red Cliffs
SUNNYCLIFFS PRIMARY SCHOOL,142.193059999549,-34.2797099990161,3496,Red Cliffs
DROMANA PRIMARY SCHOOL,144.959659999753,-38.3396299993255,3936,Dromana
JAMES COOK PRIMARY SCHOOL,145.245860000496,-37.9790499995297,3802,Endeavour Hills
TRAWALLA PRIMARY SCHOOL,143.469870000275,-37.4377199994781,3373,Trawalla
ROSANNA PRIMARY SCHOOL,145.062910000334,-37.7353799991459,3084,Rosanna
ROSEDALE PRIMARY SCHOOL,146.773910000229,-38.1545899989216,3847,Rosedale
ROSEWOOD DOWNS PRIMARY SCHOOL,145.213460000308,-37.9440999990146,3175,Dandenong North
DROUIN PRIMARY SCHOOL,145.853850000227,-38.1328399992641,3818,Drouin
DROUIN SOUTH PRIMARY SCHOOL,145.826820000481,-38.1705499991753,3818,Drouin South
DROUIN WEST PRIMARY SCHOOL,145.871719999859,-38.0870999988643,3818,Drouin West
WATTLE VIEW PRIMARY SCHOOL,145.278020000338,-37.8758099986647,3156,Ferntree Gully
WAVERLEY PARK PRIMARY SCHOOL,145.182919999915,-37.9317899987226,3170,Mulgrave
TOOBORAC PRIMARY SCHOOL,144.798149999902,-37.0397699994656,3522,Tooborac
TOOLAMBA PRIMARY SCHOOL,145.344190000449,-36.4905099993819,3614,Toolamba
DONCASTER EAST PRIMARY SCHOOL,145.161530000288,-37.7820699991861,3109,Doncaster East
DONCASTER HEIGHTS PRIMARY SCHOOL,145.144309999461,-37.7915099990476,3109,Doncaster East
DONCASTER PARK PRIMARY SCHOOL,145.10680999973,-37.7873499993944,3108,Doncaster
TRESCO PRIMARY SCHOOL,143.670419999508,-35.5003999986555,3583,Tresco
ANTWERP PRIMARY SCHOOL,142.025980000484,-36.2965099991416,3414,Antwerp
WEMBLEY PRIMARY SCHOOL,144.874430000489,-37.8210199988244,3013,Yarraville
SWAN MARSH PRIMARY SCHOOL,143.378759999798,-38.3726299993937,3249,Swan Marsh
TALBOT PRIMARY SCHOOL,143.703610000391,-37.1686399988796,3371,Talbot
TALINDERT PRIMARY SCHOOL,143.168759999532,-38.2656799987202,3260,Camperdown
PLENTY PARKLANDS PRIMARY SCHOOL,145.076949999902,-37.669709999011,3082,Mill Park
NEWBRIDGE PRIMARY SCHOOL,143.896810000493,-36.7420699992201,3551,Newbridge
NEWLYN PRIMARY SCHOOL,143.984429999627,-37.4120099993556,3364,Newlyn
BRENTWOOD PRIMARY SCHOOL,145.167919999778,-37.897349999173,3150,Glen Waverley
BRIAGOLONG PRIMARY SCHOOL,147.067849999744,-37.8427899993712,3860,Briagolong
BRIGHTON BEACH PRIMARY SCHOOL,144.996110000282,-37.9220899991301,3186,Brighton
TIMBARRA PRIMARY SCHOOL,148.0395899998,-37.3103999992345,3885,Buchan
KERANG SOUTH PRIMARY SCHOOL,143.927159999718,-35.7412199993927,3579,Kerang
KEWELL PRIMARY SCHOOL,142.36958999992,-36.4695699989614,3390,Kewell
WARRAGUL PRIMARY SCHOOL,145.928150000442,-38.1563299988234,3820,Warragul
BLACKBURN EAST PRIMARY SCHOOL,145.157919999978,-37.8403999990703,3130,Blackburn South
BLACKBURN LAKE PRIMARY SCHOOL,145.166100000053,-37.8275899992847,3130,Blackburn
BLACKBURN PRIMARY SCHOOL,145.156699999813,-37.8165499990689,3130,Blackburn
BLACKBURN SOUTH PRIMARY SCHOOL,145.14208999996,-37.8320699995084,3130,Blackburn South
SILVAN SOUTH PRIMARY SCHOOL,145.443200000092,-37.8409599989075,3795,Silvan
TANDAROOK PRIMARY SCHOOL,143.155420000401,-38.3281799991771,3260,Bostocks Creek
GUNBOWER PRIMARY SCHOOL,144.372320000468,-35.9546199994672,3566,Gunbower
GORAE PRIMARY SCHOOL,141.537089999869,-38.2356799988063,3305,Gorae
GORAE WEST PRIMARY SCHOOL,141.495979999692,-38.2378999990513,3305,Gorae West
BALWARRA PRIMARY SCHOOL,141.61431000009,-38.2812399993072,3305,Bolwarra
BILLANOOK PRIMARY SCHOOL,145.339259999439,-37.8249399987182,3765,Montrose
BILLINGHAM PRIMARY SCHOOL,144.765980000537,-37.7570699993918,3023,Deer Park
LAKE BOGA PRIMARY SCHOOL,143.63208000041,-35.4644999988755,3584,Lake Boga
LAKE BOLAC PRIMARY SCHOOL,142.838479999765,-37.7184599992624,3351,Lake Bolac
LAKE BURRUMBEET PRIMARY SCHOOL,143.647649999506,-37.474569999497,3352,Burrumbeet
KIRKSTALL PRIMARY SCHOOL,142.315980000009,-38.2720699987752,3283,Kirkstall
DHURRINGILE PRIMARY SCHOOL,145.239790000201,-36.5431899992724,3610,Dhurringile
DIAMOND CREEK EAST PRIMARY SCHOOL,145.165600000409,-37.6741799991888,3089,Diamond Creek
DIAMOND CREEK PRIMARY SCHOOL,145.151660000103,-37.6718399986946,3089,Diamond Creek
BRANDON PARK PRIMARY SCHOOL,145.173250000502,-37.9143099994573,3150,Wheelers Hill
BOTANIC PARK PRIMARY SCHOOL,145.13236999952,-37.7734599989993,3108,Doncaster
BOUCHIER STREET PRIMARY SCHOOL,145.413199999516,-36.3673499994473,3630,Shepparton
SUNBURY PRIMARY SCHOOL,144.728149999839,-37.5976699994846,3429,Sunbury
BULART PRIMARY SCHOOL,141.942090000355,-37.544569999465,3314,Bulart
MYRTLEFORD PRIMARY SCHOOL,146.726529999544,-36.5501299988933,3737,Myrtleford
MYRTLEFORD CONSOLIDATED SCHOOL,146.726529999544,-36.5501299988933,3737,Myrtleford
PRESTON WEST PRIMARY SCHOOL,144.99553999985,-37.7373499989968,3072,Preston
GREENBROOK PRIMARY SCHOOL,145.04206000056,-37.6502499993129,3076,Epping
BUNDOORA PRIMARY SCHOOL,145.063000000238,-37.7073299986398,3083,Bundoora
GREENWOOD PRIMARY SCHOOL,145.063000000238,-37.7073299986398,3083,Bundoora
BARKLY PRIMARY SCHOOL,143.200149999651,-36.9467899988633,3384,Barkly
GELLIBRAND PRIMARY SCHOOL,143.537370000239,-38.5253999993224,3239,Gellibrand
GERANGAMETE PRIMARY SCHOOL,143.684029999563,-38.4548499990234,3249,Gerangamete
KONONG WOOTONG NORTH PRIMARY SCHOOL,141.693199999623,-37.4473499991068,3315,Konongwootong
KOORLONG PRIMARY SCHOOL,142.084860000147,-34.2780399990706,3501,Koorlong
KOROIT & DISTRICT PRIMARY SCHOOL,142.36903000038,-38.2926299994145,3282,Koroit
KOROIT PRIMARY SCHOOL,142.36903000038,-38.2926299994145,3282,Koroit
KORONG VALE PRIMARY SCHOOL,143.700979999853,-36.3562399988349,3520,Korong Vale
CRESSY PRIMARY SCHOOL,143.634310000465,-38.0262399989314,3322,Cressy
COLAC EAST PRIMARY SCHOOL,143.597919999582,-38.3370699988303,3250,Colac
COLAC PRIMARY SCHOOL,143.598339999546,-38.3372099986792,3250,Colac
COLAC SOUTH WEST PRIMARY SCHOOL,143.572029999451,-38.3436199992187,3250,Colac
ELAINE PRIMARY SCHOOL,144.037649999452,-37.7770699986834,3334,Elaine
ECHUCA CENTRAL PRIMARY SCHOOL,144.749029999739,-36.1301299993593,3564,Echuca
ECHUCA EAST PRIMARY SCHOOL,144.761110000415,-36.1340399991418,3564,Echuca
DRUMMARTIN PRIMARY SCHOOL,144.429309999837,-36.443459999494,3570,Drummartin
NURRABIEL PRIMARY SCHOOL,142.034310000025,-36.924569998722,3401,Nurrabiel
NATIMUK PRIMARY SCHOOL,141.950499999929,-36.7412199990557,3409,Natimuk
ECKLIN PRIMARY SCHOOL,142.910149999784,-38.3884599990411,3265,Ecklin South
DUNNSTOWN PRIMARY SCHOOL,143.965150000095,-37.5909599992956,3352,Dunnstown
EAGLEHAWK NORTH PRIMARY SCHOOL,144.237280000337,-36.7070499991319,3556,Sailors Gully
EAGLEHAWK PRIMARY SCHOOL,144.254270000233,-36.7205699987961,3556,Eaglehawk
MANCHESTER PRIMARY SCHOOL,145.309559999748,-37.7721099994661,3138,Mooroolbark
MANDURANG SOUTH PRIMARY SCHOOL,144.286260000411,-36.8692899992313,3551,Mandurang South
DARGO PRIMARY SCHOOL,147.249869999721,-37.4595699990842,3862,Dargo
DARLEY PRIMARY SCHOOL,144.436910000531,-37.6552699995375,3340,Darley
CROYDON NORTH PRIMARY SCHOOL,145.295979999683,-37.76956999909,3136,Croydon North
TYNTYNDER CENTRAL PRIMARY SCHOOL,143.539310000143,-35.2528999994269,3586,Tyntynder
TYNTYNDER PRIMARY SCHOOL,143.532649999733,-35.2528999987591,3586,Tyntynder
OXLEY PRIMARY SCHOOL,146.360639999705,-36.4415499993535,3678,Wangaratta
ORBOST PRIMARY SCHOOL,148.457719999875,-37.7078899989117,3888,Orbost
MOUNT MACEDON PRIMARY SCHOOL,144.584129999978,-37.404779998918,3441,Mount Macedon
MOUNT MORIAC PRIMARY SCHOOL,144.18847999974,-38.2128999992868,3240,Mount Moriac
STANHOPE PRIMARY SCHOOL,144.988019999699,-36.4480899987945,3623,Stanhope
DRUMMOND PRIMARY SCHOOL,144.330180000168,-37.2356999990806,3461,Drummond
NELSON PRIMARY SCHOOL,141.00875999963,-38.046509998714,3292,Nelson
NETHERBY PRIMARY SCHOOL,141.651259999709,-36.1078999989757,3418,Netherby
GRETA WEST PRIMARY SCHOOL,146.227089999676,-36.5301299994055,3675,Greta West
DANDENONG PRIMARY SCHOOL,145.219829999512,-37.9878999987739,3175,Dandenong
DANDENONG SOUTH PRIMARY SCHOOL,145.211439999909,-37.9989399994286,3175,Dandenong
FRANKSTON PRIMARY SCHOOL,145.124039999802,-38.1475399995135,3199,Frankston
MORNINGTON PRIMARY SCHOOL,145.04308999999,-38.2217899995144,3931,Mornington
LILYDALE WEST PRIMARY SCHOOL,145.336109999755,-37.7551699994513,3140,Lilydale
BRIM EAST PRIMARY SCHOOL,142.56098000036,-36.09762999903,3391,Brim
BRIM PRIMARY SCHOOL,142.419590000562,-36.0751299988734,3391,Brim
GLENROY PRIMARY SCHOOL,144.925039999849,-37.7042599993727,3046,Glenroy
PURNIM PRIMARY SCHOOL,142.625149999851,-38.2778999989752,3278,Purnim
SAN REMO PRIMARY SCHOOL,145.369459999485,-38.5238399989594,3925,San Remo
CHELSEA HEIGHTS PRIMARY SCHOOL,145.138060000353,-38.0450099994344,3196,Chelsea Heights
AVENEL PRIMARY SCHOOL,145.234730000386,-36.9013499986425,3664,Avenel
AXEDALE PRIMARY SCHOOL,144.501470000271,-36.7862099988017,3551,Axedale
MOVELLE PRIMARY SCHOOL,144.775369999534,-37.7376999993156,3021,Kings Park
MOYHU PRIMARY SCHOOL,146.38098000029,-36.5715099987671,3732,Moyhu
TALGARNO PRIMARY SCHOOL,147.159150000037,-36.0657799993518,3691,Talgarno
TALLANDOON NORTH SCHOOL,147.242089999665,-36.4015099995135,3701,Tallandoon
COHUNA CONSOLIDATED SCHOOL,144.213429999755,-35.806299999107,3568,Cohuna
CHELSEA PRIMARY SCHOOL,145.122320000134,-38.0548799987757,3196,Chelsea
CHELTENHAM EAST PRIMARY SCHOOL,145.068360000342,-37.9652399987722,3192,Cheltenham
RYLANS CREEK,145.068360000342,-37.9652399987722,3192,Cheltenham
CHELTENHAM PRIMARY SCHOOL,145.054639999898,-37.968589998647,3192,Cheltenham
LONGFORD PRIMARY SCHOOL,147.088419999713,-38.1695499988756,3851,Longford
LONGFORD PUBLIC SCHOOL,147.086809999792,-38.1709599990887,3851,Longford
LONGLEA PRIMARY SCHOOL,144.427920000363,-36.774569999456,3551,Longlea
LONGWARRY NORTH PRIMARY SCHOOL,145.780139999938,-38.0809599990761,3816,Longwarry North
Clarkefield Primary School,144.757090000112,-37.4892899994916,3430,Clarkefield
CLAYTON PRIMARY SCHOOL,145.127369999927,-37.9245699992417,3168,Clayton
CLAYTON WEST PRIMARY SCHOOL,145.106810000032,-37.921509999063,3167,Oakleigh South
LALBERT PRIMARY SCHOOL,143.375699999544,-35.6731799994811,3542,Lalbert
HORSHAM WEST PRIMARY SCHOOL,142.179999999489,-36.7174099988535,3400,Horsham
OUYEN PRIMARY SCHOOL,142.315149999619,-35.0673499989719,3490,Ouyen
SAINT HELENS PLAINS PRIMARY SCHOOL,142.395979999787,-36.8181799989049,3401,Saint Helens Plains
SAINT HELENS PRIMARY SCHOOL,142.068199999952,-38.2562399993479,3285,Saint Helens
HEATHMONT PRIMARY SCHOOL,145.239869999908,-37.8301299988294,3135,Heathmont
MYRTLEBANK PRIMARY SCHOOL,147.029030000205,-38.0656799993202,3851,Myrtlebank
PATCHEWOLLOCK GROUP SCHOOL,142.187090000512,-35.3834599987073,3491,Patchewollock
FOOTSCRAY NORTH PRIMARY SCHOOL,144.88338000034,-37.7877299991341,3012,Maidstone
FOOTSCRAY CITY PRIMARY SCHOOL,144.900260000228,-37.8063899994944,3011,Footscray
SERPELL PRIMARY SCHOOL,145.155580000374,-37.769889998755,3106,Templestowe
TETOORA ROAD PRIMARY SCHOOL,145.892919999722,-38.2712399990542,3821,Tetoora Road
TEETORA PRIMARY SCHOOL,145.892919999722,-38.2712399990542,3821,Tetoora Road
GOORNONG PRIMARY SCHOOL,144.504689999498,-36.6169799995102,3557,Goornong
GOWRIE PARK PRIMARY SCHOOL,144.94348000024,-37.700959999067,3046,Glenroy
LOWER PLENTY PRIMARY SCHOOL,145.115500000046,-37.7261599987535,3093,Lower Plenty
LUCKNOW PRIMARY SCHOOL,147.630749999715,-37.8126499987845,3875,Eastwood
LONGWARRY PRIMARY SCHOOL,145.769140000036,-38.1140899992672,3816,Longwarry
NORLANE PRIMARY SCHOOL,144.351259999853,-38.0873499992995,3214,Norlane
NORRIS BANK PRIMARY SCHOOL,145.042640000254,-37.6944999992581,3083,Bundoora
NORTH BLACKWOOD PRIMARY SCHOOL,144.365700000393,-37.4098499988184,3458,North Blackwood
NORTH HARCOURT PRIMARY SCHOOL,144.283199999512,-36.9701299986801,3453,Harcourt North
COMBIENBAR PRIMARY SCHOOL,149.017639999877,-37.3915099987008,3889,Combienbar
BEECHWORTH PRIMARY SCHOOL,146.693569999552,-36.3554199989916,3747,Beechworth
COOMOORA PRIMARY SCHOOL,144.186530000306,-37.3301299990553,3461,Coomoora
COOMOORA PRIMARY SCHOOL,145.152420000088,-37.9826199987969,3172,Springvale South
HIGHETT PRIMARY SCHOOL,145.041259999887,-37.954009999199,3190,Highett
HIGHLANDS PRIMARY SCHOOL,145.406529999711,-37.0909599993048,3660,Highlands
HIGHTON PRIMARY SCHOOL,144.317090000398,-38.1721399989652,3216,Highton
HILL END PRIMARY SCHOOL,146.147089999966,-38.0142899995226,3825,Hill End
ROBERTS MCCUBBIN PRIMARY SCHOOL,145.125209999637,-37.8347499988784,3128,Box Hill South
REGENCY PARK PRIMARY SCHOOL,145.236169999517,-37.8548599991363,3152,Wantirna
BELL PARK PRIMARY SCHOOL,144.335699999467,-38.104849999255,3215,Bell Park
BAYSWATER WEST PRIMARY SCHOOL,145.253050000319,-37.8490599989269,3153,Bayswater
SANDFORD PRIMARY SCHOOL,141.44653000036,-37.6170699990546,3312,Sandford
SCOTSBURN PRIMARY SCHOOL,143.926809999901,-37.6753999987844,3352,Scotsburn
HEIDELBERG HEIGHTS PRIMARY SCHOOL,145.051530000387,-37.7331799993359,3081,Heidelberg West
RESEARCH PRIMARY SCHOOL,145.183580000397,-37.7029099993701,3095,Research
RESERVOIR EAST PRIMARY SCHOOL,145.021840000085,-37.7199599994251,3073,Reservoir
RESERVOIR WEST PRIMARY SCHOOL,144.990230000135,-37.7221199991526,3073,Reservoir
PARKTONE PRIMARY SCHOOL,145.088250000063,-37.987099998747,3195,Parkdale
PASCOE VALE NORTH PRIMARY SCHOOL,144.9484899999,-37.7212399986584,3044,Pascoe Vale
PASCOE VALE PRIMARY SCHOOL,144.937260000119,-37.7312099993115,3044,Pascoe Vale
PASCOE VALE SOUTH PRIMARY SCHOOL,144.935620000128,-37.7456999993681,3044,Pascoe Vale South
RICHMOND NORTH PRIMARY SCHOOL,145.007370000564,-37.814569998752,3121,Richmond
RICHMOND PRIMARY SCHOOL,144.999079999776,-37.8295599995099,3121,Richmond
GEMBROOK PRIMARY SCHOOL,145.545319999825,-37.9516199993757,3783,Gembrook
PATHO PRIMARY SCHOOL,144.427089999912,-36.0073499992071,3564,Patho
PATTERSON LAKES PRIMARY SCHOOL,145.144800000058,-38.0698199994273,3197,Patterson Lakes
NORTH MELBOURNE PRIMARY SCHOOL,144.950639999604,-37.7987199993061,3051,North Melbourne
NORTH WEST MOOROOPNA PRIMARY SCHOOL,145.240419999761,-36.3609599988923,3616,Tatura
NEWPORT WEST PRIMARY SCHOOL,144.867919999922,-37.8462399987003,3015,Newport
NEWTOWN PRIMARY SCHOOL,144.337210000256,-38.1457499994025,3220,Newtown
GARFIELD PRIMARY SCHOOL,145.674159999714,-38.09054999873,3814,Garfield
GEELONG EAST PRIMARY SCHOOL,144.382779999549,-38.1754999986717,3219,Thomson
GEELONG NORTH PRIMARY SCHOOL,144.354590000043,-38.1206799986887,3215,Rippleside
FRANKSTON HEIGHTS PRIMARY SCHOOL,145.147180000204,-38.1617899994935,3199,Frankston
FLOWERDALE PRIMARY SCHOOL,145.291369999838,-37.3169099987001,3717,Flowerdale
GARDINER PRIMARY SCHOOL,145.047089999507,-37.8556799989451,3146,Glen Iris
GARDINER CENTRAL SCHOOL,145.047089999507,-37.8556799989451,3146,Glen Iris
CHEWTON PRIMARY SCHOOL,144.261169999668,-37.0823099990143,3451,Chewton
CHILTERN PRIMARY SCHOOL,146.606610000366,-36.1470499993704,3683,Chiltern
CHILWELL PRIMARY SCHOOL,144.345390000005,-38.1550999991681,3220,Newtown
WALWA PRIMARY SCHOOL,147.732149999479,-35.9642199994184,3709,Walwa
VIEWBANK PRIMARY SCHOOL,145.089999999545,-37.7347199993599,3084,Viewbank
CRIB POINT PRIMARY SCHOOL,145.200540000374,-38.3604699988887,3919,Crib Point
PLEASANT CREEK PRIMARY SCHOOL,142.757089999601,-37.0648499987783,3380,Stawell
TARWIN LOWER PRIMARY SCHOOL,145.867059999735,-38.7025599994264,3956,Tarwin Lower
TARWIN PRIMARY SCHOOL,145.866529999955,-38.7015099990109,3956,Tarwin Lower
Dumbalk Primary School,146.09569999951,-38.5306799990355,3956,Dumbalk
Tarwin Valley Primary School Dumbalk Site,146.09569999951,-38.5306799990355,3956,Dumbalk
TATURA EAST PRIMARY SCHOOL,145.277369999877,-36.4331799994772,3616,Tatura
TATURA PRIMARY SCHOOL,145.229930000201,-36.4449499993448,3616,Tatura
PICOLA PRIMARY SCHOOL,145.118199999469,-35.9987399990173,3639,Picola
LYSTERFIELD PRIMARY SCHOOL,145.276230000413,-37.9115899987816,3156,Lysterfield
BAXTER PRIMARY SCHOOL,145.181560000257,-38.1996499988313,3911,Baxter
BAYNTON PRIMARY SCHOOL,144.641260000039,-37.1401299988565,3444,Baynton
BAYSWATER NORTH PRIMARY SCHOOL,145.295630000201,-37.8287899989853,3153,Bayswater North
BAYSWATER PRIMARY SCHOOL,145.259370000405,-37.8432899988887,3153,Bayswater
BAYSWATER SOUTH PRIMARY SCHOOL,145.261349999586,-37.8548799989396,3153,Bayswater
TAWONGA PRIMARY SCHOOL,147.143260000437,-36.6913899989906,3697,Tawonga
TAWONGA SOUTH PRIMARY SCHOOL,147.158199999494,-36.7351299994952,3698,Tawonga South
MACCLESFIELD PRIMARY SCHOOL,145.475379999534,-37.8897799992917,3782,Macclesfield
MACEDON PRIMARY SCHOOL,144.562689999916,-37.4186799990532,3440,Macedon
CHIRNSIDE PARK PRIMARY SCHOOL,145.311349999612,-37.7500599993712,3116,Chirnside Park
SIMPSON PRIMARY SCHOOL,143.207890000401,-38.4985999988356,3266,Simpson
SHELBOURNE PRIMARY SCHOOL,144.018760000484,-36.862069999146,3515,Shelbourne
SEASPRAY PRIMARY SCHOOL,147.170630000143,-38.3564799991424,3851,Seaspray
SEAVIEW PRIMARY SCHOOL,145.934309999999,-38.2809599994633,3821,Seaview
SEBASTIAN PRIMARY SCHOOL,144.189590000394,-36.6040099989627,3556,Sebastian
SEDGWICK PRIMARY SCHOOL,144.311530000421,-36.8776299993043,3551,Sedgwick
SELBY PRIMARY SCHOOL,145.367519999543,-37.9114199987965,3159,Selby
PAYNESVILLE PRIMARY SCHOOL,147.714710000221,-37.9112699992622,3880,Paynesville
PEARCEDALE PRIMARY SCHOOL,145.231980000125,-38.2029999986632,3912,Pearcedale
BORONIA WEST PRIMARY SCHOOL,145.278490000345,-37.8585499990687,3155,Boronia
CHUM CREEK PRIMARY SCHOOL,145.489260000304,-37.6059399988905,3777,Chum Creek
CHURCHILL NORTH PRIMARY SCHOOL,146.416960000237,-38.3046299993438,3842,Churchill
BLACKWOOD FOREST PRIMARY SCHOOL,145.626809999694,-38.4731799994274,3979,Almurta
TIMOR PRIMARY SCHOOL,143.711989999466,-36.9842099992365,3465,Timor
TOOLONG PRIMARY SCHOOL,142.221809999739,-38.3234599994595,3285,Toolong
BONEO PRIMARY SCHOOL,144.887120000245,-38.41196999933,3939,Boneo
PEMBROKE PRIMARY SCHOOL,145.327250000405,-37.7967799987928,3138,Mooroolbark
PENDERS GROVE PRIMARY SCHOOL,145.014280000497,-37.7544999990526,3071,Thornbury
PENTLAND PRIMARY SCHOOL,144.423190000099,-37.65583999914,3340,Darley
BOOLARRA SOUTH PRIMARY SCHOOL,146.364029999616,-38.5145699988883,3870,Grand Ridge
KENMARE PRIMARY SCHOOL,142.173759999981,-35.9117899993576,3395,Kenmare
KENT ROAD PRIMARY SCHOOL,142.021529999946,-37.7273499989461,3300,Hamilton
KERANG PRIMARY SCHOOL,143.921140000378,-35.731679998786,3579,Kerang
LONGWOOD PRIMARY SCHOOL,145.422070000094,-36.8079199987773,3665,Longwood
LAKE HINDMARSH PRIMARY SCHOOL,141.837650000005,-36.0895699991354,3423,Jeparit
Boisdale Consolidated School,146.979480000098,-37.8795799992739,3860,Boisdale
KILLOURA PRIMARY SCHOOL,145.147369999492,-37.84762999929,3151,Burwood East
MYWEE PRIMARY SCHOOL,145.495979999736,-35.8715099988521,3641,Strathmerton
NAGAMBIE PRIMARY SCHOOL,145.15722999994,-36.7875799989331,3608,Nagambie
Nambrok West Primary School,146.833760000458,-38.072069999438,3847,Nambrok
Nambrok Primary School,146.874829999443,-38.0539899994827,3847,Nambrok
Nambrok-Denison Primary School,146.874829999443,-38.0539899994827,3847,Nambrok
NANNEELLA ESTATE PRIMARY SCHOOL,144.77803999967,-36.3129599988612,3561,Nanneella
ROCHESTER PRIMARY SCHOOL,144.697999999744,-36.3545799989813,3561,Rochester
ROCKBANK PRIMARY SCHOOL,144.661910000536,-37.7321299988575,3335,Rockbank
SCORESBY PRIMARY SCHOOL,145.227510000077,-37.8939399994907,3179,Scoresby
MUSK PRIMARY SCHOOL,144.191529999692,-37.372629999449,3461,Musk
MUSK VALE PRIMARY SCHOOL,144.122090000494,-37.3870699994634,3461,Sailors Falls
PAKENHAM CONSOLIDATED SCHOOL,145.464670000328,-38.0653599993965,3810,Pakenham
GOORAM PRIMARY SCHOOL,145.595980000054,-36.8717899991092,3666,Gooram
GLENBURN PRIMARY SCHOOL,145.427089999795,-37.4217899991991,3717,Glenburn
MILAWA PRIMARY SCHOOL,146.432490000526,-36.4445299990059,3678,Milawa
MILGATE PRIMARY SCHOOL,145.175190000449,-37.7737799990723,3109,Doncaster East
MOUNT TAYLOR PRIMARY SCHOOL,147.598759999637,-37.7442899987884,3875,Mount Taylor
MOUNT VIEW PRIMARY SCHOOL,145.178810000053,-37.8834699991894,3150,Glen Waverley
MOUNT WALLACE PRIMARY SCHOOL,144.22291999952,-37.7409599994753,3342,Mount Wallace
MOUNT WAVERLEY PRIMARY SCHOOL,145.124119999848,-37.881249999059,3149,Mount Waverley
MOUNTAIN GATE PRIMARY SCHOOL,145.269709999488,-37.8856799995353,3156,Ferntree Gully
GLENDAL PRIMARY SCHOOL,145.159040000499,-37.8670699993617,3150,Glen Waverley
GLENGALA PRIMARY SCHOOL,144.814069999901,-37.7989699988859,3020,Sunshine West
GLENGARRY PRIMARY SCHOOL,146.571339999849,-38.1275599990555,3854,Glengarry
GLENORDEN PRIMARY SCHOOL,144.675700000343,-37.8867899989449,3030,Werribee
SHERBOURNE PRIMARY SCHOOL,145.130079999862,-37.7088899991733,3088,Briar Hill
CHATHAM PRIMARY SCHOOL,145.091610000302,-37.8176299995214,3127,Surrey Hills
PLENTY PRIMARY SCHOOL,145.121259999746,-37.6687399993249,3090,Plenty
BOINKA PRIMARY SCHOOL,141.604310000557,-35.2001299988948,3490,Boinka
BELL PRIMARY SCHOOL,144.990620000025,-37.7476799992957,3072,Preston
BELLAIRE PRIMARY SCHOOL,144.319779999486,-38.1795699990351,3216,Highton
BELLARINE PRIMARY SCHOOL,144.61541999974,-38.132629999458,3223,Bellarine
NARRE WARREN EAST PRIMARY SCHOOL,145.376810000479,-37.9598499994456,3804,Narre Warren East
NARRE WARREN NORTH PRIMARY SCHOOL,145.316930000352,-37.97856999907,3804,Narre Warren North
NARRE WARREN PRIMARY SCHOOL,145.304870000558,-38.0237399993759,3805,Narre Warren
NARRE WARREN STATION PRIMARY SCHOOL,145.306809999988,-38.0301299993905,3805,Narre Warren
NATHALIA PRIMARY SCHOOL,145.205890000163,-36.0575099987249,3638,Nathalia
INGLEWOOD PRIMARY SCHOOL,143.870450000149,-36.57392999893,3517,Inglewood
INVERMAY PRIMARY SCHOOL,143.874589999911,-37.5205099988552,3352,Invermay
BONA VISTA PRIMARY SCHOOL,145.959920000526,-38.2105099988804,3820,Bona Vista
BONBEACH PRIMARY SCHOOL,145.125649999754,-38.0664799986845,3196,Bonbeach
BELLBRAE PRIMARY SCHOOL,144.263010000217,-38.3336299991848,3228,Bellbrae
BELLE VUE PRIMARY SCHOOL,145.078659999457,-37.7825099990161,3104,Balwyn North
LITTLE SNOWY CREEK PRIMARY SCHOOL,147.226809999929,-36.5115099990534,3701,Eskdale
LANDSBOROUGH PRIMARY SCHOOL,143.135920000104,-37.0058499986826,3384,Landsborough
LANDSBOROUGH WEST PRIMARY SCHOOL,143.060420000505,-37.011789999487,3384,Landsborough West
LARPENT PRIMARY SCHOOL,143.493480000385,-38.342629998915,3249,Larpent
LAKE CHARM PRIMARY SCHOOL,143.800229999646,-35.6066399986572,3581,Lake Charm
BANYULE PRIMARY SCHOOL,145.077939999875,-37.7435999987189,3084,Rosanna
BEMM RIVER PRIMARY SCHOOL,148.962920000542,-37.7584599988981,3889,Bemm River
BENA PRIMARY SCHOOL,145.769869999675,-38.4128999993269,3946,Bena
STAWELL WEST PRIMARY SCHOOL,142.771299999513,-37.0657499994687,3380,Stawell
SOUTH MELBOURNE PRIMARY SCHOOL,144.953509999899,-37.8293299989763,3006,South Melbourne
SOUTH SHEPPARTON PRIMARY SCHOOL,145.407919999801,-36.399009999237,3630,Shepparton
SOUTH STREET PRIMARY SCHOOL,146.259030000308,-38.1834599994565,3825,Moe
SHELFORD PRIMARY SCHOOL,143.982150000477,-38.01397999951,3329,Shelford
MORIAC PRIMARY SCHOOL,144.175580000116,-38.2413699992413,3240,Moriac
POMBORNEIT NORTH PRIMARY SCHOOL,143.300699999894,-38.2559599992594,3260,Pomborneit North
POMBORNEIT PRIMARY SCHOOL,143.296530000071,-38.2984599988395,3260,Pomborneit
POMONAL PRIMARY SCHOOL,142.608740000082,-37.1934299991737,3381,Pomonal
POOLAIJELO PRIMARY SCHOOL,141.09987000024,-37.2120699994751,3312,Poolaijelo
POOLAIJELO COMMUNITY SCHOOL,141.09987000024,-37.2120699994751,3312,Poolaijelo
PORT FAIRY CONSOLIDATED SCHOOL,142.228230000087,-38.3865999987806,3284,Port Fairy
TERIP TERIP PRIMARY SCHOOL,145.554309999944,-37.0115099991241,3719,Terip Terip
TERRARA PARK PRIMARY SCHOOL,145.1951399999,-37.8526299991933,3133,Vermont South
MACLEOD PRIMARY SCHOOL,145.080139999795,-37.7212399990625,3085,Macleod
LOVELY BANKS PRIMARY SCHOOL,144.329309999694,-38.0712399994244,3213,Lovely Banks
LOWER BENDOC PRIMARY SCHOOL,148.993760000319,-37.1348499994571,3888,Bendoc
MYALL PRIMARY SCHOOL,144.001810000302,-35.5801299992381,3579,Myall
MYRNIONG PRIMARY SCHOOL,144.346330000122,-37.6196999990981,3341,Myrniong
FITZROY NORTH PRIMARY SCHOOL,144.984150000186,-37.7850099991246,3068,Fitzroy North
FITZROY PRIMARY SCHOOL,144.98151999977,-37.7995899988618,3065,Fitzroy
PIPERS CREEK PRIMARY SCHOOL,144.543200000117,-37.2523499991162,3444,Pipers Creek
CHILDERS OLD PRIMARY SCHOOL,146.103199999716,-38.2931799987862,3824,Childers
BALLAM PARK PRIMARY SCHOOL,145.158289999875,-38.1474399991591,3199,Frankston
SMEATON PRIMARY SCHOOL,143.950420000372,-37.3356799988617,3364,Smeaton
MENTONE PARK PRIMARY SCHOOL,145.082799999711,-37.9799999993897,3194,Mentone
MENTONE PRIMARY SCHOOL,145.067980000528,-37.9829299988481,3194,Mentone
MENZIES CREEK PRIMARY SCHOOL,145.394280000076,-37.9173399988038,3159,Menzies Creek
MYRRHEE PRIMARY SCHOOL,146.318250000079,-36.7381799991888,3732,Myrrhee
MULGRAVE PRIMARY SCHOOL,145.197370000365,-37.9329299988616,3170,Mulgrave
MULLUM PRIMARY SCHOOL,145.239449999692,-37.7977199988763,3134,Ringwood
ROSEHILL PARK PRIMARY SCHOOL,144.866810000492,-37.7453999994414,3033,Keilor East
KEILOR SOUTH PRIMARY SCHOOL,144.866810000492,-37.7453999994414,3033,Keilor East
ROKEBY PRIMARY SCHOOL,145.92514000042,-38.0698499994226,3821,Rokeby
MALVERN CENTRAL SCHOOL,145.034410000563,-37.8559999987978,3144,Malvern
MALVERN EAST CENTRAL SCHOOL,145.05708999959,-37.8720699992304,3145,Malvern East
MALVERN EAST PRIMARY SCHOOL,145.05708999959,-37.8720699992304,3145,Malvern East
MALVERN PRIMARY SCHOOL,145.038459999438,-37.8715799988319,3145,Malvern East
MANDAMA PRIMARY SCHOOL,144.3278900004,-38.2003799986868,3216,Grovedale
MANDURANG PRIMARY SCHOOL,144.299030000456,-36.8245699995017,3551,Mandurang
MANIFOLD HEIGHTS PRIMARY SCHOOL,144.33292999958,-38.1359599989215,3218,Manifold Heights
MANNINGHAM PRIMARY SCHOOL,145.105139999572,-37.7712399994943,3107,Templestowe Lower
MANORVALE PRIMARY SCHOOL,144.643900000464,-37.8940499988017,3030,Werribee
MACORNA PRIMARY SCHOOL,144.026809999941,-35.9187399989145,3579,Macorna
MEREDITH PRIMARY SCHOOL,144.077810000474,-37.8426999991412,3333,Meredith
MERLYNSTON PRIMARY SCHOOL,144.958760000559,-37.7262399988719,3058,Coburg North
MERNDA PRIMARY SCHOOL,145.092250000522,-37.5945799988837,3754,Mernda
MERRIGUM PRIMARY SCHOOL,145.129670000373,-36.3693099988244,3618,Merrigum
Munro Primary School,147.189590000027,-37.9012399992983,3862,Munro
MURCHISON PRIMARY SCHOOL,145.214289999896,-36.6171699992038,3610,Murchison
KNOWSLEY PRIMARY SCHOOL,144.586530000336,-36.8223499990749,3523,Knowsley
KNOX PARK PRIMARY SCHOOL,145.251410000513,-37.8836099993879,3180,Knoxfield
MAIDEN GULLY PRIMARY SCHOOL,144.209710000521,-36.7441799989719,3551,Maiden Gully
DEBNEY MEADOWS PRIMARY SCHOOL,144.935149999803,-37.7859699988446,3031,Flemington
DAYLESFORD PRIMARY SCHOOL,144.141559999915,-37.3450899990113,3460,Daylesford
BOOKAAR PRIMARY SCHOOL,143.106809999798,-38.147349999392,3260,Bookaar
BOOLITE PRIMARY SCHOOL,142.66265000052,-36.3415099987002,3392,Boolite
YAAPEET PRIMARY SCHOOL,142.057150000007,-35.7684999990518,3424,Yaapeet
YALLA Y POORA PRIMARY SCHOOL,143.068759999608,-37.5217899986601,3378,Tatyoon
KATUNGA PRIMARY SCHOOL,145.455619999691,-35.9985499988698,3640,Katunga
KOETONG PRIMARY SCHOOL,147.497090000201,-36.1537399987177,3704,Koetong
TALLANGATTA PRIMARY SCHOOL,147.174200000035,-36.2147799988332,3700,Tallangatta
TALLANGATTA VALLEY PRIMARY SCHOOL,147.384869999999,-36.2853999988716,3701,Tallangatta Valley
TALLAROOK PRIMARY SCHOOL,145.10067999957,-37.0967499993864,3659,Tallarook
TALLYGAROOPNA PRIMARY SCHOOL,145.436319999643,-36.2385999995114,3634,Tallygaroopna
TAMBO CROSSING PRIMARY SCHOOL,147.8337600004,-37.5081799987777,3893,Tambo Crossing
TAMBO UPPER PRIMARY SCHOOL,147.845210000044,-37.7661899991061,3885,Tambo Upper
MURRUMBEENA PRIMARY SCHOOL,145.070409999518,-37.8861599993371,3163,Murrumbeena
PEARSONDALE PRIMARY SCHOOL,147.002370000016,-38.1315099990948,3851,Pearsondale
PARKLANDS PRIMARY SCHOOL,144.882919999936,-37.720399999438,3042,Airport West
SEYMOUR STREET PRIMARY SCHOOL,146.534029999951,-38.1956799989748,3844,Traralgon
KALINDA PRIMARY SCHOOL,145.254830000422,-37.7892899991518,3134,Ringwood
KALKALLO PRIMARY SCHOOL,144.949310000151,-37.5359599986441,3064,Kalkallo
EUMEMMERRING PRIMARY SCHOOL,145.248479999437,-37.9976299988958,3177,Eumemmerring
SEAFORD NORTH PRIMARY SCHOOL,145.133609999765,-38.0901499990461,3198,Seaford
SEAFORD PARK PRIMARY SCHOOL,145.154449999762,-38.1050299989888,3198,Seaford
SEAFORD PRIMARY SCHOOL,145.130500000142,-38.1044199988,3198,Seaford
SEAHOLME PRIMARY SCHOOL,144.83991000005,-37.8641999987906,3018,Seaholme
RUPANYUP PRIMARY SCHOOL,142.628619999821,-36.6322099992634,3388,Rupanyup
BYRNE PRIMARY SCHOOL,146.377919999665,-36.5370699993017,3678,Docker
SARSFIELD PRIMARY SCHOOL,147.705139999713,-37.7634599994127,3875,Sarsfield
SASSAFRAS PRIMARY SCHOOL,145.354559999876,-37.8616099989114,3787,Sassafras
CHRISTMAS HILLS PRIMARY SCHOOL,145.304200000203,-37.6534999992298,3775,Christmas Hills
CHURCHILL PRIMARY SCHOOL,146.415430000159,-38.3110899987361,3842,Churchill
RED CLIFFS PRIMARY SCHOOL,142.185320000125,-34.3115499994874,3496,Red Cliffs
PORTLAND NORTH PRIMARY SCHOOL,141.572340000477,-38.3176199995288,3305,Portland North
PORTLAND SOUTH PRIMARY SCHOOL,141.610619999903,-38.3652599992997,3305,Portland
BOSTOCK CREEK PRIMARY SCHOOL,143.116529999929,-38.2890099989262,3260,Bostocks Creek
BOUNDARY BEND PRIMARY SCHOOL,143.1504199998,-34.7156799988986,3599,Boundary Bend
APPIN SOUTH PRIMARY SCHOOL,143.869589999935,-35.9248499994276,3579,Appin South
SUNSHINE EAST PRIMARY SCHOOL,144.845690000264,-37.7829199988844,3020,Sunshine
SUNSHINE NORTH PRIMARY SCHOOL,144.83720000054,-37.7719999990249,3020,Sunshine North
AYR PRIMARY SCHOOL,145.104870000351,-37.778459998848,3108,Doncaster
PARK ORCHARDS PRIMARY SCHOOL,145.215920000215,-37.7795099992982,3114,Park Orchards
PARKDALE PRIMARY SCHOOL,145.083099999771,-37.9927799987997,3195,Parkdale
ORBOST NORTH PRIMARY SCHOOL,148.466010000094,-37.697779999062,3888,Orbost
CRANBOURNE SOUTH PRIMARY SCHOOL,145.245069999876,-38.1479299992216,3977,Cranbourne South
BREWSTER PRIMARY SCHOOL,143.527369999706,-37.4840099987703,3352,Brewster
BUFFALO PRIMARY SCHOOL,146.031260000009,-38.6528999994474,3958,Buffalo
NYAH PRIMARY SCHOOL,143.377370000356,-35.1720699987643,3594,Nyah
NIRRANDA SOUTH PRIMARY SCHOOL,142.800420000201,-38.5359599994828,3268,Nirranda South
WEERITE PRIMARY SCHOOL,143.236810000185,-38.2551299986355,3260,Weerite
WARRNAMBOOL PRIMARY SCHOOL,142.482580000562,-38.3772599992746,3280,Warrnambool
WOORI YALLOCK PRIMARY SCHOOL,145.532690000277,-37.777359998782,3139,Woori Yallock
BUCKLEY PRIMARY SCHOOL,144.073479999808,-38.2320699986581,3240,Buckley
KONGWAK PRIMARY SCHOOL,145.712869999511,-38.5150899987188,3951,Kongwak
KOO-WEE-RUP PRIMARY SCHOOL,145.492919999722,-38.1956799994542,3981,Koo Wee Rup
Kilmany South Primary School,146.91986999945,-38.132949998665,3851,Kilmany
BROADFORD PRIMARY SCHOOL,145.046310000438,-37.2025599994356,3658,Broadford
BROADMEADOWS EAST PRIMARY SCHOOL,144.929030000111,-37.6878999989515,3047,Broadmeadows
BROADMEADOWS PRIMARY SCHOOL,144.92850000034,-37.6801799992344,3047,Dallas
STEVENSVILLE PRIMARY SCHOOL,144.781209999822,-37.7360799992955,3021,Saint Albans
BUCKLEY SWAMP PRIMARY SCHOOL,142.074309999702,-37.8562399994381,3301,Buckley Swamp
KENNINGTON PRIMARY SCHOOL,144.307499999488,-36.7687899988603,3550,Kennington
FERNY CREEK PRIMARY SCHOOL,145.334729999777,-37.8841999990936,3786,Ferny Creek
GLENROWAN PRIMARY SCHOOL,146.222340000262,-36.4601799987157,3675,Glenrowan
GLENROY NORTH PRIMARY SCHOOL,144.930140000091,-37.6978999994968,3046,Glenroy
GLENROY WEST PRIMARY SCHOOL,144.908299999922,-37.7049399990885,3046,Glenroy
CONGUPNA PRIMARY SCHOOL,145.434279999963,-36.2998499989942,3633,Congupna
PARKMORE PRIMARY SCHOOL,145.177189999848,-37.8438299993013,3131,Forest Hill
YARRAVILLE PRIMARY SCHOOL,144.893480000074,-37.8215099990916,3013,Yarraville
YARRAVILLE WEST PRIMARY SCHOOL,144.885390000356,-37.8147399990509,3013,Yarraville
YARRAWONGA PRIMARY SCHOOL,146.002639999899,-36.0098499992642,3730,Yarrawonga
KOTUPNA PRIMARY SCHOOL,145.128480000193,-36.1459599987163,3638,Kotupna
MOONAMBEL PRIMARY SCHOOL,143.320749999455,-36.9898499988668,3478,Moonambel
MILDURA CENTRAL PRIMARY SCHOOL,142.15598000029,-34.197899999487,3500,Mildura
MILDURA PRIMARY SCHOOL,142.160500000078,-34.194269999007,3500,Mildura
MILDURA SOUTH PRIMARY SCHOOL,142.126790000247,-34.2134599988396,3500,Mildura
MINHAMITE PRIMARY SCHOOL,142.325700000005,-37.9926299991626,3287,Minhamite
CLISSOLD PRIMARY SCHOOL,143.43487000055,-38.3501299987553,3249,Pirron Yallock
CONCONGELLA PRIMARY SCHOOL,142.822319999718,-37.0495399987855,3384,Concongella
CHOCOLYN PRIMARY SCHOOL,143.192090000306,-38.1948499990851,3260,Chocolyn
COCKATOO PRIMARY SCHOOL,145.496389999525,-37.9393599990913,3781,Cockatoo
COIMADAI PRIMARY SCHOOL,144.47830999947,-37.6137799990532,3340,Coimadai
COLBINABBIN PRIMARY SCHOOL,144.801659999769,-36.5898699989879,3559,Colbinabbin
COLDSTREAM PRIMARY SCHOOL,145.382710000251,-37.7325399993408,3770,Coldstream
SOUTH WARRNAMBOOL PRIMARY SCHOOL,142.470150000471,-38.393179999249,3280,Warrnambool
MERRILANDS PRIMARY SCHOOL,145.005979999532,-37.6981799989045,3073,Reservoir
METCALFE PRIMARY SCHOOL,144.425149999568,-37.1042899990254,3448,Metcalfe
MELTON SOUTH PRIMARY SCHOOL,144.574270000134,-37.708709999083,3338,Melton South
MEAD PRIMARY SCHOOL,144.12347999971,-35.8253999989199,3568,Mead
MEADOWGLEN PRIMARY SCHOOL,145.053090000072,-37.642729999038,3076,Epping
CODRINGTON PRIMARY SCHOOL,141.952089999468,-38.26512999921,3285,Codrington
COGHILLS CREEK PRIMARY SCHOOL,143.768760000371,-37.3906799989515,3364,Coghills Creek
CAULFIELD SOUTH PRIMARY SCHOOL,145.030800000498,-37.8952399989932,3162,Caulfield South
ECHUCA VILLAGE PRIMARY SCHOOL,144.814030000036,-36.1387399995179,3564,Echuca Village
BUDGEREE PRIMARY SCHOOL,146.330980000272,-38.4134599989412,3870,Budgeree
BULLARTO PRIMARY SCHOOL,144.218230000096,-37.4053699991879,3461,Bullarto
BULLAROOK PRIMARY SCHOOL,144.00237000009,-37.5265099987687,3352,Bullarook
LYNDALE PRIMARY SCHOOL,145.204660000299,-37.9650399988418,3175,Dandenong North
FISH CREEK & DISTRICT PRIMARY SCHOOL,146.084310000302,-38.6945699987446,3959,Fish Creek
FISH CREEK PRIMARY SCHOOL,146.084310000302,-38.6945699987446,3959,Fish Creek
COBURN PRIMARY SCHOOL,144.572670000502,-37.6948499992534,3338,Melton South
HEYWOOD CONSOLIDATED SCHOOL,141.612929999852,-38.1275099989044,3304,Heywood
HADDON PRIMARY SCHOOL,143.721720000387,-37.5886299986791,3351,Haddon
HALLS GAP PRIMARY SCHOOL,142.517440000416,-37.1374699989518,3381,Halls Gap
YARRUNGA PRIMARY SCHOOL,146.317179999868,-36.3725499994306,3677,Wangaratta
YAWARRA PRIMARY SCHOOL,145.254980000242,-37.8611499992798,3155,Boronia
WESTGARTH PRIMARY SCHOOL,145.005570000534,-37.7764599991902,3070,Northcote
WYCHEPROOF PRIMARY SCHOOL,143.227919999681,-36.0765099988464,3527,Wycheproof
NIRRANDA PRIMARY SCHOOL,142.753480000325,-38.5006799993554,3268,Nirranda
NAPOLEONS PRIMARY SCHOOL,143.826469999576,-37.6786199989873,3352,Napoleons
NARINGUL PRIMARY SCHOOL,142.691529999595,-38.3951299987531,3277,Naringal
CARLTON NORTH PRIMARY SCHOOL,144.973029999821,-37.7910499991584,3054,Carlton North
CARNEGIE PRIMARY SCHOOL,145.054509999506,-37.8907299987969,3163,Carnegie
CARRUM PRIMARY SCHOOL,145.126710000346,-38.0781099990033,3197,Carrum
CAMP HILL PRIMARY SCHOOL,144.278039999851,-36.755699998925,3550,Bendigo
BULLA PRIMARY SCHOOL,144.795699999651,-37.6351299993094,3428,Bulla
PRINCES HILL PRIMARY SCHOOL,144.968110000526,-37.7803899993872,3054,Princes Hill
KANANOOK PRIMARY SCHOOL,145.131740000331,-38.1251499991017,3198,Seaford
KEW EAST PRIMARY SCHOOL,145.049160000378,-37.7964599990985,3102,Kew East
KEW PRIMARY SCHOOL,145.033389999691,-37.8036299988352,3101,Kew
KEYSBOROUGH PARK PRIMARY SCHOOL,145.15764000052,-37.9873499989153,3173,Keysborough
KEILOR HEIGHTS PRIMARY SCHOOL,144.86650000005,-37.7374999990327,3033,Keilor East
KEILOR PRIMARY SCHOOL,144.83570999965,-37.7168799992881,3036,Keilor
ALBANVALE PRIMARY SCHOOL,144.774429999607,-37.7440099991869,3021,Albanvale
ALBION PRIMARY SCHOOL,144.819759999707,-37.778069998958,3020,Albion
ALEXANDRA PRIMARY SCHOOL,145.711710000214,-37.1925499987452,3714,Alexandra
KERRIE PRIMARY SCHOOL,144.664309999663,-37.3812399988973,3434,Kerrie
GERANG PRIMARY SCHOOL,141.882089999563,-36.3742899992385,3418,Gerang Gerung
GLEN PARK PRIMARY SCHOOL,143.93480000041,-37.5247699993785,3352,Glen Park
FORREST PRIMARY SCHOOL,143.714420000384,-38.5162699992893,3236,Forrest
JOHNSONVILLE PRIMARY SCHOOL,147.827090000464,-37.8203999990237,3902,Johnsonville
ELLINBANK PRIMARY SCHOOL,145.93563999946,-38.2402199991629,3821,Ellinbank
ELPHINSTONE PRIMARY SCHOOL,144.332910000158,-37.104989999225,3448,Elphinstone
ELWOOD PRIMARY SCHOOL,144.98837000047,-37.8814899986452,3184,Elwood
EMERALD PRIMARY SCHOOL,145.44242999958,-37.9333699986532,3782,Emerald
FAIRFIELD PRIMARY SCHOOL,145.020410000305,-37.777979998707,3078,Fairfield
FAIRWAY PRIMARY SCHOOL,145.135699999652,-38.1348499991285,3199,Frankston
YARRAM PRIMARY SCHOOL,146.675329999481,-38.5585199987225,3971,Yarram
YARRAMAN PARK PRIMARY SCHOOL,145.192089999493,-37.9706799994521,3174,Noble Park
YARRAMBAT PRIMARY SCHOOL,145.133099999721,-37.6412299994743,3091,Yarrambat
NULLAWIL PRIMARY SCHOOL,143.179120000472,-35.8527299988425,3529,Nullawil
FOREST STREET PRIMARY SCHOOL,143.835440000329,-37.5231799990192,3355,Wendouree
KROWERA PRIMARY SCHOOL,145.673199999723,-38.4376299990871,3945,Krowera
KINGSTON HEATH PRIMARY SCHOOL,145.07907000002,-37.9627699991638,3192,Cheltenham
KINGSVILLE PRIMARY SCHOOL,144.874659999998,-37.8125799991705,3013,Yarraville
PURRUMBETE SOUTH PRIMARY SCHOOL,143.210700000566,-38.3487399991564,3260,South Purrumbete
PIRA PRIMARY SCHOOL,143.369030000003,-35.2570699987169,3585,Pira
PIRRON YALLOCK PRIMARY SCHOOL,143.431809999982,-38.3487399986701,3249,Pirron Yallock
FYANS PARK PRIMARY SCHOOL,144.326869999904,-38.153789999529,3220,Newtown
FOUNTAIN GATE PRIMARY SCHOOL,145.295200000109,-38.0094099995329,3805,Narre Warren
BACCHUS MARSH PRIMARY SCHOOL,144.443129999586,-37.6730199992457,3340,Bacchus Marsh
ARDEER PRIMARY SCHOOL,144.800500000512,-37.7810599990819,3022,Ardeer
BALLARAT EAST PRIMARY SCHOOL,143.872650000109,-37.5640099992579,3350,Ballarat East
IRREWILLIPE EAST PRIMARY SCHOOL,143.465979999635,-38.4115099986377,3249,Irrewillipe East
JANCOURT EAST PRIMARY SCHOOL,143.152920000065,-38.3992899991834,3266,Jancourt East
BALLENDELLA PRIMARY SCHOOL,144.664310000006,-36.3128999987366,3561,Ballendella
FRANKSTON EAST PRIMARY SCHOOL,145.145530000457,-38.1466199994019,3199,Frankston
FOOTSCRAY PRIMARY SCHOOL,144.892680000151,-37.7983699991893,3011,Footscray
HAWKESDALE PRIMARY SCHOOL,142.32597999956,-38.1062399990591,3287,Hawkesdale
GREENWALD PRIMARY SCHOOL,141.36209000022,-37.9687399988919,3304,Greenwald
GRENVILLE PRIMARY SCHOOL,143.881260000451,-37.7728999989195,3352,Grenville
BERRINGA PRIMARY SCHOOL,143.693760000303,-37.7737399991943,3351,Berringa
GIRGARRE PRIMARY SCHOOL,144.9737600003,-36.3980899990881,3624,Girgarre
GENOA PRIMARY SCHOOL,149.584029999804,-37.4767899993353,3891,Genoa
MILLBROOK PRIMARY SCHOOL,144.049870000242,-37.5873499990011,3352,Millbrook
MINCHA WEST PRIMARY SCHOOL,144.100700000057,-35.9215099989332,3568,Mincha West
BANYENA PRIMARY SCHOOL,142.8206999997,-36.5726299987805,3388,Banyena
BARINGHUP PRIMARY SCHOOL,143.967830000229,-36.9769899989757,3463,Baringhup
NAR NAR GOON PRIMARY SCHOOL,145.574019999832,-38.0827499991908,3812,Nar Nar Goon
FOREST HILL PRIMARY SCHOOL,145.17152999967,-37.8334599989347,3131,Forest Hill
MICKLEHAM PRIMARY SCHOOL,144.876549999845,-37.5634799988697,3064,Mickleham
KYVALLEY PRIMARY SCHOOL,145.00792000025,-36.2887399986514,3621,Kyvalley
LABERTOUCHE PRIMARY SCHOOL,145.804949999655,-38.037659999252,3816,Labertouche
KIALLA WEST PRIMARY SCHOOL,145.389459999705,-36.4659899994874,3631,Kialla West
CARAG CARAG PRIMARY SCHOOL,144.914029999945,-36.4673499992176,3623,Carag Carag
CARBOOR UPPER PRIMARY SCHOOL,146.548480000449,-36.6412399988472,3678,Carboor
CARDINIA PRIMARY SCHOOL,145.423779999662,-38.1457899987151,3978,Cardinia
CARLSRUHE PRIMARY SCHOOL,144.503760000554,-37.2828999989308,3442,Carlsruhe
CARLTON PRIMARY SCHOOL,144.969470000297,-37.8021099987953,3053,Carlton
OLD SANDMONT SCHOOL,145.558199999467,-35.9990099989048,3640,Katunga
Old Willung South Primary School,146.725420000381,-38.3423499988151,3847,Willung South
DEEPDENE PRIMARY SCHOOL,145.061359999503,-37.8083499995239,3103,Deepdene
NYORA PRIMARY SCHOOL,145.674899999928,-38.3362299993142,3987,Nyora
SAINT ALBANS MEADOWS PRIMARY SCHOOL,144.817779999964,-37.7533499992949,3021,Saint Albans
OAK PARK PRIMARY SCHOOL,144.915049999776,-37.7155099987193,3046,Oak Park
KIALLA PRIMARY SCHOOL,145.431160000441,-36.452689999515,3631,Kialla
MOSSFIEL PRIMARY SCHOOL,144.696120000035,-37.8728699993297,3029,Hoppers Crossing
MOSSGIEL PARK PRIMARY SCHOOL,145.267720000528,-37.9683699992146,3802,Endeavour Hills
MOSSIFACE PRIMARY SCHOOL,147.807090000471,-37.7267899991455,3885,Mossiface
RUTHERGLEN PRIMARY SCHOOL,146.460619999826,-36.0561999994405,3685,Rutherglen
RUTHVEN PRIMARY SCHOOL,144.995700000526,-37.7026299993828,3073,Reservoir
OAKLEIGH SOUTH PRIMARY SCHOOL,145.094709999626,-37.9221899988689,3167,Oakleigh South
OBERON PRIMARY SCHOOL,144.341999999928,-38.1794299993707,3216,Belmont
OBERON SOUTH PRIMARY SCHOOL,144.339859999755,-38.1856999994594,3216,Belmont
NORTHCOTE PRIMARY SCHOOL,144.996889999894,-37.7717399986373,3070,Northcote
Nowa Nowa Primary School,148.092549999714,-37.7266099992302,3887,Nowa Nowa
WOOLSTHORPE PRIMARY SCHOOL,142.431769999664,-38.1873999989693,3276,Woolsthorpe
WOOMELANG GROUP SCHOOL,142.664309999721,-35.6762399988766,3485,Woomelang
WOOMELANG PRIMARY SCHOOL,142.666530000327,-35.6815099993186,3485,Woomelang
WOORIEN NORTH PRIMARY SCHOOL,143.442089999483,-35.2453999988219,3589,Woorinen North
WOORIEN PRIMARY SCHOOL,143.469310000258,-35.273739999057,3589,Woorinen
WOORIEN SOUTH PRIMARY SCHOOL,143.452369999694,-35.290399999005,3588,Woorinen South
WOORINEN PRIMARY SCHOOL,143.451809999746,-35.2365099993972,3589,Woorinen North
RUSHWORTH PRIMARY SCHOOL,145.011529999586,-36.5862399992248,3612,Rushworth
OCEAN GROVE PRIMARY SCHOOL,144.521859999915,-38.2639799994158,3226,Ocean Grove
OFFICER PRIMARY SCHOOL,145.41018999965,-38.0582599994407,3809,Officer
OLD BERRYS CREEK PRIMARY SCHOOL,146.072919999539,-38.4059599993513,3953,Berrys Creek
WALLINGTON PRIMARY SCHOOL,144.506860000378,-38.2178699993506,3222,Wallington
MONTEREY PRIMARY SCHOOL,145.157639999788,-38.1251299987177,3200,Frankston North
MONTMORENCY PRIMARY SCHOOL,145.121600000438,-37.7176399988803,3094,Montmorency
MONTPELLIER PRIMARY SCHOOL,144.316129999532,-38.1662499993667,3216,Highton
CARPENDEIT PRIMARY SCHOOL,143.249870000369,-38.3717899994068,3260,Carpendeit
MAGPIE PRIMARY SCHOOL,143.843269999893,-37.6156999994476,3352,Magpie
MAJORCA PRIMARY SCHOOL,143.792650000266,-37.1198499991252,3465,Majorca
BULLENGAROOK PRIMARY SCHOOL,144.516259999649,-37.4870699994682,3437,Bullengarook
RUSKIN PARK PRIMARY SCHOOL,145.296160000191,-37.7989299994485,3136,Croydon
RUSKIN STREET PRIMARY SCHOOL,148.455140000164,-37.7095699989855,3888,Orbost
FLEMINGTON PRIMARY SCHOOL,144.93392999993,-37.7806599992494,3032,Travancore
SAINT KILDA PARK PRIMARY SCHOOL,144.977799999803,-37.8580999994317,3182,St Kilda
SAINT KILDA PRIMARY SCHOOL,144.989020000324,-37.8702099991602,3182,St Kilda
SAINT LEONARDS PRIMARY SCHOOL,144.714759999673,-38.171819998805,3223,St Leonards
THORNBURY PRIMARY SCHOOL,144.996749999597,-37.7554099992149,3071,Thornbury
THORPDALE PRIMARY SCHOOL,146.178800000299,-38.2884399986747,3835,Thorpdale
SAINT ALBANS HEIGHTS PRIMARY SCHOOL,144.810369999477,-37.7486399990244,3021,Saint Albans
NUNAWADING PRIMARY SCHOOL,145.166990000348,-37.8074499992675,3130,Blackburn North
NUNGURNER PRIMARY SCHOOL,147.888389999545,-37.8659099988548,3909,Nungurner
TINTERNVALE PRIMARY SCHOOL,145.265349999863,-37.8183899989138,3135,Ringwood East
FERNTREE GULLY PRIMARY SCHOOL,145.284029999779,-37.8837399992098,3156,Ferntree Gully
MORWELL PARK PRIMARY SCHOOL,146.424469999897,-38.2279199992353,3840,Morwell
CAMPBELLFIELD HEIGHTS PRIMARY SCHOOL,144.965880000084,-37.6743099994312,3061,Campbellfield
CAMPBELLFIELD PRIMARY SCHOOL,144.953480000384,-37.6720699993932,3061,Campbellfield
CAMPBELLS CREEK PRIMARY SCHOOL,144.20467000017,-37.0929199994853,3451,Campbells Creek
ORRVALE PRIMARY SCHOOL,145.440549999458,-36.4103999991985,3631,Orrvale
OSBORNE PRIMARY SCHOOL,145.040910000415,-38.2570899986412,3934,Mount Martha
OSBORNES FLAT PRIMARY SCHOOL,146.892580000039,-36.3171499991393,3691,Osbornes Flat
PENNYROYAL PRIMARY SCHOOL,143.853759999869,-38.4248499991286,3235,Pennyroyal
FYANSFORD PRIMARY SCHOOL,144.302920000053,-38.1426299990059,3218,Fyansford
HAWKSBURN PRIMARY SCHOOL,144.998479999452,-37.8467899990861,3141,South Yarra
HADFIELD PRIMARY SCHOOL,144.949029999913,-37.7117899994913,3046,Hadfield
BLACK ROCK PRIMARY SCHOOL,145.021660000082,-37.9698499992534,3193,Black Rock
RUFFY PRIMARY SCHOOL,145.500419999896,-36.9756799991874,3666,Ruffy
MONTROSE PRIMARY SCHOOL,145.343700000036,-37.8080799994808,3765,Montrose
OUTTRIM PRIMARY SCHOOL,145.762639999979,-38.4990099989525,3951,Outtrim
SPOTSWOOD PRIMARY SCHOOL,144.881739999476,-37.8304399993577,3015,Spotswood
KEILOR PARK PRIMARY SCHOOL,144.859029999457,-37.7237399994716,3042,Keilor Park
NEWBOROUGH PRIMARY SCHOOL,146.292790000536,-38.1885699991217,3825,Newborough
REDBANK PRIMARY SCHOOL,143.326260000331,-36.939289999306,3477,Redbank
RED CLIFFS CENTRAL PRIMARY SCHOOL,142.18514999999,-34.3112399990548,3496,Red Cliffs
RED CLIFFS EAST PRIMARY SCHOOL,142.192089999486,-34.2792899994926,3496,Red Cliffs
NARMARA PRIMARY SCHOOL,145.137089999481,-37.8562399986443,3151,Burwood East
BERRIWILLOCK PRIMARY SCHOOL,142.993480000198,-35.6342899989876,3531,Berriwillock
BESSIEBELLE PRIMARY SCHOOL,141.960150000577,-38.1553999989075,3304,Bessiebelle
BARONGAROOK PRIMARY SCHOOL,143.608200000113,-38.4201299995202,3249,Barongarook
MOOLAP PRIMARY SCHOOL,144.42432000035,-38.1709399991126,3224,Moolap
MOOMBA PARK PRIMARY SCHOOL,144.967230000381,-37.6957499989169,3060,Fawkner
MITCHAM PRIMARY SCHOOL,145.192720000553,-37.8089699990686,3132,Mitcham
MITIAMO PRIMARY SCHOOL,144.231259999924,-36.2073499990054,3573,Mitiamo
MITTA JUNCTION PRIMARY SCHOOL,147.016810000194,-36.1095699986589,3691,Bonegilla
MITTA MITTA PRIMARY SCHOOL,147.379489999918,-36.5333999987277,3701,Mitta Mitta
MITTA NORTH PRIMARY SCHOOL,147.35070000054,-36.4751299989054,3701,Mitta Mitta
NEWCOMB SOUTH PRIMARY SCHOOL,144.396259999491,-38.1692899991963,3219,Newcomb
NEWHAM PRIMARY SCHOOL,144.594769999738,-37.3121299994552,3442,Newham
NEWHAVEN PRIMARY SCHOOL,145.356859999609,-38.5131399989736,3925,Newhaven
NEWLANDS PRIMARY SCHOOL,144.985379999774,-37.7300999989604,3072,Preston
NEWMERELLA PRIMARY SCHOOL,148.434000000012,-37.7354599991989,3886,Newmerella
NARRACAN PRIMARY SCHOOL,146.231630000293,-38.2615599987449,3824,Narracan
MARLO PRIMARY SCHOOL,148.535040000048,-37.7962599990283,3888,Marlo
MARONG PRIMARY SCHOOL,144.135380000078,-36.735669999205,3515,Marong
BARWON DOWNS PRIMARY SCHOOL,143.758200000069,-38.4687399988756,3243,Barwon Downs
BEALIBA PRIMARY SCHOOL,143.551900000129,-36.7899299993648,3475,Bealiba
BEAUFORT PRIMARY SCHOOL,143.381719999811,-37.4385099988058,3373,Beaufort
DRIFFIELD PRIMARY SCHOOL,146.333759999874,-38.2692899991988,3840,Driffield
YAPEEN PRIMARY SCHOOL,144.182650000429,-37.1281799991021,3451,Yapeen
YARCK PRIMARY SCHOOL,145.615980000149,-37.1048499993018,3719,Yarck
YARRA GLEN PRIMARY SCHOOL,145.372419999517,-37.6496899991416,3775,Yarra Glen
YARRA JUNCTION PRIMARY SCHOOL,145.606090000421,-37.7790199993208,3797,Yarra Junction
DON VALLEY PRIMARY SCHOOL,145.587420000109,-37.7601899988491,3139,Don Valley
DONBURN PRIMARY SCHOOL,145.165529999752,-37.7874399990024,3109,Doncaster East
WILLIAMSTOWN NORTH PRIMARY SCHOOL,144.891760000313,-37.8558899990702,3016,Williamstown
RICHMOND WEST PRIMARY SCHOOL,144.995740000192,-37.8136099987419,3121,Richmond
RAVENSWOOD SOUTH PRIMARY SCHOOL,144.238480000359,-36.9492899991189,3453,Ravenswood South
KAWARREN PRIMARY SCHOOL,143.583200000222,-38.4806799994986,3249,Kawarren
JEPARIT PRIMARY SCHOOL,141.984059999958,-36.1413299991709,3423,Jeparit
MOYSTON PRIMARY SCHOOL,142.767859999548,-37.3016499988778,3377,Moyston
DENNINGTON PRIMARY SCHOOL,142.450150000196,-38.3462399992434,3280,Dennington
OAKLEIGH PRIMARY SCHOOL,145.088620000193,-37.8944599986386,3166,Oakleigh
OAKWOOD PARK PRIMARY SCHOOL,145.19014000011,-37.9606799987319,3174,Noble Park North
NORWOOD PRIMARY SCHOOL,145.229030000356,-37.8045699994988,3134,Ringwood
LONG GULLY PRIMARY SCHOOL,144.256260000441,-36.7334599992045,3556,California Gully
BOLWARRA PRIMARY SCHOOL,141.61379999981,-38.2815999993409,3305,Bolwarra
BEULAH PRIMARY SCHOOL,142.41826000045,-35.9449299993324,3395,Beulah
BEVERFORD DISTRICT PRIMARY SCHOOL,143.478919999486,-35.2324699993164,3590,Beverford
BEVERFORD PRIMARY SCHOOL,143.478919999486,-35.2324699993164,3590,Beverford
EUROA PRIMARY SCHOOL,145.572079999939,-36.7559499993912,3666,Euroa
EVERTON PRIMARY SCHOOL,146.544540000243,-36.4352999990263,3678,Everton
EVERTON UPPER PRIMARY SCHOOL,146.522640000425,-36.3937399989071,3678,Everton Upper
EXFORD PRIMARY SCHOOL,144.558800000212,-37.7452699993817,3338,Exford
GLADESWOOD PRIMARY SCHOOL,145.19652999947,-37.9328999993478,3170,Mulgrave
WESTMEADOWS HEIGHTS PRIMARY SCHOOL,144.906950000091,-37.6741499989644,3049,Westmeadows
RIVER GUM PRIMARY SCHOOL,145.260510000282,-38.0346399990913,3976,Hampton Park
Urquhart Park Primary School,143.831220000324,-37.5659999990959,3350,Newington
LENEVA PRIMARY SCHOOL,146.892369999904,-36.1917899990135,3691,Leneva
LEONGATHA SOUTH PRIMARY SCHOOL,145.879870000547,-38.5295699993003,3953,Leongatha South
GISBORNE PRIMARY SCHOOL,144.588450000001,-37.490849999237,3437,Gisborne
GLADESVILLE PRIMARY SCHOOL,145.322920000351,-37.811089998698,3137,Kilsyth
GLADSTONE PARK PRIMARY SCHOOL,144.886590000471,-37.6871299991383,3043,Gladstone Park
GLADSTONE VIEWS PRIMARY SCHOOL,144.898379999452,-37.6889999992641,3043,Gladstone Park
GLADYSDALE PRIMARY SCHOOL,145.65098999988,-37.8202399993283,3797,Gladysdale
GLEN ALVIE PRIMARY SCHOOL,145.643480000397,-38.4987399995249,3979,Glen Alvie
BALLARAT NORTH PRIMARY SCHOOL,143.862820000428,-37.5400899993929,3350,Ballarat North
BALLARAT PRIMARY SCHOOL,143.850980000037,-37.5645699986827,3350,Ballarat Central
MOUNT BEST PRIMARY SCHOOL,146.30791999964,-38.5976299993321,3960,Mount Best
MORANG SOUTH PRIMARY SCHOOL,145.094670000331,-37.6528599987781,3752,South Morang
DEER PARK NORTH PRIMARY SCHOOL,144.774039999497,-37.7561199993558,3023,Deer Park
DEER PARK WEST PRIMARY SCHOOL,144.76443999995,-37.7719899992803,3023,Deer Park
DARNUM PRIMARY SCHOOL,145.999700000204,-38.187709999273,3822,Darnum
DARRAWEIT GUIM PRIMARY SCHOOL,144.893570000072,-37.4010099990214,3756,Darraweit Guim
GLEN IRIS PRIMARY SCHOOL,145.065899999763,-37.860469998931,3146,Glen Iris
GLEN WAVERLEY HEIGHTS PRIMARY SCHOOL,145.168480000234,-37.8756799987259,3150,Glen Waverley
GEELONG SOUTH PRIMARY SCHOOL,144.35857000056,-38.1569299988748,3220,Geelong
GELANTIPY PRIMARY SCHOOL,148.256810000031,-37.1584599986413,3885,Gelantipy
CANIAMBO PRIMARY SCHOOL,145.63070000041,-36.4687399987698,3630,Caniambo
ALLAMBEE RESERVE PRIMARY SCHOOL,146.048760000503,-38.2809599994591,3871,Allambee Reserve
SAINT ALBANS NORTH PRIMARY SCHOOL,144.802019999523,-37.7317299989006,3021,Saint Albans
LAVERTON PARK PRIMARY SCHOOL,144.771890000392,-37.8602599992155,3028,Laverton
Newcombe Park Primary School,144.394959999705,-38.1651499989206,3219,Newcomb
SAINT ALBANS PRIMARY SCHOOL,144.795779999907,-37.7387299991353,3021,Saint Albans
SAINT ALBANS SOUTH PRIMARY SCHOOL,144.803079999953,-37.7548699995004,3021,Saint Albans
DARTMOUTH PRIMARY SCHOOL,147.584590000098,-36.5670699987938,3701,Dartmouth
WINCHELSEA HIGHER ELEMENTARY SCHOOL,143.984310000073,-38.2440099992211,3241,Winchelsea
WINDERMERE PRIMARY SCHOOL,143.708480000267,-37.4795699990906,3352,Windermere
ALLANS FLAT PRIMARY SCHOOL,146.900980000203,-36.2862399990284,3691,Allans Flat
NOOJEE PRIMARY SCHOOL,146.007869999609,-37.8951199986425,3833,Noojee
NOORINBEE PRIMARY SCHOOL,149.168939999476,-37.5163399994415,3890,Noorinbee
NOOROONGONG PRIMARY SCHOOL,147.233480000247,-36.3245699987704,3701,Tallangatta South
SAINT ANDREWS PRIMARY SCHOOL,145.269830000065,-37.6022999988192,3761,Saint Andrews
SAINT GERMAINS PRIMARY SCHOOL,145.164869999583,-36.2442899991533,3620,Saint Germains
SAINT JAMES PRIMARY SCHOOL,145.896810000146,-36.2751299993571,3727,Saint James
HALLAM VALLEY PRIMARY SCHOOL,145.318099999958,-38.0392899992488,3805,Narre Warren
HALLSTON PRIMARY SCHOOL,146.031809999448,-38.3592899988711,3953,Hallston
GIRGARRE EAST PRIMARY SCHOOL,145.070699999714,-36.4520699994369,3616,Girgarre East
HALLAM PRIMARY SCHOOL,145.258249999814,-38.0017499988209,3803,Hallam
HAMPTON PARK EAST PRIMARY SCHOOL,145.261390000278,-38.0347099989094,3976,Hampton Park
ROMSEY PRIMARY SCHOOL,144.745379999568,-37.3541599992512,3434,Romsey
OVERLAND PRIMARY SCHOOL,144.853759999727,-37.743459999179,3033,Keilor East
OVERPORT PRIMARY SCHOOL,145.126979999542,-38.1604699991197,3199,Frankston
WOORNDOO PRIMARY SCHOOL,142.798199999441,-37.8870699993283,3272,Woorndoo
RANFURLY PRIMARY SCHOOL,142.133910000444,-34.1936599995809,3500,Mildura
QUAMBATOOK PRIMARY SCHOOL,143.520420000088,-35.8487399991437,3540,Quambatook
PORTLAND PRIMARY SCHOOL,141.599419999978,-38.3472799990715,3305,Portland
GROVEDALE WEST PRIMARY SCHOOL,144.328950000269,-38.2082599991353,3216,Grovedale
SOLWAY PRIMARY SCHOOL,145.072830000355,-37.8732199987942,3147,Ashburton
THOMASTOWN WEST PRIMARY SCHOOL,145.000790000265,-37.6786899993027,3074,Thomastown
CRANBOURNE PRIMARY SCHOOL,145.287850000546,-38.1118499989996,3977,Cranbourne
CRANBOURNE WEST PRIMARY SCHOOL,145.267729999868,-38.102699999469,3977,Cranbourne
HAMILTON NORTH PRIMARY SCHOOL,141.995159999876,-37.7264399994219,3300,Hamilton
HAMILTON PRIMARY SCHOOL,142.022920000101,-37.7431799993761,3300,Hamilton
MODELLA PRIMARY SCHOOL,145.709029999457,-38.1878999992054,3816,Modella
MODEWARRE PRIMARY SCHOOL,144.137920000103,-38.2537399990727,3240,Modewarre
MILL PARK PRIMARY SCHOOL,145.065890000177,-37.6745899989408,3082,Mill Park
CHARLTON PRIMARY SCHOOL,143.353479999715,-36.268459999385,3525,Charlton
CHETWYND PRIMARY SCHOOL,141.420700000151,-37.2776299992681,3312,Chetwynd
HARROW PRIMARY SCHOOL,141.594870000442,-37.1601299988285,3317,Harrow
GREAT WESTERN PRIMARY SCHOOL,142.851739999827,-37.1484999987779,3374,Great Western
STONY CREEK PRIMARY SCHOOL,146.042639999916,-38.5865099986459,3957,Stony Creek
Licola Primary School,146.623759999637,-37.6270699994899,3858,Licola
RAYWOOD PRIMARY SCHOOL,144.204809999747,-36.5394599989727,3570,Raywood
OLINDA PRIMARY SCHOOL,145.366200000429,-37.8546799993566,3788,Olinda
OMEO PRIMARY SCHOOL,147.593090000452,-37.1001999992965,3898,Omeo
ROKEWOOD PRIMARY SCHOOL,143.722819999447,-37.9036399988833,3330,Rokewood
ROSS BRIDGE PRIMARY SCHOOL,142.849589999709,-37.485959998957,3377,Rossbridge
YOUANMITE PRIMARY SCHOOL,145.688479999611,-36.1592899995394,3646,Youanmite
YUNDOOL PRIMARY SCHOOL,145.829030000372,-36.2615099994197,3727,Saint James
HASTINGS PRIMARY SCHOOL,145.189480000095,-38.2996799994281,3915,Hastings
LARA PRIMARY SCHOOL,144.410550000007,-38.0158999993513,3212,Lara
LAUNCHING PLACE PRIMARY SCHOOL,145.570770000142,-37.7824899988687,3139,Launching Place
WALLAN PRIMARY SCHOOL,144.975040000544,-37.4114499991974,3756,Wallan
WALLARANO PRIMARY SCHOOL,145.170829999599,-37.979609998849,3174,Noble Park
MARALINGA PRIMARY SCHOOL,145.180479999764,-37.9923799990031,3173,Keysborough
Tarwin Valley Primary School Meeniyan Site,146.015189999995,-38.5793299990131,3956,Meeniyan
CAMPMEADOWS PRIMARY SCHOOL,144.929169999975,-37.6924999993572,3047,Broadmeadows
WELSHPOOL PRIMARY SCHOOL,146.430990000322,-38.6659599993056,3966,Welshpool
WELSHPOOL & DISTRICT PRIMARY SCHOOL,146.430990000322,-38.6659599993056,3966,Welshpool
BRAYBROOK PRIMARY SCHOOL,144.856389999726,-37.7785999988432,3019,Braybrook
SUNVALE PRIMARY SCHOOL,144.836249999904,-37.7825299993934,3020,Sunshine
BOWEN STREET PRIMARY SCHOOL,145.928479999819,-38.157069999196,3820,Warragul
BOWEN STREET PRIMARY SCHOOL WARRAGUL,145.928479999819,-38.157069999196,3820,Warragul
BOX HILL NORTH PRIMARY SCHOOL,145.12332000026,-37.8007799987597,3129,Box Hill North
TANGAMBALANGA PRIMARY SCHOOL,147.038760000128,-36.2506799988834,3691,Tangambalanga
TARADALE PRIMARY SCHOOL,144.351069999778,-37.1412999986398,3447,Taradale
TARRAVILLE PRIMARY SCHOOL,146.720980000175,-38.6376299987829,3971,Tarraville
TAGGERTY PRIMARY SCHOOL,145.713480000176,-37.3215099988941,3714,Taggerty
COLLINGWOOD PRIMARY SCHOOL,144.984870000251,-37.8078999988751,3066,Collingwood
COBURG PRIMARY SCHOOL,144.968220000465,-37.7412899987388,3058,Coburg
COBURG WEST PRIMARY SCHOOL,144.947630000316,-37.7471399991935,3058,Coburg
COBURG NORTH PRIMARY SCHOOL,144.951859999769,-37.7361599990573,3058,Coburg
CLOVERLEA PRIMARY SCHOOL,146.000420000404,-38.2345699989712,3822,Cloverlea
CLUB TERRACE PRIMARY SCHOOL,148.935700000433,-37.540679998917,3889,Club Terrace
WHEELERS HILL PRIMARY SCHOOL,145.177599999958,-37.9001599987994,3150,Wheelers Hill
GORDON PRIMARY SCHOOL,144.105060000295,-37.5838399986444,3345,Gordon
GOWERVILLE PRIMARY SCHOOL,145.018199999701,-37.747069999277,3072,Preston
LYONS PRIMARY SCHOOL,141.463480000189,-38.0117899993797,3304,Lyons
MACARTHUR PRIMARY SCHOOL,142.001480000338,-38.030859998645,3286,Macarthur
EASTMEADOWS PRIMARY SCHOOL,144.93597999945,-37.6845699986916,3047,Broadmeadows
WICKLIFFE PRIMARY SCHOOL,142.725149999678,-37.6898499987764,3379,Wickliffe
WILKIN PRIMARY SCHOOL,141.228479999783,-37.7145699991427,3312,Strathdownie
WELSHPOOL PRIMARY SCHOOL,146.430979999627,-38.6656799989307,3966,Welshpool
WELTON PRIMARY SCHOOL,144.501260000358,-35.9884599987685,3562,Torrumbarry
WELTON PUBLIC SCHOOL,144.499870000275,-35.9890099988954,3562,Torrumbarry
GOLDEN SQUARE PRIMARY SCHOOL,144.2573099997,-36.7705899989563,3555,Golden Square
DRYSDALE PRIMARY SCHOOL,144.571750000334,-38.1691499990974,3222,Drysdale
DUMBALK NORTH PRIMARY SCHOOL,146.170979999426,-38.5081799988585,3956,Dumbalk North
BRUNSWICK NORTH PRIMARY SCHOOL,144.95044000051,-37.75981999921,3056,Brunswick
BRUNSWICK NORTH WEST PRIMARY SCHOOL,144.943600000084,-37.7566899994999,3055,Brunswick West
BRUNSWICK SOUTH PRIMARY SCHOOL,144.972540000478,-37.7786899993057,3057,Brunswick East
BRUNSWICK SOUTH WEST PRIMARY SCHOOL,144.943530000332,-37.7705599987917,3055,Brunswick West
BRUTHEN PRIMARY SCHOOL,147.833499999697,-37.7041999992464,3885,Bruthen
JINDIVICK PRIMARY SCHOOL,145.901140000538,-38.0276099992635,3818,Jindivick
Ivanhoe East Primary School,145.059460000176,-37.7745699994636,3079,Ivanhoe East
YERING PRIMARY SCHOOL,145.382220000362,-37.705339999135,3770,Yering
MAILOR FLAT PRIMARY SCHOOL,142.472920000534,-38.2917899992622,3275,Mailors Flat
KINGSBURY PRIMARY SCHOOL,145.03721000008,-37.7160099988997,3083,Kingsbury
KEON PARK PRIMARY SCHOOL,145.022729999789,-37.7054999993824,3073,Reservoir
TULLAMARINE PRIMARY SCHOOL,144.879580000253,-37.702189999054,3043,Tullamarine
TUNGAMAH PRIMARY SCHOOL,145.879480000371,-36.1612899992334,3728,Tungamah
HASTINGS WESTPARK PRIMARY SCHOOL,145.172750000357,-38.2978799993431,3915,Hastings
WESTPARK PRIMARY SCHOOL,145.172750000357,-38.2978799993431,3915,Hastings
WERRIBEE PRIMARY SCHOOL,144.65873999944,-37.9068499989966,3030,Werribee
WESBURN PRIMARY SCHOOL,145.6470800001,-37.768679999434,3799,Wesburn
WEST MELBOURNE PRIMARY SCHOOL,144.950979999503,-37.8065099986879,3003,West Melbourne
WESTALL PRIMARY SCHOOL,145.135750000557,-37.942169998637,3169,Clayton South
MUMBANNAR PRIMARY SCHOOL,141.185700000417,-37.9276299989467,3304,Mumbannar
DEAN PRIMARY SCHOOL,143.979030000452,-37.4653999988997,3363,Dean
FISH POINT PRIMARY SCHOOL,143.73319999958,-35.4367899993693,3585,Fish Point
ARMADALE PRIMARY SCHOOL,145.017780000098,-37.8521699993424,3143,Armadale
ARMATA PRIMARY SCHOOL,145.158759999587,-38.1198499992175,3200,Frankston North
ARNOLD PRIMARY SCHOOL,143.866530000443,-36.6926299987054,3551,Arnold
ASCOT PRIMARY SCHOOL,143.802919999687,-37.3990099990474,3364,Ascot
AVOCA PRIMARY SCHOOL,143.475660000482,-37.0844899989605,3467,Avoca
ECKLIN SOUTH PRIMARY SCHOOL,142.90903000004,-38.3917899991223,3265,Ecklin South
VERDALE PRIMARY SCHOOL,145.207090000447,-37.8284599992351,3132,Mitcham
VICTORIA PARK POST PRIMARY SCHOOL,144.996529999748,-37.7973499992836,3067,Abbotsford
VICTORIA PARK PRIMARY SCHOOL,144.996529999748,-37.7973499992836,3067,Abbotsford
TYABB PRIMARY SCHOOL,145.166640000142,-38.2606899987456,3913,Tyabb
NYAH WEST PRIMARY SCHOOL,143.331529999518,-35.1853999989238,3595,Nyah West
NORTH HAMILTON PRIMARY SCHOOL,141.994309999829,-37.7259599993916,3300,Hamilton
FISKVILLE PRIMARY SCHOOL,144.22597999989,-37.683739999301,3342,Fiskville
ARTHURS CREEK PRIMARY SCHOOL,145.202510000348,-37.5789899987515,3099,Arthurs Creek
ASCOT VALE WEST PRIMARY SCHOOL,144.911129999591,-37.78066999906,3032,Ascot Vale
ATHLONE PRIMARY SCHOOL,145.777369999779,-38.2423499988243,3818,Athlone
ANDERSONS CREEK PRIMARY SCHOOL,145.207690000536,-37.7482099994984,3113,Warrandyte
WARRANDYTE WEST PRIMARY SCHOOL,145.207690000536,-37.7482099994984,3113,Warrandyte
GLENFERRIE PRIMARY SCHOOL,145.033979999919,-37.8240299990257,3122,Hawthorn
GLENGALA PARK PRIMARY SCHOOL,144.8215300005,-37.8040099986501,3020,Sunshine West
GLENGARRY WEST PRIMARY SCHOOL,146.521810000204,-38.1503999989535,3854,Glengarry West
GLEN HUNTLY PRIMARY SCHOOL,145.046240000387,-37.8937599992551,3163,Carnegie
GLENLYON PRIMARY SCHOOL,144.247369999814,-37.2937399989839,3461,Glenlyon
TYLDEN PRIMARY SCHOOL,144.408789999531,-37.3249499990086,3444,Tylden
FERNTREE GULLY NORTH PRIMARY SCHOOL,145.299430000455,-37.874769998699,3156,Ferntree Gully
CANN RIVER PRIMARY SCHOOL,149.152639999683,-37.5709599987268,3890,Cann River
CANTERBURY PRIMARY SCHOOL,145.083150000493,-37.8309499991975,3126,Canterbury
CALDER RISE PRIMARY SCHOOL,144.809190000504,-37.7176399992368,3038,Keilor Downs
EAGLE POINT PRIMARY SCHOOL,147.680219999884,-37.8924399989406,3878,Eagle Point
DOOKIE PRIMARY SCHOOL,145.682800000375,-36.3310499993361,3646,Dookie
BRIAR HILL PRIMARY SCHOOL,145.11622000055,-37.708289999497,3088,Briar Hill
SPRING VALLEY PRIMARY SCHOOL,145.139870000258,-37.9637399989528,3172,Springvale South
SPRINGBANK PRIMARY SCHOOL,144.052650000417,-37.5320699993213,3352,Springbank
SPRINGHURST PRIMARY SCHOOL,146.468109999928,-36.1846599988873,3682,Springhurst
SPRINGVALE PRIMARY SCHOOL,145.154029999738,-37.9520699992498,3171,Springvale
SPRINGVALE WEST PRIMARY SCHOOL,145.139030000094,-37.9590099988095,3171,Springvale
SPRINGVIEW PRIMARY SCHOOL,145.166529999909,-37.8081799991552,3130,Blackburn North
Staceys Bridge Primary School,146.527369999689,-38.5578999994496,3971,Staceys Bridge
STANHOPE SOUTH PRIMARY SCHOOL,145.014310000431,-36.4781799987396,3623,Stanhope
SOUTH YARRA PRIMARY SCHOOL,144.985619999891,-37.8413399992803,3141,South Yarra
SOUTHERN CROSS PRIMARY SCHOOL,145.26442000018,-37.9882199993017,3802,Endeavour Hills
SOUTHMOOR PRIMARY SCHOOL,145.056970000235,-37.9411599995183,3189,Moorabbin
SOUTHWOOD PRIMARY SCHOOL,145.224029999924,-37.829849999221,3134,Ringwood
SPECIMEN HILL PRIMARY SCHOOL,144.24834000008,-36.7618599986839,3555,Golden Square
NANDALY PRIMARY SCHOOL,142.700699999718,-35.3115099988688,3533,Nandaly
MOUNT LONARCH PRIMARY SCHOOL,143.365150000101,-37.2728999991118,3468,Mount Lonarch
MOUNT PLEASANT PRIMARY SCHOOL,143.857810000292,-37.578339998935,3350,Mount Pleasant
CALDERMEADE PRIMARY SCHOOL,145.551259999823,-38.2406799988164,3984,Caldermeade
BURRAMBOOT EAST PRIMARY SCHOOL,144.864869999453,-36.5584599994891,3559,Colbinabbin
BURWOOD EAST PRIMARY SCHOOL,145.1518100005,-37.8597199988775,3151,Burwood East
DUNDONNELL PRIMARY SCHOOL,142.979870000154,-37.8842899992721,3271,Dundonnell
DUNOLLY PRIMARY SCHOOL,143.733590000326,-36.851539998979,3472,Dunolly
TEMPLESTOWE HEIGHTS PRIMARY SCHOOL,145.119360000407,-37.7671999993929,3107,Templestowe Lower
TEMPLESTOWE PARK PRIMARY SCHOOL,145.143260000056,-37.7562599990238,3106,Templestowe
TEMPLESTOWE VALLEY PRIMARY SCHOOL,145.109389999459,-37.7605999993772,3107,Templestowe Lower
TEMPLETON PRIMARY SCHOOL,145.232289999865,-37.860929998957,3152,Wantirna
GNARWARRE PRIMARY SCHOOL,144.146260000024,-38.1670699989922,3221,Gnarwarre
YINNAR PRIMARY SCHOOL,146.328909999519,-38.321069999348,3869,Yinnar
YINNAR SOUTH PRIMARY SCHOOL,146.364819999522,-38.3688999988973,3869,Yinnar South
YANDOIT PRIMARY SCHOOL,144.088449999889,-37.2139899994227,3461,Yandoit
YANNATHAN PRIMARY SCHOOL,145.612370000508,-38.2117899992196,3981,Catani
YANNATHAN SOUTH PRIMARY SCHOOL,145.652639999724,-38.2509599993887,3984,Lang Lang East
YARRA PARK PRIMARY SCHOOL,144.990140000106,-37.8178999991434,3121,Richmond
CROYDON PRIMARY SCHOOL,145.272230000335,-37.7663899991224,3136,Croydon North
YARRA ROAD PRIMARY SCHOOL,145.272230000335,-37.7663899991224,3136,Croydon North
WARRNAMBOOL WEST PRIMARY SCHOOL,142.466800000056,-38.3663199987796,3280,Warrnambool
WATCHEM PRIMARY SCHOOL,142.860980000241,-36.147629999357,3482,Watchem
WAUBRA PRIMARY SCHOOL,143.634460000252,-37.3538199994564,3352,Waubra
WEERANGOURT PRIMARY SCHOOL,141.86875999987,-37.9634599987902,3301,Byaduk
COWWARR PRIMARY SCHOOL,146.698970000332,-38.0136799989364,3857,Cowwarr
COWES PRIMARY SCHOOL,145.24131999948,-38.4562599989819,3922,Cowes
COOLAROO PRIMARY SCHOOL,144.931260000072,-37.6556799989857,3048,Coolaroo
COOLAROO SOUTH PRIMARY SCHOOL,144.930910000027,-37.6620499988963,3048,Coolaroo
COOMBOONA PRIMARY SCHOOL,145.307370000538,-36.284289998655,3629,Coomboona
CORAL PARK PRIMARY SCHOOL,145.27436000001,-38.0438299991586,3976,Hampton Park
BEAUMARIS NORTH PRIMARY SCHOOL,145.036619999761,-37.9742299993503,3193,Beaumaris
BEAUMARIS PRIMARY SCHOOL,145.037589999589,-37.9852599988531,3193,Beaumaris
CLYDE NORTH PRIMARY SCHOOL,145.329030000166,-38.1106799986352,3978,Clyde North
CLYDE PRIMARY SCHOOL,145.326389999682,-38.132309998968,3978,Clyde
BAYVIEW PRIMARY SCHOOL,145.11347999947,-37.8856799990719,3149,Mount Waverley
BEACONSFIELD PRIMARY SCHOOL,145.371640000086,-38.0486199989922,3807,Beaconsfield
BEACONSFIELD UPPER PRIMARY SCHOOL,145.414760000095,-37.9953899991332,3808,Beaconsfield Upper
BASS VALLEY PRIMARY SCHOOL,145.436530000508,-38.4148499994855,3984,Corinella
BARMAH PRIMARY SCHOOL,144.961810000017,-36.01567999887,3639,Barmah
BARNAWARTHA PRIMARY SCHOOL,146.675900000301,-36.1012999990307,3688,Barnawartha
CASHMORE PRIMARY SCHOOL,141.478199999486,-38.3109599986851,3305,Cashmore
CAVENDISH PRIMARY SCHOOL,142.039900000517,-37.5308599991735,3314,Cavendish
CAPE CLEAR PRIMARY SCHOOL,143.608209999869,-37.7919399992067,3351,Cape Clear
FAWKNER NORTH PRIMARY SCHOOL,144.971809999495,-37.7048499994927,3060,Fawkner
ESSEX HEIGHTS PRIMARY SCHOOL,145.115639999534,-37.8629799991935,3149,Mount Waverley
MERRIVALE PRIMARY SCHOOL,142.456150000049,-38.3779999986865,3280,Warrnambool
GNOTUK PRIMARY SCHOOL,143.109589999686,-38.2101299986511,3260,Gnotuk
SEBASTOPOL PRIMARY SCHOOL,143.844730000441,-37.5964199987929,3356,Sebastopol
YALLOCK PRIMARY SCHOOL,145.578200000312,-38.1959599988831,3981,Bayles
YALLOURN NORTH PRIMARY SCHOOL,146.362229999771,-38.1631999988714,3825,Yallourn North
YAN YEAN PRIMARY SCHOOL,145.107920000389,-37.5712399993318,3755,Yan Yean
VALKSTONE PRIMARY SCHOOL,145.057170000189,-37.9145899989085,3165,Bentleigh East
SPRING GULLY PRIMARY SCHOOL,144.284459999543,-36.7931699987539,3550,Spring Gully
KILMORE PRIMARY SCHOOL,144.947529999655,-37.295759999017,3764,Kilmore
KILSYTH EAST PRIMARY SCHOOL,145.327919999758,-37.8059599989103,3137,Kilsyth
KILSYTH PRIMARY SCHOOL,145.314949999727,-37.8020899991674,3137,Kilsyth
FAIRFIELD NORTH PRIMARY SCHOOL,145.021260000097,-37.7642899993996,3071,Thornbury
FAIRHILLS PRIMARY SCHOOL,145.264799999528,-37.8695899994902,3156,Ferntree Gully
EUMEMMERING CREEK,145.264799999528,-37.8695899994902,3156,Ferntree Gully
FALLS CREEK PRIMARY SCHOOL,147.27976999986,-36.8642999994579,3699,Falls Creek
SHEEP HILLS PRIMARY SCHOOL,142.530150000522,-36.3459599993156,3392,Sheep Hills
WOORANNA PARK PRIMARY SCHOOL,145.216359999979,-37.9602299988453,3175,Dandenong North
WOOREEN PRIMARY SCHOOL,146.014029999922,-38.4003999990321,3953,Wooreen
YEA PRIMARY SCHOOL,145.428300000159,-37.2127099991392,3717,Yea
YELLINGBO PRIMARY SCHOOL,145.509590000177,-37.8103999995261,3139,Yellingbo
KING VALLEY PRIMARY SCHOOL,146.419030000084,-36.6995699988018,3678,King Valley
KINGLAKE PRIMARY SCHOOL,145.35664000045,-37.5215499987704,3763,Kinglake
KINGLAKE WEST PRIMARY SCHOOL,145.259600000455,-37.4812899992608,3757,Kinglake West
FAWKNER EAST PRIMARY SCHOOL,144.973759999712,-37.7156799993183,3060,Fawkner
FAWKNER PRIMARY SCHOOL,144.97475999973,-37.7152199988624,3060,Fawkner
ESSENDON PRIMARY SCHOOL,144.921050000497,-37.7530799992628,3040,Essendon
WESTMEADOWS PRIMARY SCHOOL,144.895699999561,-37.6756399988575,3049,Westmeadows
GRANYA PRIMARY SCHOOL,147.321809999491,-36.1070699991275,3701,Granya
GRAVEL HILL PRIMARY SCHOOL,144.279029999891,-36.7609599993516,3550,Bendigo
DOVETON NORTH PRIMARY SCHOOL,145.237370000131,-37.9840099992917,3177,Doveton
UPPER FERNTREE GULLY PRIMARY SCHOOL,145.314330000454,-37.8955899993677,3156,Upper Ferntree Gully
COOINDA PRIMARY SCHOOL,145.156670000039,-37.8983199994328,3150,Glen Waverley
DIXONS CREEK PRIMARY SCHOOL,145.413519999808,-37.5923299987744,3775,Dixons Creek
STRATFORD PRIMARY SCHOOL,147.085389999538,-37.9672399989532,3862,Stratford
STRATH CREEK PRIMARY SCHOOL,145.223479999761,-37.2359599988532,3658,Strath Creek
STRATHEWEN PRIMARY SCHOOL,145.270100000545,-37.5475699993304,3099,Strathewen
STRATHFIELDSAYE PRIMARY SCHOOL,144.352909999814,-36.8043399992809,3551,Strathfieldsaye
STANLEY PRIMARY SCHOOL,146.754310000232,-36.404009999112,3747,Stanley
BELGRAVE SOUTH PRIMARY SCHOOL,145.357929999951,-37.9311799990688,3160,Belgrave South
BARRABOOL PRIMARY SCHOOL,144.136260000377,-38.1440099993863,3221,Gnarwarre
BARWON HEADS PRIMARY SCHOOL,144.487040000195,-38.2811799989262,3227,Barwon Heads
BANDIANA PRIMARY SCHOOL,146.927139999732,-36.1529499988825,3691,Bandiana
BANGHOLME PRIMARY SCHOOL,145.18597999953,-38.0365099986618,3175,Bangholme
BARANDUDA PRIMARY SCHOOL,146.94811999956,-36.1805199987584,3691,Baranduda
BYADUK PRIMARY SCHOOL,141.955149999913,-37.9484599992034,3301,Byaduk
DEER PARK PRIMARY SCHOOL,144.788000000495,-37.7588399992831,3023,Cairnlea
ROSANNA GOLF LINKS PRIMARY SCHOOL,145.074440000102,-37.7351599991522,3084,Rosanna
ROSEBANK PRIMARY SCHOOL,145.031809999543,-37.7087399992252,3073,Reservoir
ROSEBUD PRIMARY SCHOOL,144.90900000003,-38.3557499987774,3939,Rosebud
ROSEHILL PRIMARY SCHOOL,147.531090000134,-37.828629999459,3875,Hillside
ROSEWALL PRIMARY SCHOOL,144.373759999976,-38.0642899994095,3214,Corio
ROSLYN PRIMARY SCHOOL,144.329819999572,-38.1739899993261,3216,Belmont
UNDERA PRIMARY SCHOOL,145.212639999928,-36.546509999108,3610,Dhurringile
ROLLINS PRIMARY SCHOOL,144.326470000364,-38.1011999993115,3215,Bell Post Hill
RINGWOOD EAST PRIMARY SCHOOL,145.25070000053,-37.8048499990679,3135,Ringwood East
RINGWOOD HEIGHTS PRIMARY SCHOOL,145.217220000558,-37.8042099988475,3134,Ringwood North
RINGWOOD PRIMARY SCHOOL,145.229869999457,-37.8190099989619,3134,Ringwood
RIPPLEBROOK PRIMARY SCHOOL,145.758490000127,-38.2034799986658,3818,Ripplebrook
RIPPONLEA PRIMARY SCHOOL,145.00506,-37.8745899988719,3183,Saint Kilda East
WALPEUP PRIMARY SCHOOL,142.024309999897,-35.1395699987949,3507,Walpeup
WANDO VALE PRIMARY SCHOOL,141.444589999435,-37.5123499990698,3312,Wando Vale
KINGSWOOD PRIMARY SCHOOL,145.123799999985,-37.9829799994526,3172,Dingley Village
HIGHVALE PRIMARY SCHOOL,145.174070000246,-37.8670099994761,3150,Glen Waverley
HODDLES CREEK PRIMARY SCHOOL,145.597760000452,-37.8317299986727,3139,Hoddles Creek
MEADOW FAIR NORTH PRIMARY SCHOOL,144.921950000454,-37.6716499990404,3047,Broadmeadows
PERSERVERANCE PRIMARY SCHOOL,145.30681000025,-38.38428999883,3921,French Island
WARRACKNABEAL PRIMARY SCHOOL,142.391270000348,-36.2578599992159,3393,Warracknabeal
WARRAK PRIMARY SCHOOL,143.143760000336,-37.2595699989695,3377,Warrak
WARRENHEIP PRIMARY SCHOOL,143.927430000442,-37.5740799994219,3352,Warrenheip
JELLS PARK PRIMARY SCHOOL,145.192859999617,-37.9028199992062,3150,Wheelers Hill
ELIZABETH STREET PRIMARY SCHOOL,146.246259999884,-38.1892899990161,3825,Moe
ELMORE PRIMARY SCHOOL,144.608919999454,-36.4971799993796,3558,Elmore
ELSTERNWICK PRIMARY SCHOOL,144.997300000111,-37.8913999986837,3186,Brighton
ELTHAM EAST PRIMARY SCHOOL,145.154869999945,-37.7114199993183,3095,Eltham
ELTHAM NORTH PRIMARY SCHOOL,145.150869999727,-37.7000999990489,3095,Eltham North
ELTHAM PRIMARY SCHOOL,145.147810000355,-37.7249699989669,3095,Eltham
METUNG PRIMARY SCHOOL,147.852469999926,-37.8829399988034,3904,Metung
ECHUCA PRIMARY SCHOOL,144.747470000329,-36.1281899990563,3564,Echuca
ECHUCA SOUTH PRIMARY SCHOOL,144.743760000083,-36.141239998936,3564,Echuca
ECHUCA WEST PRIMARY SCHOOL,144.709589999961,-36.1651299992987,3564,Echuca
MILLEARA PRIMARY SCHOOL,144.855699999767,-37.7551299987024,3034,Avondale Heights
MIMOSA PRIMARY SCHOOL,145.181809999537,-37.8778999993277,3150,Glen Waverley
MIRBOO NORTH PRIMARY SCHOOL,146.151100000199,-38.400479998907,3871,Mirboo North
YACKANDANDAH PRIMARY SCHOOL,146.836459999939,-36.3120799987253,3749,Yackandandah
WOORRAGEE PRIMARY SCHOOL,146.730420000419,-36.2903999987218,3747,Wooragee
EAST GREENWALD SCHOOL,141.401259999493,-37.9403999994291,3304,Greenwald
EAST WARRNAMBOOL PRIMARY SCHOOL,142.499310000524,-38.3892899993624,3280,Warrnambool
EASTVILLE PRIMARY SCHOOL,143.961259999808,-36.8723499990513,3463,Eastville
NARBETHONG PRIMARY SCHOOL,145.657370000404,-37.5570699989825,3778,Narbethong
LABURNUM PRIMARY SCHOOL,145.139210000163,-37.827079998717,3130,Blackburn
KORWEINGUBOORA PRIMARY SCHOOL,144.130150000346,-37.4423499988205,3461,Korweinguboora
MILDURA WEST PRIMARY SCHOOL,142.152399999704,-34.1797099991599,3500,Mildura
MINERS REST PRIMARY SCHOOL,143.79471000024,-37.4778699992451,3352,Miners Rest
ESSENDON NORTH PRIMARY SCHOOL,144.903199999646,-37.7414999987352,3041,Essendon North
APOLLO PARKWAYS PRIMARY SCHOOL,145.109879999482,-37.6873799993264,3088,Greensborough
APPIN PARK PRIMARY SCHOOL,146.300719999674,-36.3415799992667,3677,Wangaratta
ARALUEN PRIMARY SCHOOL,147.088759999708,-38.1073499991737,3850,Sale
SALE PRIMARY SCHOOL,147.088759999708,-38.1073499991737,3850,Sale
PRESTON PRIMARY SCHOOL,145.010319999466,-37.7305399990441,3072,Preston
PRESTON SOUTH PRIMARY SCHOOL,145.007449999687,-37.7478499993821,3072,Preston
PRESTON NORTH EAST PRIMARY SCHOOL,145.029459999722,-37.7330399992024,3072,Preston
PENSHURST PRIMARY SCHOOL,142.291330000076,-37.8791699990364,3289,Penshurst
PERENNA PRIMARY SCHOOL,141.705149999673,-36.0590099992671,3418,Netherby
COBURG EAST PRIMARY SCHOOL,144.978480000532,-37.7465099995018,3058,Coburg
CLARINDA PRIMARY SCHOOL,145.10293000043,-37.9269799994437,3169,Clarinda
CLAYTON NORTH PRIMARY SCHOOL,145.1226699998,-37.9119299993458,3168,Clayton
CLAYTON SOUTH PRIMARY SCHOOL,145.116449999875,-37.940459999054,3169,Clayton South
CLIFTON CREEK PRIMARY SCHOOL,147.659400000394,-37.7020699986567,3875,Clifton Creek
CLOUDEA PRIMARY SCHOOL,145.997639999454,-38.2312399991766,3822,Cloverlea
BARKERS CREEK PRIMARY SCHOOL,144.23291999944,-37.0240099992366,3451,Barkers Creek
ENSAY PRIMARY SCHOOL,147.833479999502,-37.3723499989784,3895,Ensay
EPPALOCK PRIMARY SCHOOL,144.387729999957,-36.8417599989472,3551,Axe Creek
EPPING PRIMARY SCHOOL,145.025560000369,-37.6455399992971,3076,Epping
EPSOM PRIMARY SCHOOL,144.312689999527,-36.7050399988017,3551,Epsom
ESKDALE PRIMARY SCHOOL,147.251249999941,-36.4652499994776,3701,Eskdale
BALLAN PRIMARY SCHOOL,144.23110999968,-37.6016699990507,3342,Ballan
BALLIANG EAST PRIMARY SCHOOL,144.415359999898,-37.794959998845,3340,Balliang East
BALLIANG PRIMARY SCHOOL,144.349310000134,-37.8334599989499,3340,Balliang
WILLOW GROVE PRIMARY SCHOOL,146.177350000509,-38.071379998705,3825,Willow Grove
WHITE HILLS PRIMARY SCHOOL,144.304159999917,-36.7279199989807,3550,White Hills
WANDILIGONG PRIMARY SCHOOL,146.982929999763,-36.76884999906,3744,Wandiligong
WALKERVILLE PRIMARY SCHOOL,145.993759999687,-38.8606799989423,3956,Walkerville South
PUCKAPUNYAL PRIMARY SCHOOL,145.033519999734,-37.0026199993639,3662,Puckapunyal
CASTLEMAINE NORTH PRIMARY SCHOOL,144.2189999998,-37.0578199994785,3450,Castlemaine
CASTLEMAINE PRIMARY SCHOOL,144.22234000027,-37.0665799994319,3450,Castlemaine
ASCOT VALE PRIMARY SCHOOL,144.926129999892,-37.7743099990924,3032,Ascot Vale
ASHBURTON PRIMARY SCHOOL,145.083629999651,-37.8621899988072,3147,Ashburton
ASPENDALE PRIMARY SCHOOL,145.099760000047,-38.0202599989935,3195,Aspendale
AUBURN PRIMARY SCHOOL,145.050489999964,-37.8202599990122,3123,Hawthorn East
AUBURN SOUTH PRIMARY SCHOOL,145.045899999934,-37.8392499991109,3123,Hawthorn East
ANGLESEA PRIMARY SCHOOL,144.191839999583,-38.3967699988296,3230,Anglesea
HEIDELBERG PRIMARY SCHOOL,145.067799999647,-37.7546899986837,3084,Heidelberg
LITTLE RIVER PRIMARY SCHOOL,144.500380000292,-37.9649999992263,3211,Little River
LILYDALE PRIMARY SCHOOL,145.354070000116,-37.7536599993425,3140,Lilydale
EASTMONT PRIMARY SCHOOL,145.211259999959,-37.8359599987187,3133,Vermont
EASTMOOR PRIMARY SCHOOL,145.062369999472,-37.9273499989612,3165,Bentleigh East
EASTWOOD PRIMARY SCHOOL,145.252949999986,-37.8172299987628,3135,Ringwood East
DUGAYS BRIDGE PRIMARY SCHOOL,146.31264000035,-36.080679999481,3685,Brimin
DUMBALK PRIMARY SCHOOL,146.095139999601,-38.5295699990535,3956,Dumbalk
BRUNSWICK EAST PRIMARY SCHOOL,144.980009999534,-37.7652599991922,3057,Brunswick East
BRUNSWICK PRIMARY SCHOOL,144.963200000474,-37.76956999871,3056,Brunswick
BRUNSWICK WEST PRIMARY SCHOOL,144.946260000223,-37.7656799992394,3055,Brunswick West
BUCHAN PRIMARY SCHOOL,148.180820000098,-37.4977199995198,3885,Buchan
BUCHAN SOUTH PRIMARY SCHOOL,148.122090000528,-37.5470699988864,3885,Buchan South
TEAL POINT PRIMARY SCHOOL,144.084029999841,-35.6840099995332,3579,Teal Point
TECOMA PRIMARY SCHOOL,145.34492999945,-37.906949999503,3160,Tecoma
TEESDALE PRIMARY SCHOOL,144.054600000559,-38.0292199993816,3328,Teesdale
SILVAN PRIMARY SCHOOL,145.421329999795,-37.824579999438,3795,Silvan
ANTONIO PARK PRIMARY SCHOOL,145.206010000386,-37.816169998842,3132,Mitcham
PIANGIL PRIMARY SCHOOL,143.312649999922,-35.055959999,3597,Piangil
PANMURE PRIMARY SCHOOL,142.732540000287,-38.3293399994352,3265,Panmure
CRESWICK NORTH PRIMARY SCHOOL,143.890830000002,-37.4088199990819,3363,Creswick
CRESWICK PRIMARY SCHOOL,143.891559999666,-37.424099999532,3363,Creswick
BUNYIP PRIMARY SCHOOL,145.712509999693,-38.0988299992874,3815,Bunyip
BURBANK PRIMARY SCHOOL,145.029869999631,-37.6995699993744,3073,Reservoir
MIDDLE INDIGO PRIMARY SCHOOL,146.724850000062,-36.155999998738,3688,Indigo Valley
MIDDLE KINGLAKE PRIMARY SCHOOL,145.315690000153,-37.505189999011,3757,Kinglake Central
MIDDLE PARK PRIMARY SCHOOL,144.957520000153,-37.8477899992363,3206,Middle Park
MIDDLE TARWIN PRIMARY SCHOOL,145.926529999764,-38.666509999274,3956,Middle Tarwin
MIDDLEFIELD PRIMARY SCHOOL,145.152090000323,-37.8015099987945,3130,Blackburn North
YARRAGON PRIMARY SCHOOL,146.060960000237,-38.2093599993127,3823,Yarragon
YARRAGON SOUTH PRIMARY SCHOOL,146.089309999647,-38.2390099987134,3823,Yarragon South
YARRALEEN PRIMARY SCHOOL,145.089029999903,-37.7734599994279,3105,Bulleen
LAKE TYERS PRIMARY SCHOOL,148.049589999529,-37.8520699990553,3909,Lake Tyers Beach
KOONDROOK PRIMARY SCHOOL,144.129869999473,-35.634859999191,3580,Koondrook
PATCHEWOLLOCK PRIMARY SCHOOL,142.189589999831,-35.3437399992891,3491,Patchewollock
FOOTSCRAY WEST PRIMARY SCHOOL,144.875270000418,-37.7948499986753,3012,West Footscray
FLORA HILL PRIMARY SCHOOL,144.304310000341,-36.775129998649,3550,Kennington
GRASSMERE PRIMARY SCHOOL,142.524309999641,-38.2820699990838,3281,Grassmere
GLENORMISTON SOUTH PRIMARY SCHOOL,142.927650000357,-38.1870699993786,3265,Noorat
TRAGOWEL PLAINS PRIMARY SCHOOL,143.985149999995,-35.8559599989257,3579,Tragowel
TRAGOWEL PRIMARY SCHOOL,143.985149999995,-35.8559599989257,3579,Tragowel
TRARALGON EAST PRIMARY SCHOOL,146.550700000124,-38.2084599988625,3844,Traralgon
TRARALGON SOUTH PRIMARY SCHOOL,146.540150000168,-38.2972399987385,3844,Traralgon South
KOONWARRA PRIMARY SCHOOL,145.943760000058,-38.5481799995087,3954,Koonwarra
KOONUNG HEIGHTS PRIMARY SCHOOL,145.109869999771,-37.8017899987585,3129,Mont Albert North
KORUMBURRA PRIMARY SCHOOL,145.825639999862,-38.4351199988767,3950,Korumburra
GRAHAMVALE PRIMARY SCHOOL,145.430719999524,-36.3571899990182,3631,Grahamvale
GRANITE ROCK PRIMARY SCHOOL,147.637089999992,-37.7640099993035,3875,Wy Yung
GUNDOWRING PRIMARY SCHOOL,147.014870000275,-36.4692899995187,3691,Dederang
GUTHRIDGE PRIMARY SCHOOL,147.083829999531,-38.0956899994132,3850,Sale
LIVINGSTONE PRIMARY SCHOOL,145.180680000389,-37.8528799989792,3133,Vermont South
LLOYD STREET PRIMARY SCHOOL,145.056110000201,-37.8723999988945,3145,Malvern East
LOCH SPORT PRIMARY SCHOOL,147.56718000038,-38.0581799990246,3851,Loch Sport
LOCKINGTON CONSOLIDATED SCHOOL,144.536639999973,-36.2657599990862,3563,Lockington
BELLERINE PRIMARY SCHOOL,144.615699999867,-38.1326299988954,3223,Bellarine
BELMONT PRIMARY SCHOOL,144.342099999679,-38.1706599993763,3216,Belmont
BELVEDERE PARK PRIMARY SCHOOL,145.146929999696,-38.1098199994592,3198,Seaford
DANDENONG NORTH PRIMARY SCHOOL,145.214470000309,-37.9766299992818,3175,Dandenong
DANDENONG WEST PRIMARY SCHOOL,145.200419999553,-37.9807299993216,3175,Dandenong
GREENHILLS PRIMARY SCHOOL,145.118650000526,-37.6922599995163,3088,Greensborough
GREENSBOROUGH PRIMARY SCHOOL,145.100499999947,-37.7035599991416,3088,Greensborough
LAL LAL PRIMARY SCHOOL,144.010710000271,-37.6767099994783,3352,Lal Lal
LALOR EAST PRIMARY SCHOOL,145.035539999563,-37.6765699990857,3074,Thomastown
LALOR NORTH PRIMARY SCHOOL,145.028539999789,-37.6641399988854,3075,Lalor
APSLEY PRIMARY SCHOOL,141.082489999986,-36.9736899990239,3319,Apsley
WAVERLEY MEADOWS PRIMARY SCHOOL,145.184280000298,-37.9147399989182,3150,Wheelers Hill
WAVERLEY NORTH PRIMARY SCHOOL,145.129869999566,-37.8651299990499,3149,Mount Waverley
ARCADIA PRIMARY SCHOOL,145.336259999658,-36.5551299987387,3631,Arcadia
ANAKIE PRIMARY SCHOOL,144.255109999837,-37.912649998902,3213,Anakie
WOODEND PRIMARY SCHOOL,144.532949999944,-37.3534099992547,3442,Woodend
WOODGLEN PRIMARY SCHOOL,147.381529999904,-37.7756799987594,3875,Woodglen
LANG LANG PRIMARY SCHOOL,145.569399999914,-38.2631599993507,3984,Lang Lang
LANG VIEW PRIMARY SCHOOL,145.721530000482,-38.2373499994307,3981,Heath Hill
POOWONG EAST PRIMARY SCHOOL,145.832090000142,-38.2978999991761,3988,Poowong East
POOWONG NORTH PRIMARY SCHOOL,145.799030000374,-38.2998499987778,3988,Poowong North
POREPUNKAH PRIMARY SCHOOL,146.91103000018,-36.6994699993063,3740,Porepunkah
PORT ALBERT PRIMARY SCHOOL,146.691260000508,-38.6690099992565,3971,Port Albert
PINE LODGE PRIMARY SCHOOL,145.537639999658,-36.3640099993513,3631,Pine Lodge
HURSTBRIDGE PRIMARY SCHOOL,145.198130000131,-37.6358799992881,3099,Hurstbridge
DOREEN PRIMARY SCHOOL,145.14553999975,-37.6059999988766,3754,Doreen
DORSET PRIMARY SCHOOL,145.285750000151,-37.8100699992837,3136,Croydon
COALVILLE PRIMARY SCHOOL,146.261810000383,-38.2392899994405,3825,Coalville
COATESVILLE PRIMARY SCHOOL,145.073640000385,-37.9200699994697,3165,Bentleigh East
COBAINS PRIMARY SCHOOL,147.132279999881,-38.0747799987118,3851,Cobains
GREENVALE PRIMARY SCHOOL,144.886190000063,-37.6398099986752,3059,Greenvale
LOCKWOOD NORTH PRIMARY SCHOOL,144.1593099997,-36.8020699990628,3551,Lockwood
LOCKWOOD PRIMARY SCHOOL,144.16156000028,-36.8025699988345,3551,Lockwood
WATTLE GLEN PRIMARY SCHOOL,145.182040000168,-37.6688299992788,3096,Wattle Glen
WATTLE PARK PRIMARY SCHOOL,145.09737999945,-37.8426199992247,3125,Burwood
BENAMBRA PRIMARY SCHOOL,147.703200000294,-36.9556799993503,3900,Benambra
STAWELL PRIMARY SCHOOL,142.77377999973,-37.0561099990212,3380,Stawell
SKIPTON PRIMARY SCHOOL,143.368169999746,-37.6868399988868,3361,Skipton
CROYDON SOUTH PRIMARY SCHOOL,145.278760000125,-37.8162399988141,3136,Croydon South
CROYDON WEST PRIMARY SCHOOL,145.264249999477,-37.7937699987931,3136,Croydon
ABBOTSFORD PRIMARY SCHOOL,144.998820000124,-37.808969999181,3067,Abbotsford
ABERFELDIE PRIMARY SCHOOL,144.894780000542,-37.7564699988411,3040,Aberfeldie
KYNETON PRIMARY SCHOOL,144.462700000167,-37.2488799993297,3444,Kyneton
MELROSE PRIMARY SCHOOL,146.861420000243,-36.130489998839,3690,West Wodonga
MELTON PRIMARY SCHOOL,144.587019999493,-37.680439999256,3337,Melton
FRANKSTON FOREST PRIMARY SCHOOL,145.146259999497,-38.1231799994134,3200,Frankston North
PINES FOREST PRIMARY SCHOOL,145.146259999497,-38.1231799994134,3200,Frankston North
PINEWOOD PRIMARY SCHOOL,145.142340000102,-37.8900999994456,3149,Mount Waverley
ZEERUST PRIMARY SCHOOL,145.405069999758,-36.2771799988912,3634,Zeerust
ACHERON PRIMARY SCHOOL,145.705419999782,-37.2556799988085,3714,Acheron
WYN WYN PRIMARY SCHOOL,141.891810000339,-36.6542899987995,3409,Duchembegarra
YANAC PRIMARY SCHOOL,141.434590000364,-36.1351299994068,3418,Yanac
Williamstown Primary School,144.899509999646,-37.8639199989108,3016,Williamstown
NULLAWARRE NORTH PRIMARY SCHOOL,142.78459000025,-38.4506799988206,3268,Nullawarre North
GARVOC PRIMARY SCHOOL,142.815150000132,-38.2995699994121,3265,Garvoc
LINDENOW PRIMARY SCHOOL,147.453199999643,-37.7998499987217,3865,Lindenow
LINDENOW SOUTH PRIMARY SCHOOL,147.433910000142,-37.8269299986522,3875,Lindenow South
GRETA PRIMARY SCHOOL,146.277089999734,-36.5520699990636,3675,Greta
GREYTHORN PRIMARY SCHOOL,145.095969999813,-37.8014099993518,3104,Balwyn North
MUDGEEGONGA PRIMARY SCHOOL,146.836810000475,-36.4906799994999,3737,Mudgegonga
MOUNT DANDENONG PRIMARY SCHOOL,145.362169999551,-37.8307299989,3767,Mount Dandenong
MOUNT DUNEED PRIMARY SCHOOL,144.319680000339,-38.2412299989999,3217,Mount Duneed
MOUNT DUNEED REGIONAL PRIMARY SCHOOL,144.319680000339,-38.2412299989999,3217,Mount Duneed
MOUNT EGERTON PRIMARY SCHOOL,144.102179999483,-37.6285099989883,3352,Mount Egerton
MOUNT ELIZA NORTH PRIMARY SCHOOL,145.100539999731,-38.1883899993585,3930,Mount Eliza
MOUNT ELIZA PRIMARY SCHOOL,145.09219000029,-38.1953699995046,3930,Mount Eliza
MOUNT EVELYN PRIMARY SCHOOL,145.388829999672,-37.7909199994165,3796,Mount Evelyn
MERBEIN PRIMARY SCHOOL,142.051530000294,-34.170959998955,3505,Merbein
MERBEIN SOUTH PRIMARY SCHOOL,142.026810000372,-34.2148499987061,3505,Merbein South
MERBEIN WEST PRIMARY SCHOOL,142.016809999571,-34.1670699992214,3505,Merbein West
MERINGUR PRIMARY SCHOOL,141.330699999793,-34.3887399990772,3496,Meringur
MERINO PRIMARY SCHOOL,141.548200000213,-37.7059599989286,3310,Merino
WATSONIA HEIGHTS PRIMARY SCHOOL,145.100729999967,-37.7152899993814,3088,Greensborough
WATSONIA NORTH PRIMARY SCHOOL,145.080509999698,-37.7003799988665,3087,Watsonia North
WATSONIA PRIMARY SCHOOL,145.086920000456,-37.7070099993659,3087,Watsonia
WARRAGUL NORTH PRIMARY SCHOOL,145.939859999615,-38.1480899994362,3820,Warragul
WANDIN EAST PRIMARY SCHOOL,145.452640000492,-37.8106799987254,3139,Wandin East
WANDIN NORTH PRIMARY SCHOOL,145.409720000521,-37.7697699987403,3139,Wandin North
WANDIN YALLOCK PRIMARY SCHOOL,145.435960000172,-37.7902399994488,3139,Wandin North
Wandocka School,146.87709000009,-38.0251299991266,3858,Denison
WANDONG PRIMARY SCHOOL,145.027869999476,-37.3602899991487,3758,Wandong
CALIFORNIA GULLY PRIMARY SCHOOL,144.249860000441,-36.733189999421,3556,California Gully
CALLIGNEE PRIMARY SCHOOL,146.584870000123,-38.3381799993659,3844,Callignee
CAMBERWELL PRIMARY SCHOOL,145.058050000351,-37.8326699992662,3124,Camberwell
CAMBERWELL SOUTH PRIMARY SCHOOL,145.062619999485,-37.8478899991887,3124,Camberwell
CAMELOT RISE PRIMARY SCHOOL,145.187779999748,-37.8652599993278,3150,Glen Waverley
MOORABBIN PRIMARY SCHOOL,145.039590000421,-37.9420099990164,3189,Moorabbin
MOORABBIN WEST PRIMARY SCHOOL,145.023059999477,-37.9380599991716,3188,Hampton
MOORILIM PRIMARY SCHOOL,145.299030000201,-36.6131799990137,3610,Moorilim
MARNOO EAST PRIMARY SCHOOL,142.958200000009,-36.669009999126,3477,Marnoo East
MARNOO PRIMARY SCHOOL,142.870359999555,-36.6768399990116,3387,Marnoo
MAROONA PRIMARY SCHOOL,142.858480000024,-37.4327799993306,3377,Maroona
COSIMMIE PRIMARY SCHOOL,144.812920000101,-36.2565099989167,3622,Strathallan
COSTERFIELD PRIMARY SCHOOL,144.795419999955,-36.8762399992709,3523,Costerfield
BENDOC PRIMARY SCHOOL,148.882919999958,-37.1467899995117,3888,Bendoc
CRINIGAN ROAD PRIMARY SCHOOL,146.417370000197,-38.2178999988146,3840,Morwell
MORWELL PRIMARY SCHOOL CRINIGAN STREET,146.417370000197,-38.2178999988146,3840,Morwell
THE PATCH PRIMARY SCHOOL,145.392850000036,-37.8923999990083,3791,Kallista
MOOROOLBARK EAST PRIMARY SCHOOL,145.335709999496,-37.7867899992828,3138,Mooroolbark
MOOROOPNA NORTH PRIMARY SCHOOL,145.298490000297,-36.329129999544,3629,Mooroopna North
NORTH MOOROOPNA PRIMARY SCHOOL,145.298490000297,-36.329129999544,3629,Mooroopna North
MOOROOPNA PARK PRIMARY SCHOOL,145.345949999938,-36.3800899993577,3629,Mooroopna
MOOROOPNA PRIMARY SCHOOL,145.360299999811,-36.391349999398,3629,Mooroopna
MONBULK PRIMARY SCHOOL,145.410269999661,-37.8768399989191,3793,Monbulk
WONWONDAH NORTH PRIMARY SCHOOL,142.131259999708,-36.8767899991244,3401,Wonwondah
WOODBURN CREEK PRIMARY SCHOOL,143.987650000451,-37.8403999993233,3333,Meredith
WOODFORD PRIMARY SCHOOL,142.484510000426,-38.3167899988578,3281,Woodford
NORADJUHA PRIMARY SCHOOL,141.963479999631,-36.8351299992504,3409,Noradjuha
NORMANVILLE PRIMARY SCHOOL,143.759869999656,-35.8128999986706,3579,Normanville
BENTLEIGH EAST PRIMARY SCHOOL,145.052370000195,-37.9190099993104,3165,Bentleigh East
BENTLEIGH WEST PRIMARY SCHOOL,145.026770000374,-37.920569998695,3204,Bentleigh
THE BASIN PRIMARY SCHOOL,145.308429999846,-37.8494999994187,3154,The Basin
HUGHESDALE PRIMARY SCHOOL,145.077640000517,-37.9058299988684,3166,Hughesdale
HUNTINGDALE PRIMARY SCHOOL,145.102360000285,-37.9130599994665,3167,Oakleigh South
HUNTLY PRIMARY SCHOOL,144.33439999959,-36.6625299990566,3551,Huntly
MCMILLAN PRIMARY SCHOOL,146.416139999907,-38.3101199989119,3842,Churchill
TEMPY PRIMARY SCHOOL,142.427090000454,-35.3439399987164,3489,Tempy
WAHGUNYAH PRIMARY SCHOOL,146.397929999889,-36.013639998653,3687,Wahgunyah
WALDAU PRIMARY SCHOOL,145.147919999502,-37.7817899986508,3109,Doncaster East
WALES STREET PRIMARY SCHOOL,145.008840000039,-37.7614999990368,3071,Thornbury
UPPER PLENTY PRIMARY SCHOOL,145.057880000312,-37.4236999988984,3756,Upper Plenty
SANDY CREEK UPPER PRIMARY SCHOOL,147.112920000391,-36.3548499987756,3695,Sandy Creek
UPWEY PRIMARY SCHOOL,145.332810000354,-37.9028499992222,3158,Upwey
WANGARATTA PRIMARY SCHOOL,146.329430000477,-36.3552599987494,3677,Wangaratta
WANGARATTA SOUTH PRIMARY SCHOOL,146.317369999512,-36.3717899994502,3677,Wangaratta
WANGARATTA WEST PRIMARY SCHOOL,146.304430000364,-36.3541199993054,3677,Wangaratta
WUNGHNU PRIMARY SCHOOL,145.430610000308,-36.1506499993292,3635,Wunghnu
WURRUK PRIMARY SCHOOL,147.039949999651,-38.1067899989594,3850,Wurruk
WONTHAGGI PRIMARY SCHOOL,145.588639999898,-38.6079299990023,3995,Wonthaggi
WONWRON PRIMARY SCHOOL,146.719309999548,-38.4728999994606,3971,Won Wron
TESBURY PRIMARY SCHOOL,143.177369999942,-38.2898499986991,3260,Tesbury
SWAN HILL NORTH PRIMARY SCHOOL,143.546069999597,-35.3317699990179,3585,Swan Hill
SWAN HILL PRIMARY SCHOOL,143.543260000526,-35.346899999244,3585,Swan Hill
WANTIRNA PRIMARY SCHOOL,145.216509999967,-37.8562399987098,3152,Wantirna
WANTIRNA SOUTH PRIMARY SCHOOL,145.237340000079,-37.8725199990528,3152,Wantirna South
WARBURTON PRIMARY SCHOOL,145.701710000308,-37.7557899987221,3799,Warburton
BIMBADEEN HEIGHTS PRIMARY SCHOOL,145.321150000316,-37.7737499995328,3138,Mooroolbark
BIRMINGHAM PRIMARY SCHOOL,145.368520000281,-37.779569998907,3796,Mount Evelyn
CABBAGE TREE PRIMARY SCHOOL,148.717369999783,-37.6998499993462,3889,Cabbage Tree Creek
BURRAMINE SOUTH PRIMARY SCHOOL,145.850980000302,-36.0553999987946,3730,Burramine South
BURWOOD HEIGHTS PRIMARY SCHOOL,145.163279999912,-37.8467399994684,3131,Forest Hill
BURWOOD PRIMARY SCHOOL,145.106530000518,-37.8503999992694,3125,Burwood
YENDON PRIMARY SCHOOL,143.970700000414,-37.6381799995412,3352,Yendon
TANDAROOK SOUTH PRIMARY SCHOOL,143.123199999803,-38.3362399989914,3266,Cobden
TARNAGULLA PRIMARY SCHOOL,143.828409999875,-36.7712499994946,3551,Tarnagulla
GUNBOWER ISLAND PRIMARY SCHOOL,144.385699999758,-35.9162399993711,3566,Gunbower
LAANECOORIE PRIMARY SCHOOL,143.919589999805,-36.828179998932,3463,Laanecoorie
LAANG PRIMARY SCHOOL,142.804310000103,-38.3670699992796,3265,Laang
LAEN PRIMARY SCHOOL,142.797090000073,-36.4531799991797,3392,Minyip
LAH-ARUM PRIMARY SCHOOL,142.322919999544,-36.9462399990313,3401,Laharum
BRIDGEWATER PRIMARY SCHOOL,143.94591999981,-36.6030899988161,3516,Bridgewater on Loddon
CERES PRIMARY SCHOOL,144.266740000388,-38.1735399988376,3221,Ceres
SHEPPARTON EAST PRIMARY SCHOOL,145.479250000463,-36.3999199988194,3631,Shepparton East
THOMASTOWN PRIMARY SCHOOL,145.011499999827,-37.6822599995162,3074,Thomastown
THOMASTOWN EAST PRIMARY SCHOOL,145.024899999783,-37.6803099993402,3074,Thomastown
THOMASTOWN MEADOWS PRIMARY SCHOOL,144.993100000183,-37.6825799990143,3074,Thomastown
LEITCHVILLE PRIMARY SCHOOL,144.302099999671,-35.9095299986656,3567,Leitchville
WEEDEN HEIGHTS PRIMARY SCHOOL,145.177640000104,-37.8591499986915,3133,Vermont South
WELLINGTON PRIMARY SCHOOL,145.167090000258,-37.9217899987876,3170,Mulgrave
MOONDARRA PRIMARY SCHOOL,146.375140000157,-38.0220699986418,3825,Moondarra
FERNIHURST PRIMARY SCHOOL,143.865150000417,-36.2459599988566,3518,Fernihurst
CORNELIA CREEK PRIMARY SCHOOL,144.824199999948,-36.253079998967,3622,Strathallan
COROP PRIMARY SCHOOL,144.785420000544,-36.4578999990328,3559,Corop
CORRYONG PRIMARY SCHOOL,147.899030000121,-36.1981799988709,3707,Corryong
MOONEE PONDS CENTRAL SCHOOL,144.932990000039,-37.7633299994911,3039,Moonee Ponds
LEICHARDT PRIMARY SCHOOL,144.079869999635,-36.6931799990336,3516,Leichardt
MAFEKING PRIMARY SCHOOL,142.609309999729,-37.400399999183,3379,Mafeking
CORINDHAP PRIMARY SCHOOL,143.741529999768,-37.8778999993918,3352,Corindhap
CHANDLER PRIMARY SCHOOL,145.180140000565,-37.991239999293,3173,Keysborough
YEODENE PRIMARY SCHOOL,143.714030000243,-38.4056799992101,3249,Yeodene
YUILLE PRIMARY SCHOOL,143.819029999659,-37.5292899989296,3355,Wendouree
THOMAS MITCHELL PRIMARY SCHOOL,145.273920000428,-37.9805499991497,3802,Endeavour Hills
GRIMSHAW PRIMARY SCHOOL,145.069589999764,-37.6965099993533,3083,Bundoora
GROVEDALE PRIMARY SCHOOL,144.347759999444,-38.1976299991425,3216,Grovedale
A G ROBERTSON PRIMARY SCHOOL,146.398979999741,-37.9590999993342,3825,Rawson
RAWSON PRIMARY SCHOOL,146.398979999741,-37.9590999993342,3825,Rawson
BELLBRIDGE PRIMARY SCHOOL,144.710789999925,-37.8710699992845,3029,Hoppers Crossing
ASHBY PRIMARY SCHOOL,144.34710000045,-38.1385399989529,3218,Geelong West
GEELONG WEST PRIMARY SCHOOL,144.34710000045,-38.1385399989529,3218,Geelong West
EUREKA PRIMARY SCHOOL,143.872369999639,-37.5653999990552,3350,Ballarat East
BALLARAT EAST PRIMARY SCHOOL,143.872369999639,-37.5653999990552,3350,Ballarat East
NULLAWARRE PRIMARY SCHOOL,142.734310000237,-38.4673499989351,3268,Nullawarre
NULLAWARRE & DISTRICT PRIMARY SCHOOL,142.734310000237,-38.4673499989351,3268,Nullawarre
MARAMBA PRIMARY SCHOOL,145.304129999683,-38.0034199989536,3805,Narre Warren
BOROONDARA PARK PRIMARY SCHOOL,145.087899999833,-37.7894199994759,3104,Balwyn North
BOROONDARA NORTH PRIMARY SCHOOL,145.087899999833,-37.7894199994759,3104,Balwyn North
MIRRABOOKA PRIMARY SCHOOL,145.146529999958,-37.840219998643,3130,Blackburn South
ORCHARD GROVE PRIMARY SCHOOL,145.146529999958,-37.840219998643,3130,Blackburn South
GARDENVALE PRIMARY SCHOOL,145.015039999578,-37.9046699990573,3187,Brighton East
GARDENVALE CENTRAL SCHOOL,145.015039999578,-37.9046699990573,3187,Brighton East
ROWELLYN PARK PRIMARY SCHOOL,145.192459999858,-38.1044099991163,3201,Carrum Downs
KIEWA VALLEY CONSOLIDATED SCHOOL,147.038779999603,-36.2510399989125,3691,Tangambalanga
KIEWA VALLEY PRIMARY SCHOOL,147.038779999603,-36.2510399989125,3691,Tangambalanga
WATTLE HEIGHTS SCHOOL,145.102089999619,-37.8437399992842,3125,Burwood
THOMAS CHIRNSIDE PRIMARY SCHOOL,144.637890000004,-37.903189998922,3030,Werribee
WERRIBEE MEADOWS PRIMARY SCHOOL,144.637890000004,-37.903189998922,3030,Werribee
OLD ORCHARD PRIMARY SCHOOL,145.152519999936,-37.8075499994749,3130,Blackburn North
ALBERTON WEST & DISTRICT PRIMARY SCHOOL,146.594589999832,-38.6015099988671,3971,Alberton West
ALBERTON WEST PRIMARY SCHOOL,146.594589999832,-38.6015099988671,3971,Alberton West
BRANXHOLME & WALLACEDALE COMMUNITY SCHOOL,141.798759999578,-37.8562399994486,3302,Branxholme
BRANXHOLME PRIMARY SCHOOL,141.798759999578,-37.8562399994486,3302,Branxholme
ALBANY RISE PRIMARY SCHOOL,145.172900000548,-37.9281099992509,3170,Mulgrave
ALTONA GATE PRIMARY SCHOOL,144.840699999909,-37.8287399987886,3025,Altona North
PARKHILL PRIMARY SCHOOL,145.106879999986,-37.8628699991027,3147,Ashwood
ASHWOOD PRIMARY SCHOOL,145.106879999986,-37.8628699991027,3147,Ashwood
BAYLES REGIONAL PRIMARY SCHOOL,145.566029999691,-38.1760199992717,3981,Bayles
BAYLES PRIMARY SCHOOL,145.566029999691,-38.1760199992717,3981,Bayles
AMSLEIGH PARK PRIMARY SCHOOL,145.108790000243,-37.9003099992174,3166,Oakleigh East
OAKLEIGH EAST PRIMARY SCHOOL,145.108790000243,-37.9003099992174,3166,Oakleigh East
CHELTENHAM HEIGHTS PRIMARY SCHOOL,145.068150000088,-37.9592499994333,3192,Cheltenham
LE PAGE PRIMARY SCHOOL,145.068150000088,-37.9592499994333,3192,Cheltenham
NANGILOC COLIGNAN & DISTRICT PRIMARY SCHOOL,142.357090000189,-34.4737399991161,3494,Nangiloc
NANGILOC PRIMARY SCHOOL,142.357090000189,-34.4737399991161,3494,Nangiloc
YALLAMBIE PRIMARY SCHOOL,145.102230000565,-37.7215399992339,3085,Yallambie
STREETON PRIMARY SCHOOL,145.102230000565,-37.7215399992339,3085,Yallambie
CALEDONIAN PRIMARY SCHOOL,143.894239999633,-37.5553999987909,3350,Brown Hill
BROWN HILL PRIMARY SCHOOL,143.894239999633,-37.5553999987909,3350,Brown Hill
WERRIBEE PARK PRIMARY SCHOOL,144.686809999962,-37.9501299993321,3030,Werribee South
DIGGERS ROAD PRIMARY SCHOOL,144.686809999962,-37.9501299993321,3030,Werribee South
WHITFIELD PRIMARY SCHOOL,146.412060000025,-36.7655699991638,3733,Whitfield
WHITFIELD DISTRICT PRIMARY SCHOOL,146.412060000025,-36.7655699991638,3733,Whitfield
HARCOURT PRIMARY SCHOOL,144.257240000375,-37.0029599992409,3453,Harcourt
HARCOURT VALLEY PRIMARY SCHOOL,144.257240000375,-37.0029599992409,3453,Harcourt
WAAIA PRIMARY SCHOOL,145.328479999732,-36.0512399995201,3637,Waaia
WAAIA-YALCA SOUTH PRIMARY SCHOOL,145.328479999732,-36.0512399995201,3637,Waaia
ALLANSFORD & DISTRICT PRIMARY SCHOOL,142.590419999553,-38.3859599988859,3277,Allansford
ALLANSFORD PRIMARY SCHOOL,142.590419999553,-38.3859599988859,3277,Allansford
TRENTHAM DISTRICT PRIMARY SCHOOL,144.328100000012,-37.3879499987723,3458,Trentham
TRENTHAM PRIMARY SCHOOL,144.328100000012,-37.3879499987723,3458,Trentham
SMYTHESDALE PRIMARY SCHOOL,143.684030000359,-37.6434599990552,3351,Smythesdale
WOADY YALOAK PRIMARY SCHOOL SMYTHESDALE CAMPUS,143.684030000359,-37.6434599990552,3351,Smythesdale
SNAKE VALLEY PRIMARY SCHOOL,143.587090000256,-37.6145699988453,3351,Snake Valley
WOADY YALOAK PRIMARY SCHOOL SNAKE VALLEY CAMPUS,143.587090000256,-37.6145699988453,3351,Snake Valley
REDESDALE PRIMARY SCHOOL,144.530979999664,-37.0192899991087,3444,Redesdale
REDESDALE-MIA MIA PRIMARY SCHOOL,144.530979999664,-37.0192899991087,3444,Redesdale
NARRAWONG DISTRICT PRIMARY SCHOOL,141.716580000568,-38.2526699989983,3285,Narrawong
NARRAWONG PRIMARY SCHOOL,141.716580000568,-38.2526699989983,3285,Narrawong
GRETA VALLEY PRIMARY SCHOOL,146.286259999497,-36.5981799991363,3675,Hansonville
BELL POST HILL PRIMARY SCHOOL,144.327369999521,-38.11762999878,3215,Hamlyn Heights
HAMLYN HEIGHTS PRIMARY SCHOOL,144.327369999521,-38.11762999878,3215,Hamlyn Heights
ROSS CREEK PRIMARY SCHOOL,143.752090000132,-37.6523499990706,3351,Ross Creek
WOADY YALOAK PRIMARY SCHOOL ROSS CREEK CAMPUS,143.752090000132,-37.6523499990706,3351,Ross Creek
SCARSDALE PRIMARY SCHOOL,143.655700000285,-37.6817899987313,3351,Newtown
WOADY YALOAK PRIMARY SCHOOL SCARSDALE CAMPUS,143.655700000285,-37.6817899987313,3351,Newtown
STRATHBOGIE PRIMARY SCHOOL,145.736810000507,-36.856239998929,3666,Strathbogie
PERANBIN PRIMARY SCHOOL STRATHBOGIE CAMPUS,145.736810000507,-36.856239998929,3666,Strathbogie
VIOLET TOWN PRIMARY SCHOOL,145.717370000017,-36.6340099986609,3669,Violet Town
PERANBIN PRIMARY SCHOOL VIOLET TOWN CAMPUS,145.717370000017,-36.6340099986609,3669,Violet Town
CLIFTON HILL PRIMARY SCHOOL,144.989250000152,-37.7922899990711,3068,Clifton Hill
GOWRIE STREET PRIMARY SCHOOL,145.3965300001,-36.3667899991447,3630,Shepparton
BOURCHIER STREET PRIMARY SCHOOL,145.413479999755,-36.3676299993457,3630,Shepparton
SAINT GEORGES ROAD PRIMARY SCHOOL,145.405980000409,-36.389569998726,3630,Shepparton
MERRI PRIMARY SCHOOL,144.987390000304,-37.776949998856,3068,Fitzroy North
MERRI CREEK PRIMARY SCHOOL,144.987390000304,-37.776949998856,3068,Fitzroy North
WILMOT ROAD PRIMARY SCHOOL,145.405420000486,-36.3984599992173,3630,Shepparton
GUTHRIE STREET PRIMARY SCHOOL,145.391529999599,-36.3987399988858,3630,Shepparton
TOOLLEEN PRIMARY SCHOOL,144.69042000013,-36.7159599987893,3551,Toolleen
LAVERTON GARDENS PRIMARY SCHOOL,144.77902999999,-37.850959999528,3028,Laverton
MYOLA EAST PRIMARY SCHOOL,144.543759999493,-36.6345699987733,3557,Barnadown
MUSKERRY EAST PRIMARY SCHOOL,144.618759999966,-36.6765099994294,3557,Muskerry
CAMPERDOWN COLLEGE BROOKE STREET CAMPUS PRIMARY,143.142370000543,-38.2348499991024,3260,Camperdown
CAMPERDOWN PRIMARY SCHOOL,143.142370000543,-38.2348499991024,3260,Camperdown
BRENTWOOD PARK PRIMARY SCHOOL,145.347770000018,-38.0529699993506,3806,Berwick
SOMERVILLE RISE PRIMARY SCHOOL,145.167760000056,-38.2300099992378,3912,Somerville
WARBURTON EAST PRIMARY SCHOOL,145.735560000294,-37.7416499986474,3799,East Warburton
MILLWARRA PRIMARY SCHOOL WARBURTON EAST CAMPUS,145.735560000294,-37.7416499986474,3799,East Warburton
RICHMOND COMMUNITY PRIMARY SCHOOL,145.007490000405,-37.814629999096,3121,Richmond
YARRA PRIMARY SCHOOL,145.007490000405,-37.814629999096,3121,Richmond
TARRAWINGEE AREA PRIMARY SCHOOL,146.446809999999,-36.3917899992696,3678,Tarrawingee
MILLGROVE PRIMARY SCHOOL,145.651389999881,-37.7535999994296,3799,Millgrove
MILLWARRA PRIMARY SCHOOL MILLGROVE CAMPUS,145.651389999881,-37.7535999994296,3799,Millgrove
WARRANWOOD PRIMARY SCHOOL,145.246989999589,-37.774329999341,3134,Warranwood
WARRANDYTE SOUTH PRIMARY SCHOOL,145.246989999589,-37.774329999341,3134,Warranwood
HEIDELBERG WEST PRIMARY SCHOOL,145.055699999469,-37.7453999992077,3081,Heidelberg Heights
HAIGH STREET PRIMARY SCHOOL,145.055699999469,-37.7453999992077,3081,Heidelberg Heights
DIMBOOLA-PIMPINIO PRIMARY SCHOOL  DIMBOOLA CAMPUS,142.03125999991,-36.4551299989502,3414,Dimboola
DIMBOOLA-PIMPINIO PRIMARY SCHOOL  PIMPINIO CAMPUS,142.116259999922,-36.5853999993189,3401,Pimpinio
FOSTER PRIMARY SCHOOL,146.201999999819,-38.6573299991001,3960,Foster
TERANG COLLEGE PRIMARY CAMPUS,142.907920000184,-38.2434599995213,3264,Terang
TERANG PRIMARY SCHOOL,142.907920000184,-38.2434599995213,3264,Terang
CRANBOURNE PARK PRIMARY SCHOOL,145.277749999666,-38.1040499991897,3977,Cranbourne
CRANBOURNE NORTH PRIMARY SCHOOL,145.277749999666,-38.1040499991897,3977,Cranbourne
HORSHAM PRIMARY SCHOOL,142.215529999554,-36.7110999995268,3400,Horsham
MCKINNON PRIMARY SCHOOL,145.052799999585,-37.9080399988655,3204,Ormond
DAWES ROAD (KYABRAM) PRIMARY SCHOOL 4866,145.000700000459,-36.3153999990218,3620,Kyabram
HASLEM STREET (KYABRAM) PRIMARY SCHOOL 2902,145.00153000029,-36.3201299986977,3620,Kyabram
NEWPORT LAKES PRIMARY SCHOOL,144.878349999741,-37.8384099988102,3015,Newport
NEWPORT PRIMARY SCHOOL,144.878349999741,-37.8384099988102,3015,Newport
TOOLERN VALE PRIMARY SCHOOL,144.594239999511,-37.6062599994776,3337,Toolern Vale
TOOLERN VALE AND DISTRICT PRIMARY SCHOOL,144.594239999511,-37.6062599994776,3337,Toolern Vale
PLEASANT STREET PRIMARY SCHOOL (BALLARAT),143.838499999855,-37.5563199987949,3350,Lake Wendouree
PORT MELBOURNE PRIMARY SCHOOL,144.933819999942,-37.8353099992069,3207,Port Melbourne
GRAHAM STREET PRIMARY SCHOOL,144.933819999942,-37.8353099992069,3207,Port Melbourne
STONNINGTON PRIMARY SCHOOL,144.995840000479,-37.8569299991733,3181,Windsor
TIMBARRA PRIMARY SCHOOL,145.322090000288,-38.0167899993117,3806,Berwick
KOSCIUSKO STREET PRIMARY SCHOOL,146.515369999533,-38.1992599993059,3844,Traralgon
TRARALGON (KOSCIUSZKO STREET) PRIMARY SCHOOL,146.515369999533,-38.1992599993059,3844,Traralgon
TRARALGON PRIMARY SCHOOL KOSCIUSKO STREET,146.515369999533,-38.1992599993059,3844,Traralgon
TRARALGON (STOCKDALE ROAD) PRIMARY SCHOOL,146.524180000482,-38.1899699992052,3844,Traralgon
TRARALGON PRIMARY SCHOOL,146.524180000482,-38.1899699992052,3844,Traralgon
STOCKDALE ROAD PRIMARY SCHOOL,146.524180000482,-38.1899699992052,3844,Traralgon
BATESFORD PRIMARY SCHOOL,144.28903000018,-38.0920699989771,3213,Batesford
ROLLINS PRIMARY SCHOOL (BATESFORD CAMPUS),144.28903000018,-38.0920699989771,3213,Batesford
TRARALGON (LIDDIARD ROAD) PRIMARY SCHOOL,146.551489999421,-38.2015399986462,3844,Traralgon
TRARALGON PRIMARY SCHOOL LIDDIARD ROAD,146.551489999421,-38.2015399986462,3844,Traralgon
LIDDIARD ROAD PRIMARY SCHOOL,146.551489999421,-38.2015399986462,3844,Traralgon
ALBERT STREET PRIMARY SCHOOL,146.264350000099,-38.174699999286,3825,Moe
MOE (ALBERT STREET) PRIMARY SCHOOL,146.264350000099,-38.174699999286,3825,Moe
HAMILTON (GRAY STREET) PRIMARY SCHOOL,142.021389999615,-37.7448999987571,3300,Hamilton
GRAY STREET PRIMARY SCHOOL,142.021389999615,-37.7448999987571,3300,Hamilton
MOE (SOUTH STREET) PRIMARY SCHOOL,146.260070000328,-38.183169999031,3825,Moe
TOBRUK STREET PRIMARY SCHOOL,146.417370000447,-38.2328999993868,3840,Morwell
TOBRUK STREET PRIMARY SCHOOL - MORWELL,146.417370000447,-38.2328999993868,3840,Morwell
MORWELL PRIMARY SCHOOL TOBRUK STREET,146.417370000447,-38.2328999993868,3840,Morwell
GREY STREET PRIMARY SCHOOL (TRARALGON),146.537130000488,-38.193029999034,3844,Traralgon
TRARALGON PRIMARY SCHOOL GREY STREET,146.537130000488,-38.193029999034,3844,Traralgon
GREY STREET PRIMARY SCHOOL,146.537130000488,-38.193029999034,3844,Traralgon
GEORGE STREET PRIMARY SCHOOL,142.03441000043,-37.7465999986884,3300,Hamilton
GEORGE STREET PRIMARY SCHOOL - HAMILTON,142.03441000043,-37.7465999986884,3300,Hamilton
COMMERCIAL ROAD PRIMARY SCHOOL,146.40069999964,-38.2384599993652,3840,Morwell
COMMERCIAL ROAD PRIMARY SCHOOL - MORWELL,146.40069999964,-38.2384599993652,3840,Morwell
MORWELL PRIMARY SCHOOL COMMERCIAL ROAD,146.40069999964,-38.2384599993652,3840,Morwell
WOORINEN DISTRICT PRIMARY SCHOOL,143.453750000316,-35.2903999990038,3588,Woorinen South
WOORINEN SOUTH PRIMARY SCHOOL,143.453750000316,-35.2903999990038,3588,Woorinen South
CHADSTONE PARK PRIMARY SCHOOL,145.081499999969,-37.8806899995182,3145,Malvern East
MALVERN VALLEY PRIMARY SCHOOL,145.081499999969,-37.8806899995182,3145,Malvern East
SPRINGVALE HEIGHTS PRIMARY SCHOOL,145.158760000544,-37.9395699993073,3171,Springvale
SANDOWN PARK PRIMARY SCHOOL,145.158760000544,-37.9395699993073,3171,Springvale
COBRAM CONSOLIDATED SCHOOL,145.651109999797,-35.9250899991732,3644,Cobram
COBRAM PRIMARY SCHOOL,145.651109999797,-35.9250899991732,3644,Cobram
EAST BENTLEIGH PRIMARY SCHOOL,145.069429999885,-37.9344899992904,3165,Bentleigh East
MOORABBIN HEIGHTS PRIMARY SCHOOL,145.069429999885,-37.9344899992904,3165,Bentleigh East
SYDENHAM-HILLSIDE PRIMARY SCHOOL,144.762369999795,-37.6940099987168,3037,Sydenham
SYDENHAM PRIMARY SCHOOL,144.762369999795,-37.6940099987168,3037,Sydenham
TUCKER ROAD BENTLEIGH PRIMARY SCHOOL,145.049020000485,-37.932529998784,3204,Bentleigh
GEELONG PRIMARY SCHOOL,144.379200000381,-38.1660399988157,3219,Thomson
TATE STREET GEELONG PRIMARY SCHOOL,144.379200000381,-38.1660399988157,3219,Thomson
TATE STREET PRIMARY SCHOOL GEELONG,144.379200000381,-38.1660399988157,3219,Thomson
ROXBURGH PARK PRIMARY SCHOOL,144.931409999437,-37.6342299989758,3064,Roxburgh Park
MAHOGANY RISE PRIMARY SCHOOL,145.157410000314,-38.1255999992924,3200,Frankston North
ALTONA EAST PRIMARY SCHOOL,144.859030000356,-37.837069999319,3025,Altona North
EASTONA PARK PRIMARY SCHOOL,144.859030000356,-37.837069999319,3025,Altona North
PARKWOOD GREEN PRIMARY SCHOOL,144.744469999762,-37.6991899988405,3037,Hillside
MOUNT PLEASANT ROAD NUNAWADING PRIMARY SCHOOL,145.180100000213,-37.8285699990159,3131,Nunawading
NUNAWADING SOUTH PRIMARY SCHOOL,145.180100000213,-37.8285699990159,3131,Nunawading
ROXBURGH RISE PRIMARY SCHOOL,144.92350999952,-37.6161899990373,3064,Roxburgh Park
BERWICK FIELDS PRIMARY SCHOOL,145.334399999825,-38.0487299987395,3806,Berwick
PAKENHAM SPRINGS PRIMARY SCHOOL,145.470080000207,-38.0844899989507,3810,Pakenham
CAIRNLEA PARK PRIMARY SCHOOL,144.788000000495,-37.7588399992831,3023,Cairnlea
BERWICK CHASE PRIMARY SCHOOL,145.346969999871,-38.0674199992776,3806,Berwick
RESERVOIR VIEWS PRIMARY SCHOOL,145.022729999789,-37.7054999993824,3073,Reservoir
MEADOWS PRIMARY SCHOOL,144.929569999863,-37.6875299987555,3047,Broadmeadows
PAKENHAM LAKESIDE PRIMARY SCHOOL,145.439000000337,-38.0684399988435,3810,Pakenham
SUNSHINE HARVESTER PRIMARY SCHOOL,144.845690000264,-37.7829199988844,3020,Sunshine
NEWPORT GARDENS PRIMARY SCHOOL,144.868840000112,-37.8451999990135,3015,Newport
ST ALBANS SOUTH PRIMARY SCHOOL,144.803079999953,-37.7548699995004,3021,Saint Albans
ST ALBANS PRIMARY SCHOOL,144.795779999907,-37.7387299991353,3021,Saint Albans
ST ANDREWS PRIMARY SCHOOL,145.269830000065,-37.6022999988192,3761,Saint Andrews
ST GERMAINS PRIMARY SCHOOL,145.164869999583,-36.2442899991533,3620,Saint Germains
ST JAMES PRIMARY SCHOOL,145.896810000146,-36.2751299993571,3727,Saint James
ST KILDA PARK PRIMARY SCHOOL,144.977799999803,-37.8580999994317,3182,St Kilda
ST ALBANS NORTH PRIMARY SCHOOL,144.802019999523,-37.7317299989006,3021,Saint Albans
ST ALBANS MEADOWS PRIMARY SCHOOL,144.817779999964,-37.7533499992949,3021,Saint Albans
ST ALBANS HEIGHTS PRIMARY SCHOOL,144.810369999477,-37.7486399990244,3021,Saint Albans
ST LEONARDS PRIMARY SCHOOL,144.714759999673,-38.171819998805,3223,St Leonards
ST KILDA PRIMARY SCHOOL,144.989020000324,-37.8702099991602,3182,St Kilda
ST ARNAUD PRIMARY SCHOOL,143.257549999971,-36.6101899993729,3478,Saint Arnaud
OLD ST ARNAUD EAST SCHOOL,143.304869999596,-36.6181799986945,3477,Saint Arnaud East
ST GEORGES ROAD PRIMARY SCHOOL,145.405980000409,-36.389569998726,3630,Shepparton
ST HELENS PLAINS PRIMARY SCHOOL,142.395979999787,-36.8181799989049,3401,Saint Helens Plains
ST HELENS PRIMARY SCHOOL,142.068199999952,-38.2562399993479,3285,Saint Helens
MORDIALLOC BEACH PRIMARY SCHOOL,145.088819999547,-38.0055699992753,3195,Mordialloc
DOVETON PRIMARY SCHOOL,145.244030000092,-37.9903999995278,3177,Doveton
LALOR WEST PRIMARY SCHOOL,145.001390000308,-37.6641499990668,3075,Lalor
TAYLORS HILL PRIMARY SCHOOL,144.759909999722,-37.7166799990301,3037,Taylors Hill
DERRIMUT PRIMARY SCHOOL,144.763209999779,-37.7892499991526,3026,Derrimut
SPRING PARKS PRIMARY SCHOOL WEST CAMPUS,145.139030000094,-37.9590099988095,3171,Springvale
LALOR GARDENS PRIMARY SCHOOL,145.001350000543,-37.6636799988216,3075,Lalor
POINT COOK PREP - YEAR 9 COLLEGE,144.748479999772,-37.9206799992312,3030,Point Cook
SPRING PARKS PRIMARY SCHOOL VALLEY CAMPUS,145.139870000258,-37.9637399989528,3172,Springvale South
KEILOR VIEWS PRIMARY SCHOOL,144.809190000504,-37.7176399992368,3038,Keilor Downs
UNIVERSITY PARK PRIMARY SCHOOL,144.803079999953,-37.7548699995004,3021,Saint Albans
CRANBOURNE CARLISLE PRIMARY SCHOOL,145.28905999988,-38.0875199988672,3977,Cranbourne
DOVETON PRIMARY SCHOOL,145.237370000131,-37.9840099992917,3177,Doveton
WHITEHORSE PRIMARY SCHOOL,145.166990000348,-37.8074499992675,3130,Blackburn North
BROADMEADOWS VALLEY PRIMARY SCHOOL,144.914099999576,-37.6813899989163,3047,Broadmeadows
FLEETWOOD PRIMARY SCHOOL,145.318099999958,-38.0392899992488,3805,Narre Warren
WILLIAM RUTHVEN PRIMARY SCHOOL - MERRILANDS ROAD CAMPUS,144.995700000526,-37.7026299993828,3073,Reservoir
WILLIAM RUTHVEN PRIMARY SCHOOL - GLASGOW AVENUE CAMPUS,144.995279999707,-37.7027599988891,3073,Reservoir
GLENROY CENTRAL PRIMARY SCHOOL,144.925039999849,-37.7042599993727,3046,Glenroy
CRANBOURNE EAST PRIMARY SCHOOL,145.304439999472,-38.1062699992426,3977,Cranbourne East
AITKEN CREEK PRIMARY SCHOOL,144.905570000325,-37.5817399989014,3064,Craigieburn
LYNDHURST PRIMARY SCHOOL,145.254090000549,-38.0749499992061,3975,Lyndhurst
TRUGANINA SOUTH PRIMARY SCHOOL,144.72565999944,-37.8645199986631,3029,Truganina
KOROROIT CREEK PRIMARY SCHOOL,144.754589999849,-37.7350199988617,3023,Burnside Heights
DALLAS PRIMARY SCHOOL,144.935139999795,-37.6737399990728,3047,Dallas
UPFIELD PRIMARY SCHOOL,144.944309999806,-37.668459999443,3047,Dallas
GLEN DEVON PRIMARY SCHOOL,144.655140000059,-37.892899998795,3030,Werribee
BOORT PRIMARY SCHOOL,143.72376000028,-36.114569999361,3537,Boort
BENDIGO NORTH PRIMARY SCHOOL,144.287370000439,-36.740399998727,3550,North Bendigo
COMET HILL PRIMARY SCHOOL,144.264310000514,-36.7337399993319,3556,California Gully
CORIO PRIMARY SCHOOL,144.368059999768,-38.07249999913,3214,Corio
CORIO WEST PRIMARY SCHOOL,144.351950000077,-38.0722099990784,3214,Corio
CORIO SOUTH PRIMARY SCHOOL,144.3527800003,-38.0810999994659,3214,Corio
NORLANE WEST PRIMARY SCHOOL,144.342229999674,-38.0888799993812,3214,Norlane
NORTH SHORE PRIMARY SCHOOL,144.3638900005,-38.0902599992641,3214,Norlane
LIGHTNING REEF PRIMARY SCHOOL - COMET HILL CAMPUS,144.269730000369,-36.7377599993113,3550,North Bendigo
DALLAS BROOKS COMMUNITY PRIMARY SCHOOL - DALLAS CAMPUS,144.932229999568,-37.6741499994985,3047,Dallas
DALLAS BROOKS COMMUNITY PRIMARY SCHOOL - UPFIELD CAMPUS,144.944450000325,-37.6688799990239,3047,Dallas
LIGHTNING REEF PRIMARY SCHOOL - BENDIGO NORTH CAMPUS,144.289999999595,-36.748879999311,3550,Bendigo
WYNDHAM PARK PRIMARY SCHOOL,144.676559999871,-37.8848499992194,3030,Werribee
CHANDLER PARK PRIMARY SCHOOL,145.180479999764,-37.9923799990031,3173,Keysborough
SPRINGVALE SOUTH PRIMARY SCHOOL,145.150279999535,-37.9702599987491,3172,Springvale South
SOUTHVALE PRIMARY SCHOOL,145.162500000176,-37.9741499987954,3174,Noble Park
ATHOL ROAD PRIMARY SCHOOL - EAST CAMPUS,145.16306000042,-37.9733199994213,3174,Noble Park
ATHOL ROAD PRIMARY SCHOOL - WEST CAMPUS,145.149970000247,-37.9710399987991,3172,Springvale South
GREENSLOPES PRIMARY SCHOOL,145.212779999938,-37.9666499990091,3175,Dandenong North
LYNDALE GREENS PRIMARY SCHOOL,145.204660000299,-37.9650399988418,3175,Dandenong North
YARRAMAN OAKS PRIMARY SCHOOL,145.19152999948,-37.9702799987608,3174,Noble Park
KEYSBOROUGH PRIMARY SCHOOL,145.152420000088,-37.9826199987969,3172,Springvale South
HORSHAM PRIMARY SCHOOL - 298 CAMPUS,142.215529999554,-36.7110999995268,3400,Horsham
HORSHAM PRIMARY SCHOOL - RASMUSSEN CAMPUS,142.204539999989,-36.6973599989893,3400,Horsham
BANYAN FIELDS PRIMARY SCHOOL,145.187910000308,-38.0945799987959,3201,Carrum Downs
EPPING PRIMARY SCHOOL - GREENBROOK CAMPUS,145.04206000056,-37.6502499993129,3076,Epping
EPPING PRIMARY SCHOOL - HIGH STREET CAMPUS,145.025560000369,-37.6455399992971,3076,Epping
AINSLIE PARKLANDS PRIMARY SCHOOL,145.264249999477,-37.7937699987931,3136,Croydon
Springside P-9 College,144.738590000082,-37.7110399986475,3023,Caroline Springs
Carrajung South Primary School,146.749030000077,-38.3823499989004,3844,Carrajung Lower
MOONEE PONDS PRIMARY SCHOOL,144.932990000039,-37.7633299994911,3039,Moonee Ponds
SWANPOOL PRIMARY SCHOOL,146.00181000028,-36.7523499987483,3673,Swanpool
PERANBIN PRIMARY SCHOOL SWANPOOL CAMPUS,146.00181000028,-36.7523499987483,3673,Swanpool
TATONG PRIMARY SCHOOL,146.1070899998,-36.7290099993672,3673,Tatong
PERANBIN PRIMARY SCHOOL TATONG CAMPUS,146.1070899998,-36.7290099993672,3673,Tatong
JAMIESON PRIMARY SCHOOL,146.139999999794,-37.3012499989768,3723,Jamieson
BOWEYA PRIMARY SCHOOL,146.130699999763,-36.2703999992418,3675,Boweya
MOLYULLAH PRIMARY SCHOOL,146.154310000242,-36.6420699991483,3673,Molyullah
THOONA PRIMARY SCHOOL,146.07701000017,-36.338919998653,3726,Thoona
MERRIJIG PRIMARY SCHOOL,146.256890000561,-37.102779999204,3723,Merrijig
MERTON PRIMARY SCHOOL,145.708199999983,-36.9742899987259,3715,Merton
BROKEN CREEK PRIMARY SCHOOL,145.889240000324,-36.4232699993339,3673,Broken Creek
WOODS POINT PRIMARY SCHOOL,146.249590000395,-37.570129998784,3723,Woods Point
MANSFIELD PRIMARY SCHOOL,146.084829999724,-37.0555799987144,3722,Mansfield
WARRENBAYNE PRIMARY SCHOOL,145.884589999588,-36.6945699994373,3670,Warrenbayne
LURG PRIMARY SCHOOL,146.132639999708,-36.5878999992052,3673,Lurg
WINTON PRIMARY SCHOOL,146.081339999554,-36.5163199986621,3673,Winton
STEWARTON PRIMARY SCHOOL,145.783760000281,-36.4073499993025,3725,Stewarton
DEVENISH PRIMARY SCHOOL,145.894339999912,-36.3265299990175,3726,Devenish
TAMINICK PRIMARY SCHOOL,146.182920000522,-36.4092899990234,3675,Taminick
BADDAGINNIE PRIMARY SCHOOL,145.863200000077,-36.5923499989015,3670,Baddaginnie
PERANBIN PRIMARY SCHOOL BADDAGINNIE CAMPUS,145.863200000077,-36.5923499989015,3670,Baddaginnie
BONNIE DOON PRIMARY SCHOOL,145.856809999841,-37.0253999995054,3720,Bonnie Doon
HORSHAM WEST AND HAVEN PRIMARY SCHOOL - HORSHAM WEST CAMPUS,142.179999999489,-36.7174099988535,3400,Horsham
HAVEN PRIMARY SCHOOL,142.193480000432,-36.7409599993624,3401,Haven
HORSHAM WEST AND HAVEN PRIMARY SCHOOL - HAVEN CAMPUS,142.194149999568,-36.7580699986696,3401,Haven
GOORAMBAT PRIMARY SCHOOL,145.919309999993,-36.4087399990986,3725,Goorambat
DALLAS NORTH PRIMARY SCHOOL,144.937639999472,-37.6681799995273,3047,Dallas
THORNTON PRIMARY SCHOOL,145.796810000088,-37.2537399990942,3712,Thornton
CARLTON GARDENS PRIMARY SCHOOL,144.969470000297,-37.8021099987953,3053,Carlton
SPRING PARKS PRIMARY SCHOOL - WEST CAMPUS,145.139509999483,-37.95882999926,3171,Springvale
ST CATHERINES SCHOOL,145.052179999741,-37.9382099988672,3189,Moorabbin
DANDENONG RANGES STEINER SCHOOL - SCHOOL ROAD CAMPUS,145.406709999851,-37.9210099993977,3159,Menzies Creek
WOODLEIGH SCHOOL - MINIMBAH,145.113939999981,-38.1732099994674,3199,Frankston South
Gormandale and District Primary School,146.703210000173,-38.2941599988636,3873,Gormandale
SACRED HEART SCHOOL,145.086919999621,-37.9018199991717,3166,Oakleigh
SACRED HEART SCHOOL,145.037449999742,-37.8081599991062,3101,Kew
SACRED HEART SCHOOL,144.978530000353,-37.8020399994274,3065,Fitzroy
SACRED HEART SCHOOL,145.272799999715,-37.7974799987403,3136,Croydon
SACRED HEART SCHOOL,145.003769999972,-37.7447899990259,3072,Preston
SACRED HEART SCHOOL,144.800060000514,-37.7376799992436,3021,Saint Albans
SACRED HEART SCHOOL,142.152250000283,-34.1873099991433,3500,Mildura
ST AGNES SCHOOL,145.031829999886,-37.9460799991915,3190,Highett
ST ALOYSIUS SCHOOL,143.837679999807,-37.5780899987483,3350,Redan
ST AMBROSES SCHOOL,144.530499999901,-37.3577799993877,3442,Woodend
ST ANNES SCHOOL,144.717459999882,-37.5683699989075,3429,Sunbury
ST ANTHONYS SCHOOL,145.172430000028,-37.9716999987557,3174,Noble Park
ST ANTHONYS SCHOOL,145.04710999956,-37.8868799989566,3163,Carnegie
ST AUGUSTINES PRIMARY SCHOOL,144.820520000535,-37.7106199989473,3036,Keilor
ST AUGUSTINES SCHOOL,143.736799999524,-37.0518199988437,3465,Maryborough
ST BEDES SCHOOL,145.070909999961,-37.793509998907,3104,Balwyn North
ST BERNADETTES SCHOOL,145.034129999845,-37.7630499991619,3079,Ivanhoe
ST CARLO BORROMEO SCHOOL,144.888640000281,-37.6536299987636,3059,Greenvale
ST CATHERINES PRIMARY SCHOOL,145.336950000472,-38.0697599987877,3806,Berwick
ST CATHERINES SCHOOL,145.003240000557,-37.6655899989574,3075,Lalor
ST CHARLES BORROMEO SCHOOL,145.154320000468,-37.7674599991286,3106,Templestowe
ST DOMINICS SCHOOL,144.923709999579,-37.6850399993891,3047,Broadmeadows
ST DOMINICS SCHOOL,144.584639999727,-37.6808999988717,3337,Melton
ST FRANCIS OF THE FIELDS SCHOOL,144.361299999644,-36.8044499992659,3551,Strathfieldsaye
ST FRANCIS XAVIER SCHOOL,143.903000000436,-37.5615899992261,3350,Ballarat East
ST FRANCIS XAVIERS SCHOOL,145.126560000264,-37.7160099993811,3094,Montmorency
ST ITAS SCHOOL,145.862000000269,-38.1324299990677,3818,Drouin
ST JAMES SCHOOL,145.573189999677,-38.0730199990995,3812,Nar Nar Goon
ST JAMES SCHOOL,144.997660000308,-37.8979299994319,3186,Brighton
ST JAMES THE APOSTLE SCHOOL,144.687500000513,-37.857269998661,3029,Hoppers Crossing
ST JOHN THE BAPTIST SCHOOL,145.295179999508,-37.8873699995359,3156,Ferntree Gully
ST JOHN THE BAPTISTS SCHOOL,145.485269999748,-38.1974499994026,3981,Koo Wee Rup
ST JOHNS SCHOOL,145.039210000179,-37.6784099993262,3074,Thomastown
ST JOSEPHS SCHOOL,145.090600000144,-37.5957199992678,3754,Mernda
ST JOSEPHS SCHOOL,142.486149999454,-38.372469998791,3280,Warrnambool
ST JOSEPHS SCHOOL,145.974119999846,-36.5539499994042,3672,Benalla
ST JOSEPHS SCHOOL,146.682820000497,-36.3600599991992,3747,Beechworth
ST JOSEPHS SCHOOL,143.351059999551,-36.2717499991265,3525,Charlton
ST JOSEPHS SCHOOL,146.60706999953,-36.1459699992544,3683,Chiltern
ST JOSEPHS SCHOOL,145.652369999663,-35.9170499988402,3644,Cobram
ST JOSEPHS SCHOOL,142.187969999625,-34.3023399989498,3496,Red Cliffs
CAULFIELD GRAMMAR SCHOOL - MALVERN CAMPUS,145.05243000023,-37.8640799986393,3146,Glen Iris
STRATHCONA BAPTIST GIRLS GRAMMAR - PRIMARY CAMPUS,145.07873999988,-37.8304799986666,3126,Canterbury
THE LAKES SOUTH MORANG P-9 SCHOOL - PRIMARY CAMPUS,145.077919999488,-37.6300299994491,3752,South Morang
ROSANNA GOLF LINKS PRIMARY SCHOOL - ROSANNA GOLF LINKS PRIMARY CAMPUS,145.07411999969,-37.7351099990705,3084,Rosanna
WOADY YALOAK PRIMARY SCHOOL - ROSS CREEK CAMPUS,143.756349999876,-37.6327699989246,3351,Ross Creek
WOADY YALOAK PRIMARY SCHOOL - SCARSDALE CAMPUS,143.655740000535,-37.6815899995418,3351,Newtown
MELBOURNE GIRLS GRAMMAR - MELBOURNE GIRLS GRAMMAR - MORRIS HALL CAMPUS,144.988859999885,-37.8352799992996,3141,South Yarra
WOADY YALOAK PRIMARY SCHOOL - SMYTHESDALE CAMPUS,143.684300000302,-37.6435099986819,3351,Smythesdale
WOADY YALOAK PRIMARY SCHOOL - SNAKE VALLEY CAMPUS,143.58716000017,-37.6145499992054,3351,Snake Valley
PERANBIN PRIMARY COLLEGE - STRATHBOGIE CAMPUS,145.736419999574,-36.855989999448,3666,Strathbogie
SYDENHAM - HILLSIDE PRIMARY SCHOOL - SYDENHAM CAMPUS,144.762330000411,-37.7020299990224,3037,Sydenham
TRARALGON (LIDDIARD ROAD) PRIMARY SCHOOL - TRARALGON (LIDDIARD ROAD) CAMPUS,146.551489999421,-38.2015399986462,3844,Traralgon
PERANBIN PRIMARY COLLEGE - VIOLET TOWN CAMPUS,145.716980000026,-36.6342299990775,3669,Violet Town
ST BRIDGETS SCHOOL,145.103260000274,-37.7959099995131,3104,Balwyn North
ST DAMIANS SCHOOL,145.057219999901,-37.6984799989903,3083,Bundoora
ST JOHNS SCHOOL,145.190409999998,-37.8174299989043,3132,Mitcham
ST JOSEPHS SCHOOL,143.917809999458,-35.725439999003,3579,Kerang
ST JUDES SCHOOL,145.191109999715,-38.1552599994342,3910,Langwarrin
ST KEVINS SCHOOL,145.267400000417,-38.039299999388,3976,Hampton Park
ST MARYS SCHOOL,146.089009999528,-37.0583399991417,3722,Mansfield
ST MARYS SCHOOL,146.46298000049,-36.0504099991712,3685,Rutherglen
ST PATRICKS SCHOOL,144.346050000435,-38.1348299991358,3218,Geelong West
GHILGAI SCHOOL,145.318940000244,-37.8291199989299,3137,Kilsyth
SS PETER AND PAULS SCHOOL,145.153409999887,-37.7905399993005,3109,Doncaster East
ST AGATHAS SCHOOL,145.278860000425,-38.111629998914,3977,Cranbourne
ST ALIPIUS PARISH SCHOOL,143.874010000526,-37.5616899988305,3350,Ballarat East
ST ANNES SCHOOL,145.140949999944,-38.1065799987454,3198,Seaford
ST ANNES SCHOOL,145.049819999873,-37.7953699988377,3102,Kew East
ST ANNES SCHOOL,145.218599999584,-37.7732899990409,3114,Park Orchards
ST ANTHONYS SCHOOL,145.020369999707,-37.7800599995273,3078,Alphington
ST ANTHONYS SCHOOL,144.572899999714,-37.7096399988407,3338,Melton South
ST AUGUSTINES SCHOOL,145.145879999641,-38.1720299988692,3199,Frankston South
ST AUGUSTINES SCHOOL,144.889899999614,-37.8136899991389,3013,Yarraville
ST AUGUSTINES SCHOOL,143.892269999463,-37.4284899990341,3363,Creswick
ST AUGUSTINES SCHOOL,146.889230000507,-36.1170099993302,3690,Wodonga
ST BENEDICTS SCHOOL,145.097400000123,-37.8494799990752,3125,Burwood
ST BERNADETTES CATHOLIC PRIMARY SCHOOL,145.3108499998,-37.8538899988027,3154,The Basin
ST BERNARDS SCHOOL,144.97271000035,-37.7474099989906,3058,Coburg
ST BERNARDS SCHOOL,144.434870000112,-37.6722599986696,3340,Bacchus Marsh
ST BERNARDS SCHOOL,146.305610000206,-36.3465499989219,3677,Wangaratta
ST BRIGIDS SCHOOL,145.091779999525,-38.0080299995088,3195,Mordialloc
ST BRIGIDS SCHOOL,145.515799999652,-37.6586699990041,3777,Healesville
ST BRIGIDS SCHOOL,144.228739999935,-37.5998799995062,3342,Ballan
ST BRIGIDS SCHOOL,144.590090000543,-37.4908899987321,3437,Gisborne
ST CATHERINES SCHOOL,144.550199999666,-37.678769999518,3337,Melton West
ST CECILIAS SCHOOL,145.064610000524,-37.8500799994334,3146,Glen Iris
ST CHRISTOPHERS SCHOOL,145.150199999611,-37.8710899992004,3150,Glen Waverley
ST CHRISTOPHERS SCHOOL,144.880249999517,-37.7249999989644,3042,Airport West
ST CLARES SCHOOL,144.997720000222,-37.6777399992596,3074,Thomastown
ST COLMANS SCHOOL,142.802029999646,-38.0799199987825,3272,Mortlake
ST COLUMBAS SCHOOL,144.981130000511,-37.8825199992776,3184,Elwood
ST COLUMBAS SCHOOL,143.860080000003,-37.5458899988903,3350,Soldiers Hill
ST DOMINICS SCHOOL,145.083840000211,-37.83890999921,3124,Camberwell
ST ELIZABETHS SCHOOL,145.198879999871,-37.9463099988056,3175,Dandenong North
ST FINBARS SCHOOL,145.01746999966,-37.916269998924,3187,Brighton East
ST GABRIELS SCHOOL,146.511059999868,-38.1876399989778,3844,Traralgon
ST GABRIELS SCHOOL,145.005130000437,-37.7180099988251,3073,Reservoir
ST GERARDS SCHOOL,145.205829999616,-37.9713199991277,3175,Dandenong
ST JOACHIMS SCHOOL,145.178480000201,-38.1033299990326,3201,Carrum Downs
ST JOHN BOSCOS SCHOOL,144.889040000234,-37.743639999346,3042,Niddrie
ST JOHNS LUTHERAN SCHOOL,141.589850000239,-38.3567699993399,3305,Portland
ST JOHNS LUTHERAN SCHOOL GEELONG,144.347469999688,-38.1473299992977,3220,Newtown
ST JOHNS SCHOOL,142.446139999836,-38.3514899994918,3280,Dennington
ST JOHNS SCHOOL,145.148099999547,-38.1458099989106,3199,Frankston
ST JOHNS SCHOOL,144.885230000517,-37.7958099989966,3011,Footscray
ST JOHNS SCHOOL,144.988219999927,-37.7903299994945,3068,Clifton Hill
ST JOHNS SCHOOL,145.066559999582,-37.7576299992335,3084,Heidelberg
ST JOHNS SCHOOL,145.569869999871,-36.7533599988816,3666,Euroa
ST JOSEPHS PRIMARY SCHOOL,145.274819999918,-37.8626899987321,3155,Boronia
ST JOSEPHS SCHOOL,145.603410000027,-38.6008499990317,3995,Wonthaggi
ST JOSEPHS SCHOOL,145.20280999997,-38.3614499988429,3919,Crib Point
ST MARGARETS SCHOOL,145.346550000234,-38.0353299987499,3806,Berwick
ST JOSEPHS SCHOOL,144.741809999682,-38.340459999075,3943,Sorrento
ST JOSEPHS SCHOOL,146.152200000498,-38.2071999992097,3824,Trafalgar
ST JOSEPHS SCHOOL,145.912030000064,-38.1585999991415,3820,Warragul
ST JOSEPHS SCHOOL,145.11860000053,-38.0554199994999,3196,Chelsea
ST JOSEPHS SCHOOL,145.023169999437,-37.9758999990342,3193,Black Rock
ST JOSEPHS SCHOOL,145.150349999485,-37.9532199991027,3171,Springvale
ST JOSEPHS SCHOOL,142.289790000285,-37.8774999994104,3289,Penshurst
ST JOSEPHS SCHOOL,145.005289999874,-37.8824999992514,3185,Elsternwick
ST JOSEPHS SCHOOL,145.03117000027,-37.8580599986871,3144,Malvern
ST JOSEPHS SCHOOL,145.034320000357,-37.8264499994417,3122,Hawthorn
ST JOSEPHS SCHOOL,144.986389999595,-37.800449998829,3066,Collingwood
ST JOSEPHS SCHOOL,145.616820000242,-37.7921599991165,3797,Yarra Junction
ST JOSEPHS SCHOOL,144.996730000258,-37.7746099990432,3070,Northcote
ST JOSEPHS SCHOOL,144.942990000112,-37.7622799991588,3055,Brunswick West
ST JOSEPHS SCHOOL,148.455640000128,-37.7091499990174,3888,Orbost
ST JOSEPHS SCHOOL,141.694730000335,-37.6053699991124,3315,Coleraine
ST JOSEPHS SCHOOL,145.154059999931,-36.7815999986755,3608,Nagambie
ST JOSEPHS SCHOOL,144.70118000013,-36.3647499988087,3561,Rochester
ST JOSEPHS SCHOOL,145.443609999516,-36.0864499992881,3636,Numurkah
ST JOSEPHS SCHOOL,142.362200000183,-35.7239199994325,3396,Hopetoun
ST KEVINS SCHOOL,145.122869999888,-37.7612499988193,3107,Templestowe Lower
ST KIERANS SCHOOL,146.253559999856,-38.1793599988625,3825,Moe
ST KILIANS SCHOOL,144.284219999529,-36.7545599993106,3550,Bendigo
ST LEONARDS SCHOOL,145.163899999766,-37.8867899994608,3150,Glen Waverley
ST LOUIS DE MONTFORTS SCHOOL,145.10226999971,-38.0181099991181,3195,Aspendale
ST LUKES CATHOLIC PRIMARY SCHOOL,145.412029999647,-36.3242999992302,3631,Shepparton North
ST LUKES SCHOOL,145.235070000254,-37.8533599991044,3152,Wantirna
ST LUKES SCHOOL,145.018839999922,-37.6723599994947,3075,Lalor
ST MALACHYS SCHOOL,141.300049999772,-37.0340099990462,3318,Edenhope
ST MARGARET MARYS SCHOOL,144.877740000448,-37.8290699994993,3015,Spotswood
ST MARGARET MARYS SCHOOL,144.968249999576,-37.7586199989982,3056,Brunswick
ST MARGARETS PRIMARY SCHOOL,144.891039999682,-37.7668799992173,3032,Maribyrnong
ST MARGARETS SCHOOL,144.373930000523,-38.1646099991573,3219,East Geelong
ST MARKS SCHOOL,145.129569999512,-37.9866399988711,3172,Dingley Village
ST MARY MAGDALENS SCHOOL,145.101210000361,-37.8797599988937,3148,Chadstone
ST MARYS SCHOOL,145.191699999558,-38.3034299988571,3915,Hastings
ST MARYS SCHOOL,144.363000000213,-38.1531699990811,3220,Geelong
ST MARYS SCHOOL,145.220840000128,-37.9906599992692,3175,Dandenong
ST MARYS SCHOOL,146.972390000258,-37.9634899987898,3860,Maffra
ST MARYS SCHOOL,145.052930000067,-37.8729999990141,3145,Malvern East
ST MARYS SCHOOL,147.58563000057,-37.8413799995088,3875,Bairnsdale
CROYDON COMMUNITY SCHOOL - DONVALE PRIMARY CAMPUS,145.173729999489,-37.800329999029,3111,Donvale
ST MARYS SCHOOL,144.828379999521,-37.8666399988477,3018,Altona
ST MARYS SCHOOL,144.900900000242,-37.8634799990119,3016,Williamstown
ST MARYS SCHOOL,145.395859999544,-37.7904999995371,3796,Mount Evelyn
ST MARYS SCHOOL,144.911280000528,-37.7738199990967,3032,Ascot Vale
ST MARYS SCHOOL,145.00165999999,-37.7568299995274,3071,Thornbury
ST MARYS SCHOOL,145.092639999775,-37.7028399990866,3088,Greensborough
ST MARYS SCHOOL,145.114540000425,-37.5090499991445,3757,Whittlesea
ST MARYS SCHOOL,143.988699999436,-37.5003899990469,3352,Clarkes Hill
ST MARYS SCHOOL,142.938619999549,-37.2854899989298,3377,Ararat
ST MARYS SCHOOL,144.731729999863,-37.2787399992154,3435,Lancefield
ST MARYS SCHOOL,145.713390000423,-37.191249998795,3714,Alexandra
ST MARYS SCHOOL,143.872489999946,-36.5711199993831,3517,Inglewood
ST MARYS SCHOOL,145.354230000552,-36.3960399988767,3629,Mooroopna
ST MARYS SCHOOL,142.985180000513,-36.3735599993541,3480,Donald
ST MARYS SCHOOL,142.389600000045,-36.2540699993261,3393,Warracknabeal
ST MARYS SCHOOL,144.725830000011,-36.1342499995081,3564,Echuca
ST MARYS SCHOOL,143.545610000177,-35.3284499986754,3585,Swan Hill
ST MONICAS PRIMARY SCHOOL,144.923189999705,-37.7596499992426,3039,Moonee Ponds
ST MONICAS SCHOOL,144.906839999526,-37.8011499987206,3011,Footscray
ST MONICAS SCHOOL,144.24480999974,-36.7941899988659,3555,Kangaroo Flat
ST MONICAS SCHOOL,146.872639999971,-36.1267399992584,3690,Wodonga
ST PATRICKS SCHOOL,142.231680000233,-38.3861099986771,3284,Port Fairy
ST PATRICKS SCHOOL,142.368979999489,-38.299879999237,3282,Koroit
ST PATRICKS SCHOOL,145.474529999468,-38.0693699994307,3810,Pakenham
ST PATRICKS SCHOOL,147.07768000008,-37.9672499989135,3862,Stratford
ST PATRICKS SCHOOL,145.070159999764,-37.9835599992205,3194,Mentone
ST PATRICKS SCHOOL,145.065270000092,-37.9017599994053,3163,Murrumbeena
ST PATRICKS SCHOOL,145.352620000199,-37.7527199989879,3140,Lilydale
ST PATRICKS SCHOOL,144.090909999476,-37.5806399993721,3345,Gordon
ST PATRICKS SCHOOL,143.847149999671,-37.5643799995319,3350,Ballarat Central
ST PATRICKS PRIMARY SCHOOL,144.948120000419,-37.299379999469,3764,Kilmore
ST PATRICKS SCHOOL,141.643049999512,-36.3353999991225,3418,Nhill
ST PATRICKS SCHOOL,144.953599999536,-36.2526399989734,3621,Tongala
ST PATRICKS SCHOOL,144.111850000263,-36.0548399991075,3575,Pyramid Hill
ST PAULS KEALBA CATHOLIC SCHOOL,144.819640000258,-37.7337199988371,3021,Kealba
ST PAULS PRIMARY SCHOOL,142.156040000128,-34.2045899992892,3500,Mildura
ST PETERS LUTHERAN SCHOOL,142.037580000031,-36.4570499991551,3414,Dimboola
ST PETERS SCHOOL,145.070919999827,-37.9230299988826,3165,Bentleigh East
ST PETERS SCHOOL,144.819630000229,-37.8002699988568,3020,Sunshine West
ST PETERS SCHOOL,144.859420000084,-37.7442199993226,3033,Keilor East
ST PETERS SCHOOL,145.027549999435,-37.6505299989935,3076,Epping
ST PETERS SCHOOL,144.272739999839,-36.7441499988421,3550,Long Gully
ST PHILIPS SCHOOL,145.166590000178,-37.807629999158,3130,Blackburn North
ST RAPHAELS SCHOOL,144.99263000027,-37.7340799987566,3072,Preston
ST RICHARDS PRIMARY SCHOOL,145.321750000358,-37.8065499987707,3137,Kilsyth
ST ROBERTS SCHOOL,144.343020000556,-38.1563999992431,3220,Newtown
ST SCHOLASTICAS SCHOOL,145.125909999757,-37.8516299991908,3125,Burwood
ST THERESAS SCHOOL,144.82020000003,-37.7821799993842,3020,Albion
ST THERESES SCHOOL,144.910319999852,-37.7510999992737,3040,Essendon
ST THERESES SCHOOL,144.29825000037,-36.7668899988131,3550,Kennington
ST THOMAS MORES SCHOOL,145.101139999604,-38.197709999087,3930,Mount Eliza
ST THOMAS MORES SCHOOL,145.35267999988,-37.9083999990864,3160,Belgrave
ST THOMAS MORES SCHOOL,144.944950000418,-37.7072799989963,3046,Hadfield
ST TIMOTHYS SCHOOL,145.183660000455,-37.8403799987119,3133,Vermont
LINDENOW PRIMARY SCHOOL - LINDENOW CAMPUS,147.453269999702,-37.8008699994804,3865,Lindenow
LINDENOW PRIMARY SCHOOL - WOODGLEN CAMPUS,147.382149999986,-37.7757799992465,3875,Woodglen
CHRIST THE PRIEST CATHOLIC PRIMARY SCHOOL,144.737449999882,-37.7477099987531,3023,Caroline Springs
COLUMBA CATHOLIC SCHOOL,145.715870000383,-38.0932499987258,3815,Bunyip
CORPUS CHRISTI SCHOOL,144.922809999849,-37.7038799989549,3046,Glenroy
DON BOSCO SCHOOL,145.315019999534,-38.0259499989684,3805,Narre Warren
HOLY FAMILY SCHOOL,144.338339999522,-38.111089999089,3215,Bell Park
HOLY SPIRIT PARISH SCHOOL,144.329970000171,-38.1357999993297,3218,Herne Hill
HOLY TRINITY SCHOOL,145.242920000237,-37.8774499992301,3152,Wantirna South
ST FIDELIS SCHOOL,144.951569999902,-37.7498299992717,3058,Coburg
LUMEN CHRISTI CATHOLIC PRIMARY  SCHOOL,146.415720000534,-38.3163899995234,3842,Churchill
LUMEN CHRISTI SCHOOL,144.753350000529,-37.8925899993071,3030,Point Cook
LUMEN CHRISTI SCHOOL,143.817249999858,-37.5801699986902,3356,Delacombe
MARY MACKILLOP SCHOOL,145.311290000379,-37.9958199994971,3804,Narre Warren North
MOTHER TERESA SCHOOL,144.932770000457,-37.5752099987925,3064,Craigieburn
ST BRENDANS PRIMARY SCHOOL,143.966029999741,-37.5911499987865,3352,Dunnstown
OUR LADY OF MOUNT CARMEL SCHOOL,144.736310000137,-37.5800299989791,3429,Sunbury
OUR LADY OF PERPETUAL SUCCOUR SCHOOL,145.111389999766,-37.8300399994717,3127,Surrey Hills
OUR LADY OF THE ASSUMPTION SCHOOL,145.059719999827,-37.965489999298,3192,Cheltenham
OUR LADY OF THE IMMACULATE CONCEPTION SCHOOL,144.835569999652,-37.7894399986984,3020,Sunshine
OUR LADY OF THE ROSARY,144.462129999595,-37.2504999990314,3444,Kyneton
OUR LADY OF THE SOUTHERN CROSS,144.606229999727,-37.8758299990875,3024,Manor Lakes
OUR LADYS SCHOOL,144.931379999728,-37.598589998994,3064,Craigieburn
OUR LADYS SCHOOL,146.321149999561,-36.3721799993424,3677,Wangaratta
QUEEN OF PEACE PRIMARY SCHOOL,144.791700000385,-37.8751299987411,3028,Altona Meadows
SACRED HEART SCHOOL,143.57855000014,-38.3531399988136,3250,Elliminyt
SACRED HEART SCHOOL,146.404330000153,-38.2394199989193,3840,Morwell
ST MARY MACKILLOP PRIMARY SCHOOL,144.804349999559,-37.7146099987146,3038,Keilor Downs
ST ANTHONYS SCHOOL,144.390590000348,-38.0151799988873,3212,Lara
ST PETER CHANEL SCHOOL,144.769279999798,-37.7685099992992,3023,Deer Park
TAYLORS LAKES PRIMARY SCHOOL,144.793770000196,-37.709639999105,3038,Taylors Lakes
ST FRANCIS SCHOOL,145.207750000152,-36.0585799992526,3638,Nathalia
HOLY SPIRIT SCHOOL,145.236920000351,-37.7932199992711,3134,Ringwood North
HOLY SPIRIT SCHOOL,145.016200000313,-37.7608299987496,3071,Thornbury
RESURRECTION SCHOOL,145.162940000332,-37.9899299991663,3173,Keysborough
RESURRECTION SCHOOL,144.775400000104,-37.7362899988389,3021,Kings Park
SACRED HEART SCHOOL,145.00855999993,-37.9514599994834,3191,Sandringham
SACRED HEART SCHOOL,144.881399999607,-37.8400199988383,3015,Newport
SACRED HEART SCHOOL,145.158780000073,-37.6721299993383,3089,Diamond Creek
SACRED HEART SCHOOL,141.413640000401,-37.5859999993878,3311,Casterton
SACRED HEART SCHOOL,145.424620000177,-37.2145299992369,3717,Yea
PERANBIN PRIMARY COLLEGE - BADDAGINNIE CAMPUS,145.863450000405,-36.5924499989901,3670,Baddaginnie
GIPPSLAND GRAMMAR - BAIRNSDALE CAMPUS,147.619909999562,-37.8095799993936,3875,Wy Yung
ROLLINS PRIMARY SCHOOL - BATESFORD CAMPUS,144.289280000196,-38.0919699989267,3213,Batesford
GEELONG GRAMMAR SCHOOL - BOSTOCK HOUSE CAMPUS,144.336090000383,-38.1531299993835,3220,Newtown
DANDENONG RANGES STEINER SCHOOL - CRYSTAL BROOK CAMPUS,145.388219999696,-37.9597499993192,3782,Emerald
CAREY BAPTIST GRAMMAR SCHOOL - DONVALE CAMPUS,145.185189999506,-37.7722499989002,3111,Donvale
CHAIRO CHRISTIAN SCHOOL - DROUIN EAST CAMPUS,145.89554000029,-38.1343799989027,3820,Warragul
BELL PARK NORTH PRIMARY SCHOOL - GEELONG ENGLISH LANGUAGE PROGRAM,144.336000000168,-38.1059699992345,3215,Bell Park
GEELONG GRAMMAR SCHOOL - GLAMORGAN CAMPUS,145.008659999938,-37.8395599988105,3142,Toorak
SYDENHAM - HILLSIDE PRIMARY SCHOOL - HILLSIDE CAMPUS,144.736469999714,-37.6865199987773,3037,Hillside
CAMBERWELL GIRLS GRAMMAR SCHOOL - JUNIOR CAMPUS,145.061079999756,-37.8162699991882,3126,Canterbury
"PRESHIL, THE MARGARET LYTTLE MEMORIAL SCHOOL - ARLINGTON PRESHIL JUNIOR SCHOOL",145.052220000136,-37.8159199989485,3101,Kew
TRAFALGAR PRIMARY SCHOOL,146.159879999566,-38.2147499988833,3824,Trafalgar
TRINITY CATHOLIC PRIMARY SCHOOL,145.297989999807,-38.0553699993236,3805,Narre Warren South
UNDERA PRIMARY SCHOOL,145.218939999995,-36.2763499989488,3629,Undera
UPPER SANDY CREEK PRIMARY SCHOOL,147.112899999545,-36.355169999024,3695,Sandy Creek
VILLAGE SCHOOL,145.29449999972,-37.7637399992841,3136,Croydon North
WAAIA YALCA SOUTH PRIMARY SCHOOL,145.328619999876,-36.0514699987439,3637,Waaia
WEDGE PARK PRIMARY SCHOOL,144.554219999538,-37.6755999989604,3337,Melton West
WESTGROVE PRIMARY SCHOOL,144.659540000379,-37.878489999264,3030,Werribee
WOODLANDS PRIMARY SCHOOL,145.205029999545,-38.1356599993921,3910,Langwarrin
WOORAGEE PRIMARY SCHOOL,146.730889999634,-36.290469998889,3747,Wooragee
YARRALINDA SCHOOL,145.325069999784,-37.7646099993463,3138,Mooroolbark
ERASMUS SCHOOL,145.031330000154,-37.8270699993891,3122,Hawthorn
FINDON PRIMARY SCHOOL,145.051079999654,-37.6664799992042,3082,Mill Park
MARY IMMACULATE SCHOOL,145.038760000377,-37.7719299988923,3079,Ivanhoe
ST MARYS SCHOOL,142.778509999657,-34.5846899995044,3549,Robinvale
CROYDON HILLS PRIMARY SCHOOL,145.272050000257,-37.7766699990669,3136,Croydon Hills
CROYDON PRIMARY SCHOOL,145.281330000502,-37.7931599990046,3136,Croydon
AINSLIE PARKLANDS PRIMARY SCHOOL,145.264249999477,-37.7937699987931,3136,Croydon
DEUTSCHE SCHULE MELBOURNE,144.982780000503,-37.7788199987997,3068,Fitzroy North
DINJERRA PRIMARY SCHOOL,144.856119999952,-37.7916799989251,3019,Braybrook
DONCASTER GARDENS PRIMARY SCHOOL,145.147910000417,-37.7815899995291,3109,Doncaster East
EDINBURGH ADVENTIST PRIMARY SCHOOL,145.350760000189,-37.7847999991219,3140,Lilydale
EMMAUS CATHOLIC PRIMARY SCHOOL,144.77225000023,-37.7002899990499,3038,Taylors Lakes
EMMAUS CATHOLIC PRIMARY SCHOOL,143.871589999456,-37.6125599988006,3350,Mount Clear
FISH CREEK AND DISTRICT PRIMARY SCHOOL,146.084419999967,-38.6947399991984,3959,Fish Creek
FITZROY COMMUNITY SCHOOL,144.979819999432,-37.7891599994753,3068,Fitzroy North
FRESHWATER CREEK STEINER SCHOOL,144.279749999878,-38.2633099987803,3217,Freshwater Creek
GALILEE REGIONAL CATHOLIC PRIMARY SCHOOL,144.954820000158,-37.8361399991113,3205,South Melbourne
GISBORNE MONTESSORI SCHOOL,144.600010000441,-37.4533899992655,3438,New Gisborne
GLEN KATHERINE PRIMARY SCHOOL,145.139839999863,-37.6899699987961,3095,Eltham North
GLEN WAVERLEY SOUTH PRIMARY SCHOOL,145.167619999658,-37.8968499994296,3150,Glen Waverley
GLENGALA/SUNSHINE WEST PRIMARY SCHOOL,144.815120000423,-37.7992499989467,3020,Sunshine West
ST ANDREWS SCHOOL,145.107200000029,-37.9348799986764,3169,Clarinda
ST ANDREWS SCHOOL,144.65057999969,-37.9012599991811,3030,Werribee
ST BRENDANS SCHOOL,143.518810000449,-38.2706399989748,3249,Coragulac
ST BRENDANS SCHOOL,145.168399999613,-38.2336399986804,3912,Somerville
ST BRENDANS SCHOOL,148.012339999864,-37.871009998887,3909,Lakes Entrance
ST BRENDANS SCHOOL,144.931729999949,-37.784679998984,3031,Flemington
ST BRENDANS SCHOOL,145.407659999894,-36.3747199992552,3630,Shepparton
ST FRANCIS XAVIER SCHOOL,145.126209999534,-38.1487899992313,3199,Frankston
ST FRANCIS XAVIER SCHOOL,144.358139999843,-38.0720199994303,3214,Corio
ST JOHN VIANNEYS SCHOOL,145.092499999559,-37.9904599993471,3195,Parkdale
ST JOHN VIANNEYS SCHOOL,145.159569999755,-37.9326999994959,3170,Mulgrave
ST MICHAELS SCHOOL,146.534700000336,-38.1951499993135,3844,Traralgon
ST MICHAELS SCHOOL,145.353580000556,-38.0338099992133,3806,Berwick
ST MICHAELS SCHOOL,145.08249000015,-37.8641199989101,3147,Ashburton
ST MICHAELS SCHOOL,144.151369999724,-37.3372299990146,3460,Daylesford
ST MICHAELS SCHOOL,147.17342000053,-36.2162199995171,3700,Tallangatta
SPRING PARKS PRIMARY SCHOOL - VALLEY CAMPUS,145.138970000157,-37.9634499991019,3172,Springvale South
SPRINGVALE RISE PRIMARY SCHOOL (INTERIM NAME) - WAREHAM STREET CAMPUS,145.159050000496,-37.9392399993259,3171,Springvale
GOOD SAMARITAN CATHOLIC PRIMARY SCHOOL,144.934330000563,-37.6234299993815,3064,Roxburgh Park
GOOD SHEPHERD LUTHERAN PRIMARY SCHOOL,145.268619999924,-37.7826699995097,3136,Croydon Hills
GOOD SHEPHERD SCHOOL,145.16606000005,-37.9081099995232,3150,Wheelers Hill
GOONAWARRA PRIMARY SCHOOL,144.751059999831,-37.5804999991648,3429,Sunbury
GRASMERE PRIMARY SCHOOL,142.52287999973,-38.2859699987854,3281,Grassmere
GREAT RYRIE PRIMARY SCHOOL,145.237630000262,-37.8237799993435,3135,Heathmont
GRETA VALLEY PRIMARY SCHOOL,146.236360000245,-36.6178199986488,3675,Greta South
HAMLYN BANKS PRIMARY SCHOOL,144.327110000216,-38.1177499992775,3215,Hamlyn Heights
HEANY PARK PRIMARY SCHOOL,145.242890000069,-37.9339099989737,3178,Rowville
HILLSMEADE PRIMARY SCHOOL,145.307470000489,-38.0647099986898,3805,Narre Warren South
HOLY CROSS PRIMARY SCHOOL,144.597789999924,-37.4558799992676,3438,New Gisborne
HOLY EUCHARIST SCHOOL,144.811410000023,-37.7564199994615,3021,Saint Albans
HOLY FAMILY SCHOOL,145.238629999691,-37.9904799988968,3177,Doveton
HOLY FAMILY SCHOOL,145.129639999758,-37.8742399988866,3149,Mount Waverley
HOLY NAME SCHOOL,145.018579999484,-37.7302499990552,3073,Reservoir
HOLY ROSARY SCHOOL,144.928790000445,-37.795569999208,3031,Kensington
HOLY ROSARY SCHOOL,144.701109999724,-36.9176599993138,3523,Heathcote
HOLY ROSARY SCHOOL,144.310579999765,-36.7248599990242,3550,White Hills
PENLEIGH AND ESSENDON GRAMMAR SCHOOL - MOONEE PONDS CAMPUS,144.912500000251,-37.7616499989811,3039,Moonee Ponds
TINTERN SCHOOLS - SOUTHWOOD BOYS GRAMMAR SCHOOL,145.223909999555,-37.8302299994582,3134,Ringwood
HOLY SAVIOUR PARISH SCHOOL,145.175039999795,-37.8623199994764,3133,Vermont South
HOLY TRINITY LUTHERAN SCHOOL,142.217760000527,-36.7081699986656,3400,Horsham
HOLY TRINITY PRIMARY SCHOOL,145.135470000404,-37.6984299991309,3095,Eltham North
IMMACULATE HEART OF MARY SCHOOL,146.291599999445,-38.1847299987306,3825,Newborough
KAROO PRIMARY SCHOOL,145.26329000004,-37.9053099988579,3178,Rowville
KILLARA PRIMARY SCHOOL,144.704589999833,-37.5637799987839,3429,Sunbury
KINGS PARK PRIMARY SCHOOL,144.767550000259,-37.7331399988578,3021,Kings Park
KINGSLEY PARK PRIMARY SCHOOL,145.155710000053,-38.1680699995138,3199,Frankston
KNOX GARDENS PRIMARY SCHOOL,145.229589999819,-37.8822699989297,3152,Wantirna South
KOO WEE RUP PRIMARY SCHOOL,145.492860000299,-38.1948199987698,3981,Koo Wee Rup
KOROIT AND DISTRICT PRIMARY SCHOOL,142.368710000405,-38.2924299995024,3282,Koroit
KURUNJANG PRIMARY SCHOOL,144.586320000565,-37.6705599991692,3337,Kurunjang
LAHARUM PRIMARY SCHOOL,142.323320000464,-36.9453299992726,3401,Laharum
LANCASTER PRIMARY SCHOOL,145.132830000336,-36.3132399991297,3620,Lancaster
LANGWARRIN PARK PRIMARY SCHOOL,145.202509999527,-38.150899999184,3910,Langwarrin
LANGWARRIN PRIMARY SCHOOL,145.189860000161,-38.160379999297,3910,Langwarrin
LARDNER AND DISTRICT PRIMARY SCHOOL,145.880349999901,-38.204619998834,3821,Lardner
LYNBROOK PRIMARY SCHOOL,145.248989999874,-38.0523799990402,3975,Lynbrook
MACKELLAR PRIMARY SCHOOL,144.777529999829,-37.7172199990064,3037,Delahey
MAHARISHI SCHOOL OF THE AGE OF ENLIGHTENMENT,145.019470000246,-37.7043599989317,3073,Reservoir
MEADOW HEIGHTS PRIMARY SCHOOL,144.923850000256,-37.6504099993078,3048,Meadow Heights
MERINO CONSOLIDATED SCHOOL,141.548310000352,-37.7063499988042,3310,Merino
MILL PARK HEIGHTS PRIMARY SCHOOL,145.051750000063,-37.6573199986933,3082,Mill Park
MONMIA PRIMARY SCHOOL,144.792060000515,-37.7172599994871,3038,Keilor Downs
MORNINGTON PARK PRIMARY SCHOOL,145.058760000317,-38.2260099987557,3931,Mornington
MORWELL PRIMARY SCHOOL,146.417139999519,-38.2177099987515,3840,Morwell
MOTHER OF GOD SCHOOL,144.800820000012,-37.7793999991099,3022,Ardeer
Mother of God School,145.058789999983,-37.7737799989052,3079,Ivanhoe East
MOUNT MARTHA PRIMARY SCHOOL,145.013739999641,-38.2755499992336,3934,Mount Martha
MOUNT WAVERLEY NORTH PRIMARY SCHOOL,145.141359999664,-37.8679999989395,3149,Mount Waverley
MOYHU PRIMARY SCHOOL,146.383089999974,-36.5931599993186,3732,Moyhu
NANGILOC COLIGNAN AND DISTRICT PRIMARY SCHOOL,142.357799999501,-34.4738399991702,3494,Nangiloc
NHILL LUTHERAN SCHOOL,141.662160000292,-36.3277199991792,3418,Nhill
NULLAWARRE AND DISTRICT PRIMARY SCHOOL,142.734440000259,-38.46673999908,3268,Nullawarre
NUNAWADING CHRISTIAN COLLEGE-PRIMARY,145.170059999707,-37.8219099990905,3131,Nunawading
NYAH DISTRICT PRIMARY SCHOOL,143.343190000505,-35.186069999474,3595,Nyah West
OATLANDS PRIMARY SCHOOL,145.316200000123,-38.0064299995192,3805,Narre Warren
OUR HOLY REDEEMER SCHOOL,145.100090000335,-37.8203099992638,3127,Surrey Hills
OUR LADY HELP OF CHRISTIANS SCHOOL,144.977860000224,-37.7763299990196,3057,Fitzroy North
ST GEORGES ROAD PRIMARY SCHOOL SHEPPARTON - SHEPPARTON ENGLISH LANGUAGE CENTRE,145.404580000195,-36.3888699992922,3630,Shepparton
OUR LADY HELP OF CHRISTIANS SCHOOL,145.147919999475,-37.7161099989409,3095,Eltham
OUR LADY HELP OF CHRISTIANS SCHOOL,143.825620000257,-37.5254199991518,3355,Wendouree
OUR LADY HELP OF CHRISTIANS SCHOOL,142.473659999913,-36.6226599988786,3390,Murtoa
OUR LADY HELP OF CHRISTIANS SCHOOL,142.519540000393,-38.3852299989098,3280,Warrnambool
OUR LADY OF FATIMA SCHOOL,144.897540000213,-38.3713199988957,3939,Rosebud
OUR LADY OF GOOD COUNSEL SCHOOL,145.062800000311,-37.8110699992907,3103,Deepdene
OUR LADY OF LOURDES SCHOOL,145.009460000395,-37.8524399994107,3181,Prahran
OUR LADY OF LOURDES SCHOOL,145.265770000446,-37.8489699992585,3153,Bayswater
OUR LADY OF PERPETUAL HELP SCHOOL,145.232189999868,-37.8164099986638,3134,Ringwood
OUR LADY OF THE NATIVITY SCHOOL,144.896589999615,-37.7563299988604,3040,Aberfeldie
OUR LADY OF THE PINES SCHOOL,145.177220000513,-37.7744299989519,3111,Donvale
OUR LADY OF THE SACRED HEART PRIMARY,144.615619999934,-36.4930099994848,3558,Elmore
OUR LADY OF THE WAY SCHOOL,145.035529999823,-37.7152499994018,3083,Kingsbury
OUR LADY OF VICTORIES SCHOOL,145.057010000503,-37.8340899988914,3124,Camberwell
OUR LADY STAR OF THE SEA SCHOOL,144.540160000155,-38.2607699992746,3226,Ocean Grove
PAKENHAM HILLS PRIMARY SCHOOL,145.494430000319,-38.0606099994131,3810,Pakenham
PARK RIDGE PRIMARY SCHOOL,145.262470000286,-37.918399998698,3178,Rowville
PENBANK SCHOOL,145.093209999878,-38.2475399988475,3933,Moorooduc
PLEASANT STREET PRIMARY SCHOOL ( BALLARAT),143.838730000182,-37.5570399986638,3350,Lake Wendouree
PLENTY VALLEY INTERNATIONAL MONTESSORI SCHOOL,145.137099999583,-37.6840599991425,3088,Saint Helena
RANGEBANK PRIMARY SCHOOL,145.276220000281,-38.0873499995199,3977,Cranbourne
RANGEVIEW PRIMARY SCHOOL,145.206309999662,-37.8295599994068,3132,Mitcham
RED CLIFFS EAST PRIMARY SCHOOL,142.214280000308,-34.3050899988186,3496,Red Cliffs
REDESDALE MIA MIA PRIMARY SCHOOL,144.530889999944,-37.01950999894,3444,Redesdale
RESURRECTION HOUSE,144.905200000504,-37.7566399986736,3040,Aberfeldie
ROLLING HILLS PRIMARY SCHOOL,145.326850000012,-37.7664999994222,3138,Mooroolbark
ROXBURGH HOMESTEAD PRIMARY SCHOOL,144.916289999476,-37.6320499992466,3064,Roxburgh Park
SEABROOK PRIMARY SCHOOL,144.757909999844,-37.8788299990494,3028,Seabrook
ST ALOYSIUS SCHOOL,144.655310000199,-38.2686699993393,3225,Queenscliff
ST ALOYSIUS SCHOOL,145.025540000016,-37.8734399992264,3161,Caulfield North
ST CLEMENT OF ROME SCHOOL,145.090339999467,-37.7672799988076,3105,Bulleen
ST FRANCIS DE SALES SCHOOL,144.921079999886,-37.7188299991985,3046,Oak Park
ST FRANCIS OF ASSISI SCHOOL,145.058920000201,-37.6649799993645,3082,Mill Park
ST FRANCIS XAVIERS SCHOOL,145.131500000331,-37.8184799993029,3128,Box Hill
ST GREGORY THE GREAT SCHOOL,145.122290000444,-37.7805799992261,3108,Doncaster
ST JAMES SCHOOL,145.20970000051,-37.836739998987,3133,Vermont
MANSFIELD RUDOLF STEINER SCHOOL,146.085750000525,-37.0613899988028,3722,Mansfield
ST JAMES SCHOOL,143.84019000018,-37.6034499993112,3356,Sebastopol
ST JOAN OF ARC SCHOOL,144.994149999535,-37.9200999991564,3186,Brighton
ST JOSEPH THE WORKER SCHOOL,144.992930000414,-37.7021999994004,3073,Reservoir
ST JOSEPHS SCHOOL,145.822319999801,-38.4360299987895,3950,Korumburra
ST JOSEPHS SCHOOL,144.278360000377,-36.7693999991034,3550,Quarry Hill
ST JUDE THE APOSTLE SCHOOL,145.225959999569,-37.8898299987523,3179,Scoresby
ST LIBORIUS SCHOOL,144.25729999964,-36.7234599987333,3556,Eaglehawk
ST LUKE THE EVANGELIST SCHOOL,145.146720000325,-37.8355399988857,3130,Blackburn South
ST MARTIN DE PORRES SCHOOL,144.776980000546,-37.8537699994149,3028,Laverton
ST MARTIN DE PORRES SCHOOL,144.861629999738,-37.7584499993978,3034,Avondale Heights
ST MARTIN OF TOURS SCHOOL,145.076979999545,-37.7351699993206,3084,Rosanna
ST MARYS PRIMARY SCHOOL,147.062330000126,-38.1106899992426,3850,Sale
ST MARYS SCHOOL,142.050919999741,-37.7411299989023,3300,Hamilton
ST PAUL APOSTLE NORTH SCHOOL,145.262669999716,-37.9675199995013,3802,Endeavour Hills
ST PAUL APOSTLE SOUTH SCHOOL,145.257940000435,-37.9805099990993,3802,Endeavour Hills
ST PETER APOSTLE SCHOOL,144.690319999638,-37.8746299991937,3029,Hoppers Crossing
ST PIUS X SCHOOL,142.46584000018,-38.3648999994921,3280,Warrnambool
ST PIUS X SCHOOL,145.046299999547,-37.7469099990591,3081,Heidelberg West
ST THOMAS AQUINAS SCHOOL,144.358829999519,-38.0901599988183,3214,Norlane
ST THOMAS THE APOSTLE SCHOOL,145.157440000248,-37.8232399992532,3130,Blackburn
STRATHAIRD PRIMARY SCHOOL,145.286930000174,-38.0631099993447,3805,Narre Warren South
SUNSHINE CHRISTIAN SCHOOL,144.835869999465,-37.7683799995311,3020,Sunshine North
Tarwin Valley Primary School,146.015189999995,-38.5793299990131,3956,Meeniyan
ST JUSTINS SCHOOL,145.190510000288,-37.917799998645,3150,Wheelers Hill
ST LAURENCE OTOOLE SCHOOL,145.95430000051,-38.4789299993301,3953,Leongatha
ST LEO THE GREAT SCHOOL,144.851699999436,-37.8391999991168,3025,Altona North
ST MACARTANS SCHOOL,145.070470000407,-38.223199999201,3931,Mornington
ST MARKS SCHOOL,144.963620000536,-37.7162599994703,3060,Fawkner
ST MARYS SCHOOL,146.675979999481,-38.5568799991395,3971,Yarram
ST MARYS SCHOOL,143.585410000399,-38.3347199993611,3250,Colac
ST MARYS SCHOOL,145.000900000258,-37.9330399995156,3188,Hampton
ST MARYS SCHOOL,144.220959999608,-37.0639399992415,3450,Castlemaine
ST MARYS SCHOOL,144.218549999715,-35.8082199992147,3568,Cohuna
ST MARYS SCHOOL,142.850680000412,-35.5018199989347,3533,Sea Lake
ST MATTHEWS SCHOOL,144.967960000368,-37.6981399988334,3060,Fawkner
ST MICHAEL AND ST JOHNS SCHOOL,142.203989999562,-36.7139999990048,3400,Horsham
ST OLIVER PLUNKETTS SCHOOL,144.941860000104,-37.730869999455,3044,Pascoe Vale
ST PATRICKS SCHOOL,143.139010000478,-38.2350199988407,3260,Camperdown
ST PAULS SCHOOL,145.041470000054,-37.922809998668,3204,Bentleigh
ST PAULS SCHOOL,145.412060000366,-37.8679799987849,3793,Monbulk
ST PAULS SCHOOL,144.807519999802,-37.7875199993741,3020,Sunshine West
ST PAULS SCHOOL,144.967860000104,-37.7389199990848,3058,Coburg
ST PETER JULIAN EYMARD,145.317519999662,-37.7878999995292,3138,Mooroolbark
ST PETERS SCHOOL,145.12186000028,-37.923129999052,3168,Clayton
ST SIMONS SCHOOL,145.245329999589,-37.9256599991768,3178,Rowville
ST STEPHENS SCHOOL,145.019209999929,-37.7115499993935,3073,Reservoir
ST THERESE SCHOOL,144.311859999545,-38.3210999986701,3228,Torquay
ST THERESES SCHOOL,145.267250000282,-38.0772599988867,3977,Cranbourne North
ST THOMAS MORE SCHOOL,143.7999600002,-37.5534799994702,3350,Alfredton
ST THOMAS PRIMARY SCHOOL,144.556169999474,-38.1879999992407,3222,Drysdale
ST THOMAS SCHOOL,142.909970000184,-38.2397799994884,3264,Terang
ST THOMAS SCHOOL,147.08332000024,-38.0993899993732,3850,Sale
ST THOMAS THE APOSTLE SCHOOL,145.119110000538,-37.6821799991003,3088,Greensborough
ST VINCENT DE PAULS SCHOOL,146.415480000072,-38.2305899986962,3840,Morwell
ST VINCENT DE PAULS SCHOOL,144.924130000199,-37.7421299993574,3041,Strathmore
STELLA MARIS CATHOLIC PRIMARY SCHOOL,144.728689999683,-37.8907499988998,3030,Point Cook
STELLA MARIS SCHOOL,145.041050000562,-37.9819699988805,3193,Beaumaris
CHANDLER PARK PRIMARY SCHOOL - COCHRANE AVENUE CAMPUS,145.1801900002,-37.9923099986957,3173,Keysborough
CORPUS CHRISTI SCHOOL,144.663450000472,-37.9099299994816,3030,Werribee
CORPUS CHRISTI SCHOOL,144.872919999512,-37.8085199992453,3012,West Footscray
GOLDEN SQUARE PRIMARY SCHOOL - LAUREL STREET CAMPUS,144.262130000082,-36.7727199994751,3555,Golden Square
GOLDEN SQUARE PRIMARY SCHOOL - MAPLE STREET CAMPUS,144.2573099997,-36.7705899989563,3555,Golden Square
CHANDLER PARK PRIMARY SCHOOL - MARALINGA CAMPUS,145.187119999778,-37.9859699989941,3173,Keysborough
SWIFTS CREEK SCHOOL (INTERIM NAME) - PRIMARY CAMPUS,147.723209999955,-37.266649999185,3896,Swifts Creek
SPRINGVALE RISE PRIMARY SCHOOL (INTERIM NAME) - SPRINGVALE ROAD CAMPUS,145.152759999731,-37.9521499987233,3171,Springvale
WILLIAM RUTHVEN PRIMARY SCHOOL,145.002789999467,-37.6966599991557,3073,Reservoir
MAHOGANY RISE PRIMARY SCHOOL - MAHOGANY RISE STUDENT DEVELOPMENT CENTRE,145.156989999912,-38.1251699992275,3200,Frankston North
GOWRIE STREET PRIMARY SCHOOL SHEPPARTON - MANEGA KOORIE ANNEXE,145.396769999896,-36.3663299989201,3630,Shepparton
GOWRIE STREET PRIMARY SCHOOL SHEPPARTON,145.396360000323,-36.3667899993908,3630,Shepparton
ST GEORGES ROAD PRIMARY SCHOOL SHEPPARTON,145.405740000308,-36.3900799986471,3630,Shepparton
BELL PARK NORTH PRIMARY SCHOOL,144.336029999855,-38.1058799993415,3215,Bell Park
WILLMOTT PARK PRIMARY SCHOOL,144.922600000333,-37.5917599994482,3064,Craigieburn
LIGHTNING REEF PRIMARY SCHOOL - HOLMES ROAD CAMPUS,144.268800000023,-36.736829998852,3550,North Bendigo
LIGHTNING REEF PRIMARY SCHOOL - NOLAN STREET CAMPUS,144.284509999481,-36.7437099992102,3550,North Bendigo
DALLAS BROOKS COMMUNITY PRIMARY SCHOOL - DALLAS CAMPUS,144.934919999742,-37.6746299989869,3047,Dallas
DALLAS BROOKS COMMUNITY PRIMARY SCHOOL - UPFIELD CAMPUS,144.944279999634,-37.6688199989141,3047,Dallas
MELBOURNE GRAMMAR SCHOOL - GRIMWADE CAMPUS,145.009479999603,-37.8711799994981,3161,Caulfield North
SACRED HEART PRIMARY SCHOOL - SACRED HEART SCHOOL - SENIOR SCHOOL,146.013769999604,-36.0127799994686,3730,Yarrawonga
TRINITY CATHOLIC SCHOOL,145.008249999465,-37.815839999237,3121,Richmond
ST BRIGIDS CATHOLIC PRIMARY SCHOOL,145.405669999878,-38.0546099990124,3809,Officer
ST FRANCIS DE SALES CATHOLIC PRIMARY SCHOOL,145.252480000094,-38.0589999993042,3975,Lynbrook
ST LAWRENCE CATHOLIC PRIMARY SCHOOL,144.76051999958,-37.7906699991404,3026,Derrimut
ST MARYS SCHOOL,144.997600000181,-37.8590099994199,3183,Saint Kilda East
SACRED HEART PRIMARY SCHOOL - SACRED HEART SCHOOL - JUNIOR SCHOOL,146.009249999768,-36.0107099987468,3730,Yarrawonga
SPENSLEY STREET PRIMARY SCHOOL - GLEN FORBES CAMP,145.545519999646,-38.4592399993732,3990,Glen Forbes
SACRED HEART SCHOOL,145.223919999653,-36.4398099986641,3616,Tatura
ST MARYS SCHOOL,146.726929999637,-36.5535599990584,3737,Myrtleford
ST MARYS SCHOOL,145.011210000197,-36.5877799992571,3612,Rushworth
ST MELS SCHOOL,145.410680000008,-36.3924599989965,3630,Shepparton
ST PATRICKS SCHOOL,146.321959999727,-36.3561499991051,3677,Wangaratta
ST PATRICKS SCHOOL,143.246870000118,-36.6170599986765,3478,Saint Arnaud
ST PATRICKS SCHOOL,142.787270000046,-37.0593399992841,3380,Stawell
TONGALA PRIMARY SCHOOL,144.956519999751,-36.2521299987712,3621,Tongala
WILMOT ROAD PRIMARY SCHOOL SHEPPARTON,145.405909999537,-36.3984799993695,3630,Shepparton
ALL SAINTS PARISH SCHOOL,141.592790000282,-38.359459999066,3305,Portland
ALLANSFORD AND DISTRICT PRIMARY SCHOOL,142.590400000484,-38.3862699987058,3277,Allansford
ALTONA GREEN PRIMARY SCHOOL,144.78492000049,-37.8867599987107,3028,Altona Meadows
ANNUNCIATION SCHOOL,144.847969999551,-37.8209799990872,3012,Brooklyn
ASPENDALE GARDENS PRIMARY SCHOOL,145.116800000014,-38.0224999989533,3195,Aspendale Gardens
BADGER CREEK PRIMARY SCHOOL,145.533249999725,-37.681319998841,3777,Badger Creek
BAIRNSDALE CHRISTIAN COMMUNITY SCHOOL,147.578350000291,-37.8412199988122,3875,Bairnsdale
BALLARAT PRIMARY SCHOOL (DANA STREET),143.853940000178,-37.5639999990611,3350,Ballarat Central
BALLARAT STEINER SCHOOL,143.862209999967,-37.6407499988599,3350,Mount Helen
BALNARRING PRIMARY SCHOOL,145.122830000461,-38.3767099991425,3926,Balnarring
BASS VALLEY PRIMARY SCHOOL,145.488769999431,-38.4312199991964,3984,Corinella
BELLE VUE PARK PRIMARY SCHOOL,144.943940000519,-37.7011799990272,3046,Glenroy
BENALLA CHRISTIAN SCHOOL,145.999059999678,-36.5474399990065,3672,Benalla
BERWICK LODGE PRIMARY SCHOOL,145.327439999802,-38.0311299993593,3806,Berwick
BETHANY CATHOLIC PRIMARY SCHOOL,144.658670000334,-37.8755699990803,3030,Werribee
BIG HILL PRIMARY SCHOOL,144.242480000458,-36.8305699988752,3555,Big Hill
BOURCHIER STREET PRIMARY SCHOOL SHEPPARTON,145.412969999517,-36.3665299987572,3630,Shepparton
BRANXHOLME-WALLACEDALE COMMUNITY SCHOOL,141.798730000251,-37.8563399993931,3302,Branxholme
CAMBRIDGE PRIMARY SCHOOL,144.675700000375,-37.8673799990631,3029,Hoppers Crossing
CANA CATHOLIC PRIMARY SCHOOL,144.747159999998,-37.6878999992141,3037,Hillside
CARDROSS PRIMARY SCHOOL,142.145050000315,-34.2879999993977,3496,Cardross
CHRIST CHURCH GRAMMAR SCHOOL,144.985749999945,-37.8389399990712,3141,South Yarra
CHRIST OUR HOLY REDEEMER SCHOOL,145.105760000481,-37.8961499987787,3166,Oakleigh
CHRIST THE KING PRIMARY SCHOOL,144.861969999906,-37.7875999993705,3019,Braybrook
CHRIST THE KING SCHOOL,144.3931000005,-38.1665399991662,3219,Newcomb
CLAIRVAUX CATHOLIC SCHOOL,144.324909999757,-38.1854999991749,3216,Belmont
CLIFTON SPRINGS PRIMARY SCHOOL,144.553150000449,-38.1656399992437,3222,Clifton Springs
COURTENAY GARDENS PRIMARY SCHOOL,145.283460000504,-38.0801099995222,3977,Cranbourne North
CRAIGIEBURN PRIMARY SCHOOL,144.933549999846,-37.5826299995106,3064,Craigieburn
CRAIGIEBURN SOUTH PRIMARY SCHOOL,144.935860000006,-37.6087399991639,3064,Craigieburn
ST FRANCIS OF ASSISI CATHOLIC PRIMARY SCHOOL,144.698239999513,-37.8482799986759,3029,Tarneit
BEECHWORTH MONTESSORI PRIMARY SCHOOL - GILCHRIST AVENUE CAMPUS,146.69353999991,-36.3666799992011,3747,Beechworth
MELBOURNE MONTESSORI SCHOOL - BRIGHTON EAST CAMPUS,145.017520000399,-37.9117399993757,3187,Brighton East
MELBOURNE MONTESSORI SCHOOL - CAULFIELD SOUTH CAMPUS,145.025680000095,-37.8881499989932,3162,Caulfield South
BEECHWORTH MONTESSORI PRIMARY SCHOOL,146.695969999642,-36.3680499995287,3747,Beechworth
KOONWARRA VILLAGE SCHOOL,145.943930000451,-38.5478999992388,3954,Koonwarra
DIVREI EMINEH,144.994680000286,-37.8946999994834,3186,Brighton
SACRED HEART SCHOOL,147.899199999632,-36.1982299991473,3707,Corryong
YEA SCHOOL HOLIDAY PROGRAM,145.428299999791,-37.2131399990928,3717,Yea
CHALCOT LODGE PRIMARY SCHOOL,145.247709999614,-37.9697199994051,3802,Endeavour Hills
KILBERRY VALLEY PRIMARY SCHOOL,145.279580000051,-38.034149999216,3976,Hampton Park
SCHOOL OF THE GOOD SHEPHERD,144.889459999804,-37.6930199992352,3043,Gladstone Park
PERANBIN PRIMARY COLLEGE - SWANPOOL CAMPUS,146.001479999898,-36.7514699992795,3673,Swanpool
ST ROCHS SCHOOL,145.052320000086,-37.8573499995109,3146,Glen Iris
ST BERNADETTES SCHOOL,144.835280000466,-37.7711399987603,3020,Sunshine North
HAILEYBURY NEWLANDS,145.149859999767,-37.994149998812,3173,Keysborough
PRESHIL -THE MARGARET LYTTLE MEMORIAL SCHOOL,145.05221999969,-37.8163299988599,3123,Hawthorn East
QUANTIN BINNAH/ CORPUS CHRISTI PS,144.664180000108,-37.9093899987548,3030,Werribee
GISBORNE MONTESSORI SCHOOL,144.599589999497,-37.4533199994775,3438,New Gisborne
KALKER MONTESSORI CENTRE,145.089229999832,-37.7789999987548,3105,Bulleen
BURWOOD HEIGHTS PRIMARY SCHOOL,145.16397000028,-37.8469399994428,3131,Forest Hill
ST ALBANS SOUTH PS OSHC -EXTEND,144.803499999699,-37.7548299990124,3021,Saint Albans
CAULFIELD GRAMMAR PRE-PREP,145.190609999672,-37.8995599989768,3150,Wheelers Hill
MINYIP CLASS 2,142.585159999593,-36.4615999991271,3392,Minyip
MELBOURNE MONTESSORI SCHOOL CAULFIELD CAMPUS,145.025829999642,-37.8880599990035,3162,Caulfield South
TORQUAY MONTESSORI CENTRE,144.319350000401,-38.3225399991828,3228,Torquay
MOMENTUM MONTESSORI,144.907360000571,-38.373629999027,3939,Rosebud
ESSEX HEIGHTS JUNIORS,145.113489999884,-37.8595699987986,3149,Mount Waverley
NORTHWEST MARIA MONTESSORI,144.973119999567,-37.7401699993967,3058,Coburg
GEELONG GRAMMAR SCHOOL TOORAK CAMPUS,145.008860000066,-37.8392999995032,3142,Toorak
PENINSULA MONTESSORI CENTRE,145.147070000441,-38.1352799990472,3199,Frankston
PLENTY VALLEY MONTESSORI SCHOOL,145.137109999576,-37.6840199990166,3088,Saint Helena
HAMPTON PARK PRIMARY SCHOOL,145.252900000362,-38.0303999987291,3976,Hampton Park
MOE PRIMARY SCHOOL,146.246730000548,-38.1897099988386,3825,Moe
KNOX CENTRAL PRIMARY SCHOOL,145.254980000242,-37.8611499992798,3155,Boronia
WALLAROO PRIMARY SCHOOL,145.172750000357,-38.2978799993431,3915,Hastings
Boisdale Primary School,146.979480000098,-37.8795799992739,3860,Boisdale
The Geelong College Junior School Campus,144.328120000094,-38.1463799987987,3220,Newtown
WYNDHAM VALE PRIMARY SCHOOL,144.609610000156,-37.8955399994059,3024,Wyndham Vale
ARNOLDS CREEK PRIMARY SCHOOL,144.542870000023,-37.6663399989399,3337,Melton West
MOUNT WAVERLEY HEIGHTS PRIMARY SCHOOL,145.111280000159,-37.8889099988119,3149,Mount Waverley
BARTON PRIMARY SCHOOL,145.239029999862,-38.1149599992891,3977,Cranbourne West
HARVEST HOME PRIMARY SCHOOL,145.002270000203,-37.6220599994362,3076,Epping
TULLIALLAN PRIMARY SCHOOL,145.327339999458,-38.0815899989249,3977,Cranbourne North
JOHN HENRY PRIMARY SCHOOL,145.442810000532,-38.0775299987221,3810,Pakenham
MERNDA PARK PRIMARY SCHOOL,145.096940000015,-37.6140099994927,3754,Mernda
WILANDRA RISE PRIMARY SCHOOL,145.3198200001,-38.1089099989131,3978,Clyde North
NEWBURY PRIMARY SCHOOL,144.909550000185,-37.5709799990485,3064,Craigieburn
MORWELL CENTRAL PRIMARY SCHOOL,146.407650000348,-38.2316599989694,3840,Morwell
WINDSOR PRIMARY SCHOOL,144.995840000479,-37.8569299991733,3181,Windsor
TORQUAY COAST PRIMARY SCHOOL,144.338190000278,-38.3045499994399,3228,Torquay
BRIDGEWOOD PRIMARY SCHOOL,145.419669999909,-38.0719299992121,3809,Officer
SOUTH MELBOURNE PRIMARY SCHOOL,144.953739999526,-37.8292799995264,3006,South Melbourne
Echuca Twin Rivers Primary School,144.724749999502,-36.1375099994371,3564,Echuca
TARNEIT RISE PRIMARY SCHOOL,144.665829999855,-37.8361699986678,3029,Tarneit
SPRINGVALE RISE PRIMARY SCHOOL - SPRINGVALE ROAD CAMPUS,145.152759999731,-37.9521499987233,3171,Springvale
SPRINGVALE RISE PRIMARY SCHOOL - WAREHAM STREET CAMPUS,145.159050000496,-37.9392399993259,3171,Springvale
BURNSIDE PRIMARY SCHOOL,144.752899999706,-37.7456499990118,3023,Burnside
PAKENHAM PRIMARY SCHOOL,145.510850000094,-38.0639199994654,3810,Pakenham
AITKEN HILL PRIMARY SCHOOL,144.905559999971,-37.6016999986732,3064,Craigieburn
SOUTH MELBOURNE PARK PRIMARY SCHOOL,144.962700000084,-37.8405199993788,3206,Albert Park
ATHOL ROAD PRIMARY SCHOOL,145.149970000247,-37.9710399987991,3172,Springvale South
GLENGALA PRIMARY SCHOOL,144.815120000423,-37.7992499989467,3020,Sunshine West
VICTORIA ROAD PRIMARY SCHOOL,145.336109999755,-37.7551699994513,3140,Lilydale
Riverwalk Primary School,144.639460000273,-37.9213999992197,3030,Werribee
Lucas Primary School,143.780290000278,-37.5479599988285,3350,Lucas
Davis Creek Primary School,144.660129999555,-37.856559998958,3029,Tarneit
Keysborough Gardens Primary School,145.161270000071,-38.0095299986764,3173,Keysborough
Botanic Ridge Primary School,145.286229999909,-38.1488799992072,3977,Botanic Ridge
Casey Fields Primary School,145.29728000049,-38.120029999388,3977,Cranbourne East
GRAYLING PRIMARY SCHOOL,145.372839999504,-38.0827199992277,3978,Clyde North
Mirripoa Primary School,144.328099999777,-38.2250099990929,3217,Mount Duneed
Springside Primary School,144.738590000082,-37.7110399986475,3023,Caroline Springs
Ivanhoe East Primary School Warncliffe Road Campus,145.059460000176,-37.7745699994636,3079,Ivanhoe East
Beveridge Primary School - Ambrosia Campus,144.955010000483,-37.469489998759,3753,Beveridge
Ivanhoe East Primary School - Wilfred Road Campus,145.058620000558,-37.7735999989642,3079,Ivanhoe East
Beveridge Primary School - Ambrosia Way Campus,144.955010000483,-37.469489998759,3753,Beveridge
Beveridge Primary School - Arrowsmith Street Campus,144.977759999695,-37.472049999116,3753,Beveridge
Alvie Primary School,143.503329999461,-38.241889998655,3249,Alvie
Meeniyan Primary School,146.015189999995,-38.5793299990131,3956,Meeniyan
Hume Valley School - Narrun Campus,144.943159999612,-37.6710999989339,3047,Dallas
Orchard Park Primary School,145.396720000149,-38.0548599988764,3809,Officer
Riverbend Primary School,144.626349999611,-37.8756199986471,3024,Wyndham Vale
Ramlegh Park Primary School,145.338530000451,-38.1151099991872,3978,Clyde North
Aintree Primary School,144.666680000439,-37.7234499992875,3336,Aintree
Edgars Creek Primary School,145.003659999508,-37.6093599988934,3750,Wollert
Keelonith Primary School,144.879049999548,-37.6226499994115,3059,Greenvale
Docklands Primary School,144.93972999959,-37.8127599986427,3008,Docklands
Eynesbury Primary School,144.547429999975,-37.789959999313,3338,Eynesbury
Gaayip-Yaglia Primary School,144.90929000041,-37.5285999993193,3064,Mickleham
Garrang Wilam Primary School,144.725520000126,-37.8275999993617,3029,Truganina
Gaayip - Yagila Primary School,144.90929000041,-37.5285999993193,3064,Mickleham
Newington Primary School,143.831220000324,-37.5659999990959,3350,Newington
Newcombe Primary School,144.394959999705,-38.1651499989206,3219,Newcomb
Strathtulloh Primary School,144.589119999745,-37.7166299995089,3338,Melton South
Willowbank Primary School,144.60806000021,-37.5042599992488,3437,Gisborne
Clyde Creek Primary School,145.330409999995,-38.1222799992736,3978,Clyde
Wollert Primary School,145.026149999554,-37.6104199990036,3750,Wollert
Deanside Primary School,144.697940000112,-37.7210999986576,3335,Deanside
Gilgai Plains Primary School,144.959309999748,-37.5324199986952,3064,Kalkallo
Niddrie Autistic School,144.887290000106,-37.7442499990775,3042,Niddrie
Wangala Primary School,144.339859999755,-38.1856999994594,3216,Belmont
The Alpine School - Don Valley Campus,145.586669999841,-37.7622199989852,3139,Don Valley
Quarters Primary School,145.248889999819,-38.0947199989996,3977,Cranbourne West
Karwan Primary School,144.64556000026,-37.8533299990494,3029,Tarneit
Donnybrook Primary School,144.996670000176,-37.5366699988007,3064,Donnybrook
Ngarri Primary School,144.5838900005,-37.8655599994648,3024,Manor Lakes
Lollypop Creek Primary School,144.613060000086,-37.9105599994551,3030,Werribee
Kurrun Primary School,145.403609999529,-38.0702799986994,3809,Officer
Nearnung Primary School,144.684719999933,-37.8244399992858,3029,Tarneit
Barrawang Primary School,144.992780000372,-37.5969399989736,3750,Wollert
North Melbourne Primary School Molesworth Street Campus,144.947780000491,-37.7977799988534,3051,North Melbourne
Thornhill Park Primary School,144.626110000173,-37.7149999991901,3335,Thornhill Park
Merribek Primary School,144.966480000279,-37.7550499986664,3058,Coburg
Topirum Primary School,145.384130000108,-38.1082799993783,3978,Clyde North
Banum Warrik Primary School,144.955949999815,-37.5215299992543,3064,Kalkallo
Yubup Primary School,144.893679999655,-37.5423699991582,3064,Mickleham
Binap Primary School,144.545350000297,-37.7019299989038,3338,Brookfield
Laa Yulta Primary School,144.59661999959,-37.8852399993564,3024,Mambourin
Wimba Primary School,144.667909999817,-37.8231599990237,3029,Tarneit
Warreen Primary School,144.716100000387,-37.8170899994023,3029,Truganina
Kurmile Primary School,145.396339999741,-38.0597399987208,3809,Officer
